{"type":"FeatureCollection","features":[{"type":"Feature","id":"0000191553201836420100000000","properties":{"id":"0000191553201836420100000000","pnu":"1221010400100150011","purpose":"단독주택"},"geometry":{"type":"MultiPolygon","coordinates":[[[[126.908047,35.151783],[126.907978,35.151834],[126.908175,35.15199],[126.908222,35.151945],[126.908205,35.15192],[126.908218,35.151908],[126.908047,35.151783]]]]}},{"type":"Feature","id":"0000191561891836293700000000","properties":{"id":"0000191561891836293700000000","pnu":"1221010400100150012","purpose":"단독주택"},"geometry":{"type":"MultiPolygon","coordinates":[[[[126.908051,35.151781],[126.90822,35.151905],[126.908351,35.151756],[126.908197,35.151636],[126.908113,35.151711],[126.908125,35.151721],[126.908051,35.151781]]]]}},{"type":"Feature","id":"0000191567931836559600000000","properties":{"id":"0000191567931836559600000000","pnu":"1221010400100130008","purpose":"단독주택"},"geometry":{"type":"MultiPolygon","coordinates":[[[[126.908303,35.152087],[126.908341,35.152058],[126.908313,35.152038],[126.908335,35.151989],[126.908248,35.151942],[126.908185,35.151991],[126.908303,35.152087]]]]}},{"type":"Feature","id":"0000191571481836459100000000","properties":{"id":"0000191571481836459100000000","pnu":"1221010400100130009","purpose":"단독주택"},"geometry":{"type":"MultiPolygon","coordinates":[[[[126.908332,35.151973],[126.908379,35.151928],[126.908288,35.151862],[126.908241,35.151914],[126.908332,35.151973]]]]}},{"type":"Feature","id":"0000191615241836851100000000","properties":{"id":"0000191615241836851100000000","pnu":"1221010400100040030","purpose":"기타"},"geometry":{"type":"MultiPolygon","coordinates":[[[[126.908779,35.152336],[126.908867,35.152268],[126.9088,35.152209],[126.908712,35.152277],[126.908779,35.152336]]]]}},{"type":"Feature","id":"0000191633841835212400000000","properties":{"id":"0000191633841835212400000000","pnu":"1221010400100220007","purpose":"기타"},"geometry":{"type":"MultiPolygon","coordinates":[[[[126.908973,35.150851],[126.909067,35.150789],[126.909013,35.15074],[126.908925,35.150803],[126.908973,35.150851]]]]}},{"type":"Feature","id":"1955191628701835112700000000","properties":{"id":"1955191628701835112700000000","pnu":"1221010400100220009","year":1955,"purpose":"단독주택"},"geometry":{"type":"MultiPolygon","coordinates":[[[[126.908948,35.150751],[126.908994,35.150714],[126.908927,35.15066],[126.908885,35.150699],[126.908948,35.150751]]]]}},{"type":"Feature","id":"1958191603251836760000000000","properties":{"id":"1958191603251836760000000000","pnu":"1221010400100030002","purpose":"단독주택","floors":1,"structure":"일반목구조"},"geometry":{"type":"MultiPolygon","coordinates":[[[[126.908703,35.152245],[126.908726,35.152225],[126.908613,35.152136],[126.908591,35.152158],[126.908703,35.152245]]]]}},{"type":"Feature","id":"1958191606171836711900000000","properties":{"id":"1958191606171836711900000000","pnu":"1221010400100030002","purpose":"기타","structure":"벽돌구조"},"geometry":{"type":"MultiPolygon","coordinates":[[[[126.908722,35.1522],[126.908754,35.15217],[126.908654,35.152094],[126.908625,35.15212],[126.908722,35.1522]]]]}},{"type":"Feature","id":"1958191615091837015600000000","properties":{"id":"1958191615091837015600000000","pnu":"1221010400100040009","purpose":"단독주택","floors":1,"structure":"일반목구조"},"geometry":{"type":"MultiPolygon","coordinates":[[[[126.908813,35.152491],[126.908871,35.152439],[126.908766,35.152351],[126.908702,35.152403],[126.908813,35.152491]]]]}},{"type":"Feature","id":"1961191578951836156600000000","properties":{"id":"1961191578951836156600000000","pnu":"1221010400100150018","purpose":"단독주택","floors":1,"structure":"일반목구조"},"geometry":{"type":"MultiPolygon","coordinates":[[[[126.908451,35.151619],[126.908417,35.15159],[126.908332,35.151676],[126.908368,35.151701],[126.908451,35.151619]]]]}},{"type":"Feature","id":"1963191620631836104300000000","properties":{"id":"1963191620631836104300000000","pnu":"1221010400100080007","purpose":"기타","structure":"일반목구조"},"geometry":{"type":"MultiPolygon","coordinates":[[[[126.908809,35.151652],[126.908908,35.151562],[126.90889,35.151546],[126.90879,35.151638],[126.908809,35.151652]]]]}},{"type":"Feature","id":"1963191625901836159700000000","properties":{"id":"1963191625901836159700000000","pnu":"1221010400100080007","purpose":"단독주택","floors":1,"structure":"일반목구조"},"geometry":{"type":"MultiPolygon","coordinates":[[[[126.908918,35.151706],[126.908975,35.151659],[126.908893,35.151593],[126.908841,35.151639],[126.908918,35.151706]]]]}},{"type":"Feature","id":"1963191629151836821700000000","properties":{"id":"1963191629151836821700000000","pnu":"1221010400100040018","purpose":"단독주택","floors":1,"structure":"일반목구조"},"geometry":{"type":"MultiPolygon","coordinates":[[[[126.908946,35.15231],[126.909024,35.152236],[126.908971,35.152192],[126.908935,35.15222],[126.908901,35.152202],[126.908855,35.152239],[126.908946,35.15231]]]]}},{"type":"Feature","id":"1963191632331836222300000000","properties":{"id":"1963191632331836222300000000","pnu":"1221010400100080007","purpose":"단독주택","floors":1,"structure":"일반목구조"},"geometry":{"type":"MultiPolygon","coordinates":[[[[126.908949,35.151752],[126.909029,35.151678],[126.909006,35.15166],[126.908927,35.151733],[126.908949,35.151752]]]]}},{"type":"Feature","id":"1968191591951836503700000000","properties":{"id":"1968191591951836503700000000","pnu":"1221010400100130011","purpose":"기타","far":82.3,"floors":1,"structure":"일반목구조"},"geometry":{"type":"MultiPolygon","coordinates":[[[[126.90843,35.15192],[126.908567,35.152033],[126.90859,35.152046],[126.908641,35.152006],[126.908531,35.151914],[126.908538,35.151908],[126.908491,35.151869],[126.90843,35.15192]]]]}},{"type":"Feature","id":"1968191602091836399500000000","properties":{"id":"1968191602091836399500000000","pnu":"1221010400100130011","purpose":"기타","far":82.3,"floors":1,"structure":"일반목구조"},"geometry":{"type":"MultiPolygon","coordinates":[[[[126.908685,35.151965],[126.908772,35.151902],[126.908599,35.151764],[126.908522,35.151829],[126.908685,35.151965]]]]}},{"type":"Feature","id":"1968191631211837070700000000","properties":{"id":"1968191631211837070700000000","pnu":"1221010400100040011","purpose":"단독주택"},"geometry":{"type":"MultiPolygon","coordinates":[[[[126.908918,35.152501],[126.909023,35.152468],[126.909014,35.152439],[126.908903,35.152475],[126.908918,35.152501]]]]}},{"type":"Feature","id":"1975191584401836204000000000","properties":{"id":"1975191584401836204000000000","pnu":"1221010400100130012","purpose":"기타"},"geometry":{"type":"MultiPolygon","coordinates":[[[[126.908448,35.151736],[126.908505,35.151675],[126.908458,35.151642],[126.908397,35.151703],[126.908448,35.151736]]]]}},{"type":"Feature","id":"1975191586561836292600000000","properties":{"id":"1975191586561836292600000000","pnu":"1221010400100130012","year":1975,"purpose":"기타"},"geometry":{"type":"MultiPolygon","coordinates":[[[[126.908478,35.151851],[126.908581,35.15175],[126.908506,35.151693],[126.908436,35.151755],[126.908394,35.151723],[126.908356,35.151757],[126.908478,35.151851]]]]}},{"type":"Feature","id":"1976191624761836946200000000","properties":{"id":"1976191624761836946200000000","pnu":"1221010400100040016","year":1976,"purpose":"단독주택","floors":3,"structure":"벽돌구조"},"geometry":{"type":"MultiPolygon","coordinates":[[[[126.9089,35.152421],[126.908976,35.152365],[126.908884,35.152293],[126.908813,35.152357],[126.9089,35.152421]]]]}},{"type":"Feature","id":"1977191578551836381300000000","properties":{"id":"1977191578551836381300000000","pnu":"1221010400100130010","year":1977,"purpose":"단독주택"},"geometry":{"type":"MultiPolygon","coordinates":[[[[126.908422,35.151919],[126.908481,35.151872],[126.908352,35.151779],[126.908293,35.151825],[126.908422,35.151919]]]]}},{"type":"Feature","id":"1980191607261836934800000000","properties":{"id":"1980191607261836934800000000","pnu":"1221010400100040032","year":1980,"purpose":"제1종 근린생활시설","floors":1,"structure":"일반목구조"},"geometry":{"type":"MultiPolygon","coordinates":[[[[126.908691,35.152397],[126.908763,35.15234],[126.908714,35.152299],[126.90864,35.152355],[126.908691,35.152397]]]]}},{"type":"Feature","id":"1981191597191836840300000000","properties":{"id":"1981191597191836840300000000","pnu":"1221010400100030001","year":1981,"purpose":"제1종 근린생활시설","floors":4,"structure":"철근콘크리트구조"},"geometry":{"type":"MultiPolygon","coordinates":[[[[126.908627,35.152344],[126.908693,35.152286],[126.908554,35.152182],[126.908489,35.152237],[126.908627,35.152344]]]]}},{"type":"Feature","id":"1989191612891836644300000000","properties":{"id":"1989191612891836644300000000","pnu":"1221010400100030003","year":1989,"purpose":"제1종 근린생활시설","far":116.05,"floors":2,"structure":"벽돌구조"},"geometry":{"type":"MultiPolygon","coordinates":[[[[126.908804,35.152145],[126.908857,35.152098],[126.908777,35.152038],[126.908736,35.15203],[126.908671,35.152078],[126.908735,35.152134],[126.908758,35.152116],[126.908804,35.152145]]]]}},{"type":"Feature","id":"1989191620761836733800000000","properties":{"id":"1989191620761836733800000000","pnu":"1221010400100030003","purpose":"기타","structure":"벽돌구조"},"geometry":{"type":"MultiPolygon","coordinates":[[[[126.908832,35.152219],[126.908915,35.152156],[126.908863,35.152115],[126.908787,35.152178],[126.908832,35.152219]]]]}},{"type":"Feature","id":"1990191598821835814000000000","properties":{"id":"1990191598821835814000000000","pnu":"1221010400100070000","year":1990,"purpose":"제1종 근린생활시설","floors":3,"structure":"철근콘크리트구조"},"geometry":{"type":"MultiPolygon","coordinates":[[[[126.908649,35.15156],[126.908675,35.151543],[126.908699,35.151562],[126.90875,35.15152],[126.908765,35.151531],[126.90885,35.15147],[126.908778,35.151405],[126.908841,35.151353],[126.908784,35.151295],[126.908778,35.151275],[126.908769,35.151257],[126.908753,35.151237],[126.908729,35.151223],[126.908707,35.151209],[126.908678,35.151204],[126.908575,35.151117],[126.908511,35.15117],[126.908469,35.151139],[126.908387,35.1512],[126.908423,35.15123],[126.908342,35.15129],[126.908649,35.15156]]]]}},{"type":"Feature","id":"1990191622171835876700000000","properties":{"id":"1990191622171835876700000000","pnu":"1221010400100070000","purpose":"기타","structure":"벽돌구조"},"geometry":{"type":"MultiPolygon","coordinates":[[[[126.908858,35.151441],[126.908921,35.151392],[126.908877,35.151347],[126.908811,35.151398],[126.908858,35.151441]]]]}},{"type":"Feature","id":"1994191540071836144300000000","properties":{"id":"1994191540071836144300000000","pnu":"1221010400100160003","year":1994,"purpose":"기타"},"geometry":{"type":"MultiPolygon","coordinates":[[[[126.907962,35.151794],[126.908166,35.15166],[126.907961,35.151489],[126.907942,35.151483],[126.907929,35.151488],[126.907917,35.151501],[126.907911,35.151507],[126.907845,35.151532],[126.907824,35.151552],[126.907812,35.15157],[126.907806,35.151597],[126.907806,35.151619],[126.907817,35.151652],[126.907962,35.151794]]]]}},{"type":"Feature","id":"1994191617851836276900000000","properties":{"id":"1994191617851836276900000000","pnu":"1221010400100090002","year":1994,"purpose":"제2종 근린생활시설","far":208.03,"floors":3,"structure":"철근콘크리트구조"},"geometry":{"type":"MultiPolygon","coordinates":[[[[126.908926,35.151756],[126.908795,35.151669],[126.908713,35.151751],[126.908812,35.151828],[126.908858,35.151829],[126.908926,35.151756]]]]}},{"type":"Feature","id":"1996191623221837117200000000","properties":{"id":"1996191623221837117200000000","pnu":"1221010400100040010","year":1996,"purpose":"기타"},"geometry":{"type":"MultiPolygon","coordinates":[[[[126.908878,35.152548],[126.908924,35.152515],[126.90889,35.152482],[126.908846,35.152494],[126.908826,35.152508],[126.908878,35.152548]]]]}},{"type":"Feature","id":"1996191626191836531000000000","properties":{"id":"1996191626191836531000000000","pnu":"1221010400100030005","year":1996,"purpose":"제1종 근린생활시설"},"geometry":{"type":"MultiPolygon","coordinates":[[[[126.908941,35.15207],[126.909012,35.152003],[126.908878,35.151897],[126.908825,35.151945],[126.908822,35.15198],[126.908941,35.15207]]]]}},{"type":"Feature","id":"2009191631841837208700000000","properties":{"id":"2009191631841837208700000000","pnu":"1221010300101000006","year":2009,"purpose":"제2종 근린생활시설"},"geometry":{"type":"MultiPolygon","coordinates":[[[[126.909011,35.152651],[126.90904,35.152626],[126.908929,35.15254],[126.908901,35.15256],[126.909011,35.152651]]]]}},{"type":"Feature","id":"road:2911010400100210003000001:19758","properties":{"id":"road:2911010400100210003000001:19758","pnu":"1221010400100210003","purpose":"공동주택","year":2009},"geometry":{"type":"MultiPolygon","coordinates":[[[[126.908907,35.151174],[126.908997,35.151104],[126.90894,35.151057],[126.908954,35.151048],[126.908756,35.150887],[126.908749,35.150895],[126.908709,35.150866],[126.908627,35.150936],[126.908777,35.151056],[126.908751,35.151077],[126.908774,35.151096],[126.908803,35.151074],[126.908865,35.151125],[126.908857,35.151135],[126.908907,35.151174]]]]}}]}
