{"type":"FeatureCollection","features":[{"type":"Feature","id":"0000192198301795796400000000","properties":{"id":"0000192198301795796400000000","pnu":"1221012600106290001","purpose":"기타"},"geometry":{"type":"MultiPolygon","coordinates":[[[[126.915279,35.115349],[126.915333,35.115269],[126.915171,35.1152],[126.915118,35.115267],[126.915279,35.115349]]]]}},{"type":"Feature","id":"0000192212521795746700000000","properties":{"id":"0000192212521795746700000000","pnu":"1221012600106280001","purpose":"기타"},"geometry":{"type":"MultiPolygon","coordinates":[[[[126.915365,35.115195],[126.915343,35.115243],[126.915402,35.115261],[126.915423,35.115212],[126.915365,35.115195]]]]}},{"type":"Feature","id":"0000192234691796211700000000","properties":{"id":"0000192234691796211700000000","pnu":"1221012600200940001","purpose":"기타"},"geometry":{"type":"MultiPolygon","coordinates":[[[[126.915599,35.115745],[126.915747,35.115635],[126.91565,35.115547],[126.915505,35.115663],[126.915599,35.115745]]]]}},{"type":"Feature","id":"0000192247901796498700000000","properties":{"id":"0000192247901796498700000000","pnu":"1221012600200970002","purpose":"기타"},"geometry":{"type":"MultiPolygon","coordinates":[[[[126.915694,35.116118],[126.91577,35.115943],[126.915814,35.115952],[126.91584,35.115886],[126.915861,35.115886],[126.915863,35.115892],[126.915911,35.115884],[126.91591,35.115851],[126.915974,35.115844],[126.915948,35.115754],[126.915769,35.115783],[126.915735,35.115781],[126.915725,35.115783],[126.915716,35.115787],[126.915711,35.115796],[126.915708,35.115802],[126.915708,35.11581],[126.915736,35.115831],[126.915729,35.115845],[126.915703,35.11584],[126.915598,35.116086],[126.915694,35.116118]]]]}},{"type":"Feature","id":"0000192284771796306000000000","properties":{"id":"0000192284771796306000000000","pnu":"1221012600200940001","purpose":"기타"},"geometry":{"type":"MultiPolygon","coordinates":[[[[126.916144,35.1158],[126.916178,35.115784],[126.916186,35.11579],[126.91624,35.115753],[126.916235,35.115746],[126.916265,35.115726],[126.916193,35.115661],[126.916117,35.115707],[126.916122,35.115715],[126.916086,35.115734],[126.916144,35.1158]]]]}},{"type":"Feature","id":"0000192365251794094500000000","properties":{"id":"0000192365251794094500000000","pnu":"1221012600105950000","purpose":"기타"},"geometry":{"type":"MultiPolygon","coordinates":[[[[126.917092,35.113756],[126.917076,35.11371],[126.917027,35.113724],[126.917046,35.113769],[126.917092,35.113756]]]]}},{"type":"Feature","id":"0000192484761787883300000000","properties":{"id":"0000192484761787883300000000","pnu":"1221012600105650000","purpose":"기타"},"geometry":{"type":"MultiPolygon","coordinates":[[[[126.918404,35.108158],[126.918381,35.108116],[126.918348,35.108129],[126.918375,35.108168],[126.918404,35.108158]]]]}},{"type":"Feature","id":"2004192482211796564300000000","properties":{"id":"2004192482211796564300000000","pnu":"1221012600106340001","year":2004,"purpose":"단독주택","far":35.15,"floors":2,"structure":"일반철골구조"},"geometry":{"type":"MultiPolygon","coordinates":[[[[126.918372,35.116003],[126.918393,35.115955],[126.91831,35.11593],[126.918288,35.115979],[126.918372,35.116003]]]]}},{"type":"Feature","id":"2005192182571796802100000000","properties":{"id":"2005192182571796802100000000","pnu":"1221012600106300000","year":2005,"purpose":"기타","floors":2,"structure":"철근콘크리트구조"},"geometry":{"type":"MultiPolygon","coordinates":[[[[126.914907,35.116163],[126.915093,35.11627],[126.915125,35.116232],[126.915157,35.11625],[126.915181,35.116222],[126.915176,35.116219],[126.915187,35.116205],[126.915134,35.116175],[126.915148,35.116158],[126.915105,35.116133],[126.915109,35.116128],[126.915068,35.116105],[126.915064,35.11611],[126.915025,35.116088],[126.914985,35.116135],[126.914965,35.116124],[126.914955,35.116136],[126.914938,35.116126],[126.914907,35.116163]]]]}}]}
