{"type":"FeatureCollection","features":[{"type":"Feature","id":"0000192656791795429500000000","properties":{"id":"0000192656791795429500000000","pnu":"1221012600201240000","purpose":"기타"},"geometry":{"type":"MultiPolygon","coordinates":[[[[126.920272,35.11488],[126.920201,35.114898],[126.920242,35.11501],[126.920313,35.114992],[126.920272,35.11488]]]]}},{"type":"Feature","id":"0000192666611795385900000000","properties":{"id":"0000192666611795385900000000","pnu":"1221012600201240000","purpose":"기타"},"geometry":{"type":"MultiPolygon","coordinates":[[[[126.920438,35.114917],[126.920417,35.114863],[126.920292,35.114895],[126.920312,35.114949],[126.920438,35.114917]]]]}},{"type":"Feature","id":"0000192713841796088800000000","properties":{"id":"0000192713841796088800000000","pnu":"1221012600104060002","purpose":"기타"},"geometry":{"type":"MultiPolygon","coordinates":[[[[126.920766,35.115497],[126.920783,35.115606],[126.920999,35.115583],[126.920981,35.115474],[126.920766,35.115497]]]]}},{"type":"Feature","id":"0000192731381796088800000000","properties":{"id":"0000192731381796088800000000","pnu":"1221012600104060002","purpose":"기타"},"geometry":{"type":"MultiPolygon","coordinates":[[[[126.92101,35.115624],[126.921162,35.115605],[126.92114,35.115457],[126.920988,35.115473],[126.92101,35.115624]]]]}},{"type":"Feature","id":"0000192751131795378500000000","properties":{"id":"0000192751131795378500000000","pnu":"1221012600104610000","purpose":"기타"},"geometry":{"type":"MultiPolygon","coordinates":[[[[126.921336,35.114955],[126.921377,35.114908],[126.921242,35.114844],[126.921211,35.114894],[126.921336,35.114955]]]]}},{"type":"Feature","id":"0000192762081795612800000000","properties":{"id":"0000192762081795612800000000","pnu":"1221012600104580000","purpose":"기타"},"geometry":{"type":"MultiPolygon","coordinates":[[[[126.921418,35.115173],[126.921484,35.115093],[126.921406,35.115049],[126.92134,35.11513],[126.921418,35.115173]]]]}},{"type":"Feature","id":"0000192764661797785100000000","properties":{"id":"0000192764661797785100000000","pnu":"1221012600104340000","purpose":"기타"},"geometry":{"type":"MultiPolygon","coordinates":[[[[126.921423,35.117044],[126.921405,35.117074],[126.921453,35.117094],[126.921472,35.117064],[126.921423,35.117044]]]]}},{"type":"Feature","id":"0000192770921796727000000000","properties":{"id":"0000192770921796727000000000","pnu":"1221012600104060002","purpose":"기타"},"geometry":{"type":"MultiPolygon","coordinates":[[[[126.92153,35.116098],[126.921486,35.116097],[126.921485,35.116133],[126.92153,35.116134],[126.92153,35.116098]]]]}},{"type":"Feature","id":"0000192770951797889700000000","properties":{"id":"0000192770951797889700000000","pnu":"1221012600104340000","purpose":"기타"},"geometry":{"type":"MultiPolygon","coordinates":[[[[126.921475,35.117162],[126.921505,35.11719],[126.921539,35.117164],[126.921509,35.117137],[126.921475,35.117162]]]]}},{"type":"Feature","id":"0000192774181795762000000000","properties":{"id":"0000192774181795762000000000","pnu":"1221012600104580000","purpose":"기타"},"geometry":{"type":"MultiPolygon","coordinates":[[[[126.921611,35.115289],[126.92162,35.115214],[126.921478,35.115202],[126.921469,35.115277],[126.921611,35.115289]]]]}},{"type":"Feature","id":"0000192777731795331200000000","properties":{"id":"0000192777731795331200000000","pnu":"1221012600104600002","purpose":"기타"},"geometry":{"type":"MultiPolygon","coordinates":[[[[126.921542,35.114846],[126.921598,35.114892],[126.921626,35.114869],[126.92157,35.114823],[126.921542,35.114846]]]]}},{"type":"Feature","id":"0000192780781795233600000000","properties":{"id":"0000192780781795233600000000","pnu":"1221012600104620000","purpose":"기타"},"geometry":{"type":"MultiPolygon","coordinates":[[[[126.921524,35.114769],[126.921667,35.114835],[126.921708,35.114768],[126.921568,35.114706],[126.921524,35.114769]]]]}},{"type":"Feature","id":"0000192781381798697100000000","properties":{"id":"0000192781381798697100000000","pnu":"1221012600104300000","purpose":"기타"},"geometry":{"type":"MultiPolygon","coordinates":[[[[126.921594,35.117938],[126.921703,35.117894],[126.921685,35.117856],[126.921615,35.117885],[126.921581,35.117848],[126.921545,35.117865],[126.921594,35.117938]]]]}},{"type":"Feature","id":"0000192788851795130300000000","properties":{"id":"0000192788851795130300000000","pnu":"1221012600104630001","purpose":"기타"},"geometry":{"type":"MultiPolygon","coordinates":[[[[126.921627,35.114662],[126.9217,35.114691],[126.921685,35.114736],[126.921726,35.114748],[126.921779,35.11466],[126.921651,35.114618],[126.921627,35.114662]]]]}},{"type":"Feature","id":"0000192794341795708500000000","properties":{"id":"0000192794341795708500000000","pnu":"1221012600104730000","purpose":"기타"},"geometry":{"type":"MultiPolygon","coordinates":[[[[126.921801,35.115226],[126.921804,35.115171],[126.92173,35.115169],[126.921727,35.115224],[126.921801,35.115226]]]]}},{"type":"Feature","id":"0000192798761795364900000000","properties":{"id":"0000192798761795364900000000","pnu":"1221012600104710000","purpose":"기타"},"geometry":{"type":"MultiPolygon","coordinates":[[[[126.921737,35.114932],[126.921789,35.114941],[126.921799,35.114905],[126.921896,35.114912],[126.921902,35.114862],[126.921762,35.114846],[126.921737,35.114932]]]]}},{"type":"Feature","id":"0000192810211793622500000000","properties":{"id":"0000192810211793622500000000","pnu":"1221012600201240000","purpose":"기타"},"geometry":{"type":"MultiPolygon","coordinates":[[[[126.921916,35.113351],[126.921951,35.113356],[126.921967,35.113284],[126.921932,35.113279],[126.921916,35.113351]]]]}},{"type":"Feature","id":"0000192810611794072800000000","properties":{"id":"0000192810611794072800000000","pnu":"1221012600104850001","purpose":"기타"},"geometry":{"type":"MultiPolygon","coordinates":[[[[126.921966,35.11377],[126.922008,35.113723],[126.921931,35.113677],[126.921879,35.113723],[126.921966,35.11377]]]]}},{"type":"Feature","id":"0000192814751795162300000000","properties":{"id":"0000192814751795162300000000","pnu":"1221012600104800000","purpose":"기타"},"geometry":{"type":"MultiPolygon","coordinates":[[[[126.921896,35.114691],[126.922055,35.114763],[126.922086,35.114722],[126.921925,35.114647],[126.921896,35.114691]]]]}},{"type":"Feature","id":"0000192819651793489100000000","properties":{"id":"0000192819651793489100000000","pnu":"1221012600104870002","purpose":"기타"},"geometry":{"type":"MultiPolygon","coordinates":[[[[126.921996,35.11324],[126.92207,35.113254],[126.922094,35.113155],[126.922021,35.11314],[126.921996,35.11324]]]]}},{"type":"Feature","id":"0000192820341793991900000000","properties":{"id":"0000192820341793991900000000","pnu":"1221012600104850001","purpose":"기타"},"geometry":{"type":"MultiPolygon","coordinates":[[[[126.92204,35.11363],[126.922027,35.113661],[126.922065,35.113671],[126.922078,35.11364],[126.92204,35.11363]]]]}},{"type":"Feature","id":"0000192832071793524800000000","properties":{"id":"0000192832071793524800000000","pnu":"1221012600104870002","purpose":"기타"},"geometry":{"type":"MultiPolygon","coordinates":[[[[126.922192,35.113274],[126.922235,35.113212],[126.922174,35.113184],[126.922127,35.113248],[126.922192,35.113274]]]]}},{"type":"Feature","id":"0000192835891793776200000000","properties":{"id":"0000192835891793776200000000","pnu":"1221012600106490014","purpose":"기타"},"geometry":{"type":"MultiPolygon","coordinates":[[[[126.922221,35.113418],[126.922188,35.11343],[126.922215,35.113489],[126.922263,35.113483],[126.922221,35.113418]]]]}},{"type":"Feature","id":"0000192836171793445700000000","properties":{"id":"0000192836171793445700000000","pnu":"1221012600104870002","purpose":"기타"},"geometry":{"type":"MultiPolygon","coordinates":[[[[126.922174,35.113159],[126.92225,35.113196],[126.922278,35.113158],[126.922203,35.11312],[126.922174,35.113159]]]]}},{"type":"Feature","id":"0000192838041793847200000000","properties":{"id":"0000192838041793847200000000","pnu":"1221012600106590000","purpose":"기타"},"geometry":{"type":"MultiPolygon","coordinates":[[[[126.922226,35.113556],[126.922279,35.113549],[126.922268,35.113485],[126.922213,35.113491],[126.922226,35.113556]]]]}},{"type":"Feature","id":"0000192874161797172600000000","properties":{"id":"0000192874161797172600000000","pnu":"1221012600103980002","purpose":"기타"},"geometry":{"type":"MultiPolygon","coordinates":[[[[126.922597,35.116525],[126.922619,35.116549],[126.922683,35.116511],[126.922661,35.116486],[126.922597,35.116525]]]]}},{"type":"Feature","id":"0000192875971797217200000000","properties":{"id":"0000192875971797217200000000","pnu":"1221012600103980002","purpose":"기타","floors":1,"structure":"블록구조"},"geometry":{"type":"MultiPolygon","coordinates":[[[[126.922653,35.11659],[126.9227,35.116559],[126.922666,35.116526],[126.92262,35.116557],[126.922653,35.11659]]]]}},{"type":"Feature","id":"0000193067131798428400000000","properties":{"id":"0000193067131798428400000000","pnu":"1221012600103760001","purpose":"기타"},"geometry":{"type":"MultiPolygon","coordinates":[[[[126.924794,35.117664],[126.924784,35.117627],[126.924717,35.117639],[126.924727,35.117676],[126.924794,35.117664]]]]}},{"type":"Feature","id":"0000193200681798516200000000","properties":{"id":"0000193200681798516200000000","pnu":"1221012600103740000","purpose":"기타"},"geometry":{"type":"MultiPolygon","coordinates":[[[[126.926152,35.11775],[126.926195,35.117787],[126.926291,35.11771],[126.926244,35.117677],[126.926152,35.11775]]]]}},{"type":"Feature","id":"0000193206511798439400000000","properties":{"id":"0000193206511798439400000000","pnu":"1221012600103740000","purpose":"기타"},"geometry":{"type":"MultiPolygon","coordinates":[[[[126.926286,35.11764],[126.926258,35.11766],[126.926283,35.117684],[126.926311,35.117664],[126.926286,35.11764]]]]}},{"type":"Feature","id":"0000193226691798303000000000","properties":{"id":"0000193226691798303000000000","pnu":"1221012600103720001","purpose":"기타"},"geometry":{"type":"MultiPolygon","coordinates":[[[[126.926516,35.117563],[126.926536,35.117545],[126.926497,35.117516],[126.926477,35.117534],[126.926516,35.117563]]]]}},{"type":"Feature","id":"0000193397801797651800000000","properties":{"id":"0000193397801797651800000000","pnu":"1221012600103330004","purpose":"기타"},"geometry":{"type":"MultiPolygon","coordinates":[[[[126.928452,35.116982],[126.928453,35.116941],[126.928339,35.116926],[126.928314,35.116936],[126.928312,35.116966],[126.928452,35.116982]]]]}},{"type":"Feature","id":"0000193409161797700300000000","properties":{"id":"0000193409161797700300000000","pnu":"1221012600103330004","purpose":"기타"},"geometry":{"type":"MultiPolygon","coordinates":[[[[126.92851,35.117022],[126.928537,35.116989],[126.928506,35.116972],[126.92848,35.117005],[126.92851,35.117022]]]]}},{"type":"Feature","id":"0000193413901797627200000000","properties":{"id":"0000193413901797627200000000","pnu":"1221012600103330006","purpose":"기타"},"geometry":{"type":"MultiPolygon","coordinates":[[[[126.928589,35.116943],[126.928589,35.116919],[126.928532,35.11692],[126.928532,35.116943],[126.928589,35.116943]]]]}},{"type":"Feature","id":"0000193414571797705300000000","properties":{"id":"0000193414571797705300000000","pnu":"1221012600103330006","purpose":"기타"},"geometry":{"type":"MultiPolygon","coordinates":[[[[126.928587,35.116966],[126.928548,35.116966],[126.928548,35.117038],[126.928588,35.117038],[126.928587,35.116966]]]]}},{"type":"Feature","id":"0000193423761797610900000000","properties":{"id":"0000193423761797610900000000","pnu":"1221012600103420002","purpose":"기타"},"geometry":{"type":"MultiPolygon","coordinates":[[[[126.928643,35.116959],[126.92868,35.116962],[126.928694,35.116875],[126.928657,35.116871],[126.928643,35.116959]]]]}},{"type":"Feature","id":"0000193432831797590400000000","properties":{"id":"0000193432831797590400000000","pnu":"1221012600103420002","purpose":"기타"},"geometry":{"type":"MultiPolygon","coordinates":[[[[126.928793,35.116915],[126.928794,35.116895],[126.928742,35.116882],[126.928741,35.116901],[126.928793,35.116915]]]]}},{"type":"Feature","id":"0000193435301797706800000000","properties":{"id":"0000193435301797706800000000","pnu":"1221012600103420002","purpose":"기타"},"geometry":{"type":"MultiPolygon","coordinates":[[[[126.928773,35.117035],[126.928839,35.117003],[126.928817,35.116972],[126.928751,35.117003],[126.928773,35.117035]]]]}},{"type":"Feature","id":"0000193439931797621000000000","properties":{"id":"0000193439931797621000000000","pnu":"1221012600103420002","purpose":"기타"},"geometry":{"type":"MultiPolygon","coordinates":[[[[126.928876,35.116931],[126.92886,35.116904],[126.928816,35.116921],[126.928832,35.116948],[126.928876,35.116931]]]]}},{"type":"Feature","id":"0000193444101797776000000000","properties":{"id":"0000193444101797776000000000","pnu":"1221012600103420002","purpose":"기타"},"geometry":{"type":"MultiPolygon","coordinates":[[[[126.92894,35.117057],[126.928921,35.117033],[126.928843,35.117075],[126.928863,35.117098],[126.92894,35.117057]]]]}},{"type":"Feature","id":"1960192763821795332000000000","properties":{"id":"1960192763821795332000000000","pnu":"1221012600104600002","purpose":"단독주택","floors":1,"structure":"일반목구조"},"geometry":{"type":"MultiPolygon","coordinates":[[[[126.921447,35.114887],[126.921465,35.114839],[126.921422,35.114826],[126.921393,35.114878],[126.921447,35.114887]]]]}},{"type":"Feature","id":"1960192766921795429500000000","properties":{"id":"1960192766921795429500000000","pnu":"1221012600104600002","purpose":"단독주택","floors":1,"structure":"일반목구조"},"geometry":{"type":"MultiPolygon","coordinates":[[[[126.921399,35.114964],[126.921524,35.114978],[126.92153,35.114928],[126.921408,35.114913],[126.921399,35.114964]]]]}},{"type":"Feature","id":"1964192770021795663500000000","properties":{"id":"1964192770021795663500000000","pnu":"1221012600104580000","purpose":"기타","structure":"블록구조"},"geometry":{"type":"MultiPolygon","coordinates":[[[[126.921488,35.115133],[126.921468,35.115155],[126.92151,35.11518],[126.921529,35.115159],[126.921488,35.115133]]]]}},{"type":"Feature","id":"1964192780521795608000000000","properties":{"id":"1964192780521795608000000000","pnu":"1221012600104580000","purpose":"단독주택","floors":1,"structure":"일반목구조"},"geometry":{"type":"MultiPolygon","coordinates":[[[[126.921571,35.115144],[126.921643,35.115154],[126.921655,35.115066],[126.921586,35.115061],[126.921571,35.115144]]]]}},{"type":"Feature","id":"1964192791121795887400000000","properties":{"id":"1964192791121795887400000000","pnu":"1221012600104040000","year":1964,"purpose":"단독주택"},"geometry":{"type":"MultiPolygon","coordinates":[[[[126.921694,35.115363],[126.92176,35.115376],[126.921766,35.115354],[126.9217,35.115341],[126.921694,35.115363]]]]}},{"type":"Feature","id":"1964192792681796006900000000","properties":{"id":"1964192792681796006900000000","pnu":"1221012600104040000","year":1964,"purpose":"단독주택"},"geometry":{"type":"MultiPolygon","coordinates":[[[[126.92174,35.115508],[126.921791,35.115488],[126.921758,35.115428],[126.921702,35.115443],[126.92174,35.115508]]]]}},{"type":"Feature","id":"1973193436801797790100000000","properties":{"id":"1973193436801797790100000000","pnu":"1221012600103420002","year":1973,"purpose":"단독주택"},"geometry":{"type":"MultiPolygon","coordinates":[[[[126.928784,35.117122],[126.928853,35.117093],[126.928814,35.11703],[126.928783,35.117043],[126.928809,35.117084],[126.928771,35.1171],[126.928784,35.117122]]]]}},{"type":"Feature","id":"1973193450941797706400000000","properties":{"id":"1973193450941797706400000000","pnu":"1221012600103420002","year":1973,"purpose":"단독주택"},"geometry":{"type":"MultiPolygon","coordinates":[[[[126.929014,35.116995],[126.928977,35.116964],[126.928919,35.117011],[126.928956,35.117042],[126.929014,35.116995]]]]}},{"type":"Feature","id":"1977192818401793909800000000","properties":{"id":"1977192818401793909800000000","pnu":"1221012600104850002","year":1977,"purpose":"단독주택","far":39.2,"floors":1,"structure":"블록구조"},"geometry":{"type":"MultiPolygon","coordinates":[[[[126.921953,35.113589],[126.922081,35.113629],[126.922113,35.113566],[126.921976,35.113524],[126.921953,35.113589]]]]}},{"type":"Feature","id":"1977192826921793865300000000","properties":{"id":"1977192826921793865300000000","pnu":"1221012600104850002","purpose":"기타","structure":"일반목구조"},"geometry":{"type":"MultiPolygon","coordinates":[[[[126.922137,35.113567],[126.922159,35.113522],[126.922113,35.113506],[126.92209,35.11355],[126.922137,35.113567]]]]}},{"type":"Feature","id":"1980192820541793761400000000","properties":{"id":"1980192820541793761400000000","pnu":"1221012600104860000","year":1980,"purpose":"단독주택","far":15.67,"floors":1,"structure":"벽돌구조"},"geometry":{"type":"MultiPolygon","coordinates":[[[[126.92198,35.113468],[126.92211,35.113493],[126.922133,35.113424],[126.922056,35.113409],[126.922059,35.113396],[126.922004,35.113388],[126.92198,35.113468]]]]}},{"type":"Feature","id":"1980192829111793759400000000","properties":{"id":"1980192829111793759400000000","pnu":"1221012600104860000","purpose":"기타","structure":"블록구조"},"geometry":{"type":"MultiPolygon","coordinates":[[[[126.922129,35.113381],[126.92212,35.113419],[126.922135,35.113422],[126.92211,35.113499],[126.92214,35.1135],[126.922177,35.113479],[126.922179,35.113388],[126.922129,35.113381]]]]}},{"type":"Feature","id":"1986192727781798632400000000","properties":{"id":"1986192727781798632400000000","pnu":"1221012600104300001","year":1986,"purpose":"기타"},"geometry":{"type":"MultiPolygon","coordinates":[[[[126.920903,35.117859],[126.921127,35.117911],[126.921163,35.117806],[126.920939,35.117755],[126.920903,35.117859]]]]}},{"type":"Feature","id":"1986192743371798435600000000","properties":{"id":"1986192743371798435600000000","pnu":"1221012600104300001","year":1986,"purpose":"기타"},"geometry":{"type":"MultiPolygon","coordinates":[[[[126.921242,35.117761],[126.921284,35.117643],[126.921263,35.117638],[126.921278,35.117569],[126.921174,35.117546],[126.921113,35.117724],[126.921242,35.117761]]]]}},{"type":"Feature","id":"1989192813691795042600000000","properties":{"id":"1989192813691795042600000000","pnu":"1221012600104800000","year":1989,"purpose":"기타"},"geometry":{"type":"MultiPolygon","coordinates":[[[[126.921977,35.11465],[126.922035,35.114576],[126.921981,35.114547],[126.921922,35.114615],[126.921977,35.11465]]]]}},{"type":"Feature","id":"1990193220821798275700000000","properties":{"id":"1990193220821798275700000000","pnu":"1221012600103720001","year":1990,"purpose":"제1종 근린생활시설"},"geometry":{"type":"MultiPolygon","coordinates":[[[[126.926408,35.117524],[126.926438,35.117544],[126.926475,35.117505],[126.926446,35.117486],[126.926408,35.117524]]]]}},{"type":"Feature","id":"1990193229981798195900000000","properties":{"id":"1990193229981798195900000000","pnu":"1221012600103720001","year":1990,"purpose":"기타"},"geometry":{"type":"MultiPolygon","coordinates":[[[[126.926503,35.117504],[126.926621,35.11742],[126.926592,35.117382],[126.926463,35.11746],[126.926503,35.117504]]]]}},{"type":"Feature","id":"1990193240181798103900000000","properties":{"id":"1990193240181798103900000000","pnu":"1221012600103720001","year":1990,"purpose":"기타"},"geometry":{"type":"MultiPolygon","coordinates":[[[[126.926639,35.117412],[126.926715,35.117364],[126.926674,35.117311],[126.926593,35.117352],[126.926639,35.117412]]]]}},{"type":"Feature","id":"1990193248391798022200000000","properties":{"id":"1990193248391798022200000000","pnu":"1221012600103720001","year":1990,"purpose":"기타"},"geometry":{"type":"MultiPolygon","coordinates":[[[[126.926712,35.117335],[126.926811,35.117275],[126.926782,35.117238],[126.926677,35.117295],[126.926712,35.117335]]]]}},{"type":"Feature","id":"1993192812201795589300000000","properties":{"id":"1993192812201795589300000000","pnu":"1221012600104720000","year":1993,"purpose":"단독주택","far":45.87,"floors":1,"structure":"경량철골구조"},"geometry":{"type":"MultiPolygon","coordinates":[[[[126.921984,35.115148],[126.922019,35.11504],[126.92196,35.115024],[126.921943,35.115077],[126.921916,35.115072],[126.921898,35.115131],[126.921984,35.115148]]]]}},{"type":"Feature","id":"1993192816241794384600000000","properties":{"id":"1993192816241794384600000000","pnu":"1221012600104830001","year":1993,"purpose":"단독주택","far":59.28,"floors":1,"structure":"벽돌구조"},"geometry":{"type":"MultiPolygon","coordinates":[[[[126.922009,35.113931],[126.921923,35.114059],[126.921954,35.114063],[126.922037,35.114052],[126.922081,35.113969],[126.922059,35.113961],[126.922051,35.113947],[126.922009,35.113931]]]]}},{"type":"Feature","id":"1993192837231793289600000000","properties":{"id":"1993192837231793289600000000","pnu":"1221012600104870001","year":1993,"purpose":"기타"},"geometry":{"type":"MultiPolygon","coordinates":[[[[126.922199,35.113056],[126.922235,35.113067],[126.922277,35.112979],[126.922241,35.112968],[126.922199,35.113056]]]]}},{"type":"Feature","id":"1993192843061793313400000000","properties":{"id":"1993192843061793313400000000","pnu":"1221012600104870001","year":1993,"purpose":"단독주택"},"geometry":{"type":"MultiPolygon","coordinates":[[[[126.922326,35.11309],[126.922362,35.113015],[126.922278,35.112989],[126.922242,35.113063],[126.922326,35.11309]]]]}},{"type":"Feature","id":"1994192774121797790900000000","properties":{"id":"1994192774121797790900000000","pnu":"1221012600104340000","year":1994,"purpose":"기타"},"geometry":{"type":"MultiPolygon","coordinates":[[[[126.921578,35.11713],[126.921609,35.117066],[126.921569,35.11705],[126.92157,35.117038],[126.921509,35.117019],[126.921475,35.117089],[126.921578,35.11713]]]]}},{"type":"Feature","id":"1994192800471794735600000000","properties":{"id":"1994192800471794735600000000","pnu":"1221012600104670000","year":1994,"purpose":"제2종 근린생활시설","far":14.13,"floors":1,"structure":"경량철골구조"},"geometry":{"type":"MultiPolygon","coordinates":[[[[126.921847,35.114346],[126.921867,35.114319],[126.921821,35.114296],[126.921801,35.114322],[126.921847,35.114346]]]]}},{"type":"Feature","id":"1994192806281794367300000000","properties":{"id":"1994192806281794367300000000","pnu":"1221012600104830003","year":1994,"purpose":"단독주택","far":35.78,"floors":1,"structure":"벽돌구조"},"geometry":{"type":"MultiPolygon","coordinates":[[[[126.921908,35.114061],[126.921979,35.113956],[126.921886,35.113917],[126.921818,35.114022],[126.921908,35.114061]]]]}},{"type":"Feature","id":"1994192808491794750400000000","properties":{"id":"1994192808491794750400000000","pnu":"1221012600104670000","year":1994,"purpose":"제2종 근린생활시설","far":14.13,"floors":1,"structure":"경량철골구조"},"geometry":{"type":"MultiPolygon","coordinates":[[[[126.92195,35.114382],[126.921988,35.114333],[126.921895,35.114286],[126.921855,35.114337],[126.92195,35.114382]]]]}},{"type":"Feature","id":"1994192814051794543700000000","properties":{"id":"1994192814051794543700000000","pnu":"1221012600104670000","year":1994,"purpose":"제2종 근린생활시설","far":14.13,"floors":1,"structure":"경량철골구조"},"geometry":{"type":"MultiPolygon","coordinates":[[[[126.921944,35.11416],[126.922004,35.114173],[126.922024,35.114137],[126.92196,35.114123],[126.921944,35.11416]]]]}},{"type":"Feature","id":"1994192818221795417700000000","properties":{"id":"1994192818221795417700000000","pnu":"1221012600104790000","year":1994,"purpose":"단독주택","far":86.69,"floors":2,"structure":"벽돌구조"},"geometry":{"type":"MultiPolygon","coordinates":[[[[126.922007,35.114886],[126.921983,35.114978],[126.922009,35.114996],[126.922023,35.114995],[126.922032,35.114963],[126.92208,35.114928],[126.922085,35.114904],[126.922007,35.114886]]]]}},{"type":"Feature","id":"1996192823321795911000000000","properties":{"id":"1996192823321795911000000000","pnu":"1221012600104760000","year":1996,"purpose":"단독주택","far":26.07,"floors":1,"structure":"벽돌구조"},"geometry":{"type":"MultiPolygon","coordinates":[[[[126.922154,35.115416],[126.922143,35.115322],[126.922074,35.115327],[126.922077,35.11534],[126.922029,35.115347],[126.922032,35.115372],[126.922016,35.115373],[126.922019,35.115392],[126.922,35.115392],[126.922004,35.115431],[126.922154,35.115416]]]]}},{"type":"Feature","id":"1997192770911795119100000000","properties":{"id":"1997192770911795119100000000","pnu":"1221012600104610002","year":1997,"purpose":"단독주택","far":55.02,"floors":1,"structure":"벽돌구조"},"geometry":{"type":"MultiPolygon","coordinates":[[[[126.921474,35.114731],[126.921501,35.114718],[126.921508,35.114724],[126.921563,35.114693],[126.921557,35.114678],[126.921596,35.114654],[126.921541,35.114595],[126.921419,35.114672],[126.921474,35.114731]]]]}},{"type":"Feature","id":"1997192771201796141000000000","properties":{"id":"1997192771201796141000000000","pnu":"1221012600104060004","year":1997,"purpose":"기타","far":68.86,"floors":2,"structure":"벽돌구조"},"geometry":{"type":"MultiPolygon","coordinates":[[[[126.921551,35.115535],[126.921454,35.115553],[126.921472,35.115636],[126.921566,35.115628],[126.921551,35.115535]]]]}},{"type":"Feature","id":"1998192681951797486200000000","properties":{"id":"1998192681951797486200000000","pnu":"1221012600104360000","year":1998,"purpose":"기타","far":100.04056,"floors":5,"structure":"철근콘크리트구조"},"geometry":{"type":"MultiPolygon","coordinates":[[[[126.920871,35.116843],[126.92082,35.116726],[126.920579,35.116785],[126.920537,35.116732],[126.920469,35.116766],[126.920354,35.116632],[126.920302,35.116655],[126.920279,35.116636],[126.920202,35.116676],[126.920272,35.116767],[126.920284,35.116757],[126.920328,35.116807],[126.920319,35.116812],[126.92036,35.116868],[126.920409,35.116843],[126.920428,35.116866],[126.920498,35.11695],[126.920871,35.116843]]]]}},{"type":"Feature","id":"2000192820161795782200000000","properties":{"id":"2000192820161795782200000000","pnu":"1221012600104750000","year":2000,"purpose":"단독주택","far":34.38,"floors":1,"structure":"벽돌구조"},"geometry":{"type":"MultiPolygon","coordinates":[[[[126.921999,35.115314],[126.922122,35.115298],[126.922104,35.115218],[126.922041,35.11523],[126.922037,35.115217],[126.921977,35.115226],[126.921999,35.115314]]]]}},{"type":"Feature","id":"2000192831531794545500000000","properties":{"id":"2000192831531794545500000000","pnu":"1221012600104820001","purpose":"기타","structure":"벽돌구조"},"geometry":{"type":"MultiPolygon","coordinates":[[[[126.922233,35.114135],[126.922124,35.114122],[126.922117,35.114164],[126.922225,35.114177],[126.922233,35.114135]]]]}},{"type":"Feature","id":"2000192832891794666400000000","properties":{"id":"2000192832891794666400000000","pnu":"1221012600104820001","year":2000,"purpose":"단독주택","far":42.35,"floors":1,"structure":"벽돌구조"},"geometry":{"type":"MultiPolygon","coordinates":[[[[126.922106,35.114286],[126.922255,35.114309],[126.922273,35.114232],[126.922124,35.114208],[126.922106,35.114286]]]]}},{"type":"Feature","id":"2001192787841794343900000000","properties":{"id":"2001192787841794343900000000","pnu":"1221012600104840000","year":2001,"purpose":"기타"},"geometry":{"type":"MultiPolygon","coordinates":[[[[126.921745,35.114022],[126.921776,35.113975],[126.921658,35.113914],[126.92161,35.113962],[126.921745,35.114022]]]]}},{"type":"Feature","id":"2001192793281794255000000000","properties":{"id":"2001192793281794255000000000","pnu":"1221012600104840000","year":2001,"purpose":"단독주택"},"geometry":{"type":"MultiPolygon","coordinates":[[[[126.921765,35.113816],[126.921661,35.113911],[126.921728,35.113946],[126.921741,35.113934],[126.921759,35.113947],[126.921794,35.113913],[126.921804,35.113918],[126.921845,35.113877],[126.921765,35.113816]]]]}},{"type":"Feature","id":"2001192831051794783300000000","properties":{"id":"2001192831051794783300000000","pnu":"1221012600104820002","year":2001,"purpose":"단독주택","far":53.54,"floors":1,"structure":"벽돌구조"},"geometry":{"type":"MultiPolygon","coordinates":[[[[126.922078,35.114397],[126.922242,35.114418],[126.922259,35.114344],[126.922231,35.114341],[126.922233,35.114325],[126.92219,35.114317],[126.922185,35.114311],[126.922178,35.114311],[126.922174,35.114313],[126.922124,35.114308],[126.922118,35.114329],[126.922091,35.114327],[126.922078,35.114397]]]]}},{"type":"Feature","id":"2001192835761795822800000000","properties":{"id":"2001192835761795822800000000","pnu":"1221012600104770000","purpose":"단독주택","floors":1,"structure":"일반목구조"},"geometry":{"type":"MultiPolygon","coordinates":[[[[126.922184,35.115326],[126.922258,35.115321],[126.922257,35.115277],[126.922182,35.115279],[126.922184,35.115326]]]]}},{"type":"Feature","id":"2001192836311795675900000000","properties":{"id":"2001192836311795675900000000","pnu":"1221012600104770000","year":2001,"purpose":"단독주택","far":41.52,"floors":1,"structure":"벽돌구조"},"geometry":{"type":"MultiPolygon","coordinates":[[[[126.922197,35.115241],[126.922255,35.115248],[126.922265,35.115102],[126.92219,35.1151],[126.922182,35.115145],[126.922197,35.115148],[126.922189,35.115207],[126.922201,35.115208],[126.922197,35.115241]]]]}},{"type":"Feature","id":"2001193369201797794200000000","properties":{"id":"2001193369201797794200000000","pnu":"1221012600103320001","year":2001,"purpose":"기타"},"geometry":{"type":"MultiPolygon","coordinates":[[[[126.92807,35.117086],[126.928071,35.117086],[126.928072,35.117086],[126.928073,35.117085],[126.928073,35.117085],[126.928074,35.117084],[126.928075,35.117084],[126.928075,35.117083],[126.928075,35.117082],[126.928075,35.117082],[126.928075,35.117081],[126.928075,35.11708],[126.928075,35.117079],[126.928074,35.117079],[126.928073,35.117078],[126.928073,35.117078],[126.928072,35.117077],[126.928071,35.117077],[126.92807,35.117077],[126.928069,35.117077],[126.928068,35.117077],[126.928067,35.117078],[126.928066,35.117078],[126.928066,35.117079],[126.928065,35.117079],[126.928065,35.11708],[126.928065,35.117081],[126.928064,35.117082],[126.928065,35.117082],[126.928065,35.117083],[126.928065,35.117084],[126.928066,35.117084],[126.928066,35.117085],[126.928067,35.117085],[126.928068,35.117086],[126.928069,35.117086],[126.92807,35.117086]]]]}},{"type":"Feature","id":"2003192831221794019200000000","properties":{"id":"2003192831221794019200000000","pnu":"1221012600104830002","year":2003,"purpose":"단독주택","far":32.61,"floors":1,"structure":"경량철골구조"},"geometry":{"type":"MultiPolygon","coordinates":[[[[126.922139,35.113624],[126.922105,35.113695],[126.922205,35.113726],[126.922238,35.113655],[126.922139,35.113624]]]]}},{"type":"Feature","id":"2003192832401793868200000000","properties":{"id":"2003192832401793868200000000","pnu":"1221012600104830002","year":2003,"purpose":"단독주택","floors":1,"structure":"블록구조"},"geometry":{"type":"MultiPolygon","coordinates":[[[[126.922212,35.113561],[126.922213,35.113532],[126.9222,35.113517],[126.922161,35.113517],[126.922155,35.113556],[126.922212,35.113561]]]]}},{"type":"Feature","id":"2006192673411796092700000000","properties":{"id":"2006192673411796092700000000","pnu":"1221012600104380003","year":2006,"purpose":"제2종 근린생활시설","far":39.22,"floors":1,"structure":"일반철골구조"},"geometry":{"type":"MultiPolygon","coordinates":[[[[126.920541,35.115491],[126.920422,35.115445],[126.920337,35.115595],[126.920455,35.115641],[126.920541,35.115491]]]]}},{"type":"Feature","id":"2006192718181796256200000000","properties":{"id":"2006192718181796256200000000","pnu":"1221012600104060002","year":2006,"purpose":"기타","floors":1,"structure":"일반철골구조"},"geometry":{"type":"MultiPolygon","coordinates":[[[[126.921018,35.115794],[126.92098,35.11559],[126.920824,35.115609],[126.920835,35.115669],[126.920935,35.115809],[126.921018,35.115794]]]]}},{"type":"Feature","id":"2006192746281796408700000000","properties":{"id":"2006192746281796408700000000","pnu":"1221012600104060002","year":2006,"purpose":"제2종 근린생활시설","floors":1,"structure":"일반철골구조"},"geometry":{"type":"MultiPolygon","coordinates":[[[[126.921172,35.116019],[126.921228,35.116012],[126.921234,35.116051],[126.921364,35.116037],[126.921296,35.115611],[126.92111,35.115631],[126.921172,35.116019]]]]}},{"type":"Feature","id":"2007192733971798393600000000","properties":{"id":"2007192733971798393600000000","pnu":"1221012600104300001","year":2007,"purpose":"기타","floors":3,"structure":"철근콘크리트구조"},"geometry":{"type":"MultiPolygon","coordinates":[[[[126.921167,35.117559],[126.921146,35.117553],[126.921157,35.117518],[126.921106,35.117504],[126.921026,35.117698],[126.921106,35.117721],[126.921167,35.117559]]]]}},{"type":"Feature","id":"2007192789811794983100000000","properties":{"id":"2007192789811794983100000000","pnu":"1221012600104640000","year":2007,"purpose":"기타","far":126.38,"floors":3,"structure":"철근콘크리트구조"},"geometry":{"type":"MultiPolygon","coordinates":[[[[126.921861,35.114561],[126.921756,35.114498],[126.921791,35.114459],[126.921743,35.11443],[126.921671,35.114511],[126.921655,35.1145],[126.921567,35.114599],[126.92161,35.114625],[126.921642,35.11459],[126.921671,35.114608],[126.921689,35.114587],[126.921723,35.114608],[126.921742,35.114587],[126.921767,35.114602],[126.921786,35.114581],[126.921823,35.114604],[126.921861,35.114561]]]]}},{"type":"Feature","id":"2007192804901795275100000000","properties":{"id":"2007192804901795275100000000","pnu":"1221012600104690000","year":2007,"purpose":"제2종 근린생활시설","far":29.9,"floors":1,"structure":"경량철골구조"},"geometry":{"type":"MultiPolygon","coordinates":[[[[126.921957,35.114846],[126.921967,35.114785],[126.921806,35.114768],[126.921796,35.114829],[126.921957,35.114846]]]]}},{"type":"Feature","id":"2008192780021795439100000000","properties":{"id":"2008192780021795439100000000","pnu":"1221012600104590000","year":2008,"purpose":"제2종 근린생활시설","far":118.9,"floors":2,"structure":"철근콘크리트구조"},"geometry":{"type":"MultiPolygon","coordinates":[[[[126.921546,35.115008],[126.921656,35.115009],[126.921657,35.114888],[126.921637,35.114887],[126.921637,35.11488],[126.921616,35.11488],[126.921582,35.114924],[126.921547,35.114955],[126.921546,35.115008]]]]}},{"type":"Feature","id":"2008192821951794162200000000","properties":{"id":"2008192821951794162200000000","pnu":"1221012600104830004","year":2008,"purpose":"단독주택","far":54.39,"floors":1,"structure":"경량철골구조"},"geometry":{"type":"MultiPolygon","coordinates":[[[[126.921979,35.113816],[126.922095,35.113863],[126.922109,35.113838],[126.922124,35.113844],[126.922156,35.11379],[126.922041,35.113743],[126.922012,35.113792],[126.921997,35.113786],[126.921979,35.113816]]]]}},{"type":"Feature","id":"2008192825561794907900000000","properties":{"id":"2008192825561794907900000000","pnu":"1221012600104680000","year":2008,"purpose":"제2종 근린생활시설","far":44.5,"floors":1,"structure":"경량철골구조"},"geometry":{"type":"MultiPolygon","coordinates":[[[[126.922022,35.114498],[126.922055,35.114498],[126.922054,35.114507],[126.922186,35.114508],[126.922187,35.114446],[126.922037,35.114445],[126.922037,35.114467],[126.922022,35.114467],[126.922022,35.114498]]]]}},{"type":"Feature","id":"2008192834151796074300000000","properties":{"id":"2008192834151796074300000000","pnu":"1221012600104030000","year":2008,"purpose":"단독주택","far":51.437681,"floors":2,"structure":"벽돌구조"},"geometry":{"type":"MultiPolygon","coordinates":[[[[126.92217,35.115589],[126.922265,35.115568],[126.92223,35.115465],[126.922141,35.115485],[126.92216,35.115538],[126.922153,35.11554],[126.92217,35.115589]]]]}},{"type":"Feature","id":"2008192867291797267700000000","properties":{"id":"2008192867291797267700000000","pnu":"1221012600103980002","year":2008,"purpose":"제2종 근린생활시설","floors":1,"structure":"경량철골구조"},"geometry":{"type":"MultiPolygon","coordinates":[[[[126.922589,35.116541],[126.922485,35.116615],[126.92254,35.116666],[126.922644,35.116592],[126.922589,35.116541]]]]}},{"type":"Feature","id":"2009192690611797311800000000","properties":{"id":"2009192690611797311800000000","pnu":"1221012600104360000","year":2009,"purpose":"제2종 근린생활시설","far":2.4338,"floors":1,"structure":"경량철골구조"},"geometry":{"type":"MultiPolygon","coordinates":[[[[126.920551,35.116625],[126.920689,35.116683],[126.920703,35.116661],[126.920567,35.116601],[126.920551,35.116625]]]]}},{"type":"Feature","id":"2009192749221795856100000000","properties":{"id":"2009192749221795856100000000","pnu":"1221012600104570000","year":2009,"purpose":"제1종 근린생활시설","far":15.02,"floors":1,"structure":"일반철골구조"},"geometry":{"type":"MultiPolygon","coordinates":[[[[126.921271,35.115335],[126.921272,35.115335],[126.921272,35.115335],[126.921273,35.115334],[126.921274,35.115334],[126.921275,35.115333],[126.921275,35.115333],[126.921276,35.115332],[126.921276,35.115331],[126.921276,35.11533],[126.921276,35.11533],[126.921276,35.115329],[126.921275,35.115328],[126.921275,35.115327],[126.921274,35.115327],[126.921273,35.115326],[126.921272,35.115326],[126.921272,35.115326],[126.921271,35.115326],[126.92127,35.115326],[126.921269,35.115326],[126.921268,35.115326],[126.921267,35.115327],[126.921266,35.115327],[126.921266,35.115328],[126.921265,35.115329],[126.921265,35.11533],[126.921265,35.11533],[126.921265,35.115331],[126.921265,35.115332],[126.921266,35.115333],[126.921266,35.115333],[126.921267,35.115334],[126.921268,35.115334],[126.921269,35.115335],[126.92127,35.115335],[126.921271,35.115335]]]]}},{"type":"Feature","id":"2009192803041796083500000000","properties":{"id":"2009192803041796083500000000","pnu":"1221012600104040000","year":2009,"purpose":"제2종 근린생활시설","far":130.53,"floors":3,"structure":"철근콘크리트구조"},"geometry":{"type":"MultiPolygon","coordinates":[[[[126.921928,35.115563],[126.921926,35.115506],[126.921792,35.115511],[126.921792,35.115563],[126.921928,35.115563]]]]}},{"type":"Feature","id":"2012192792171795457000000000","properties":{"id":"2012192792171795457000000000","pnu":"1221012600104710000","year":2012,"purpose":"단독주택","far":0.9375,"floors":1,"structure":"벽돌구조"},"geometry":{"type":"MultiPolygon","coordinates":[[[[126.921731,35.114977],[126.921751,35.114981],[126.921753,35.114964],[126.921733,35.114962],[126.921731,35.114977],[126.921731,35.114977]]]]}},{"type":"Feature","id":"2012192799411795561800000000","properties":{"id":"2012192799411795561800000000","pnu":"1221012600104710000","year":2012,"purpose":"단독주택","far":28.29,"floors":1,"structure":"철근콘크리트구조"},"geometry":{"type":"MultiPolygon","coordinates":[[[[126.921882,35.115081],[126.921891,35.115033],[126.921852,35.115028],[126.921851,35.115036],[126.921805,35.115031],[126.921803,35.11504],[126.921785,35.115038],[126.921782,35.115052],[126.92175,35.115048],[126.921742,35.115087],[126.921865,35.115103],[126.921869,35.115079],[126.921882,35.115081]]]]}},{"type":"Feature","id":"2012192865521797131600000000","properties":{"id":"2012192865521797131600000000","pnu":"1221012600103990000","year":2012,"purpose":"기타","far":35.69,"floors":1,"structure":"경량철골구조"},"geometry":{"type":"MultiPolygon","coordinates":[[[[126.922455,35.116495],[126.922513,35.116551],[126.922635,35.116466],[126.922578,35.116411],[126.922455,35.116495]]]]}},{"type":"Feature","id":"2013192805031795841800000000","properties":{"id":"2013192805031795841800000000","pnu":"1221012600104740000","year":2013,"purpose":"단독주택","far":23.1306,"floors":1,"structure":"철근콘크리트구조"},"geometry":{"type":"MultiPolygon","coordinates":[[[[126.921801,35.115325],[126.921857,35.115381],[126.921965,35.115306],[126.921919,35.115259],[126.921889,35.115278],[126.921879,35.115271],[126.921801,35.115325]]]]}},{"type":"Feature","id":"road:2911012600106690000000001:32863","properties":{"id":"road:2911012600106690000000001:32863","pnu":"1221012600106690000","purpose":"공동주택","year":2019},"geometry":{"type":"MultiPolygon","coordinates":[[[[126.922037,35.117488],[126.922058,35.117503],[126.922044,35.117515],[126.922063,35.117527],[126.92204,35.117549],[126.922154,35.117643],[126.922179,35.117622],[126.922336,35.11775],[126.922418,35.117688],[126.922106,35.117429],[126.922037,35.117488]]]]}},{"type":"Feature","id":"road:2911012600106690000000002:32864","properties":{"id":"road:2911012600106690000000002:32864","pnu":"1221012600106690000","purpose":"공동주택","year":2019},"geometry":{"type":"MultiPolygon","coordinates":[[[[126.922056,35.118088],[126.92207,35.118079],[126.922084,35.118087],[126.922163,35.118026],[126.922187,35.118042],[126.9222,35.118029],[126.922305,35.118113],[126.922384,35.118052],[126.922177,35.11788],[126.922118,35.117929],[126.922127,35.117938],[126.921999,35.118041],[126.922056,35.118088]]]]}}]}
