{"type":"FeatureCollection","features":[{"type":"Feature","id":"0000192778811799527500000000","properties":{"id":"0000192778811799527500000000","pnu":"1221012600104240000"},"geometry":{"type":"MultiPolygon","coordinates":[[[[126.921589,35.118682],[126.921643,35.118628],[126.921594,35.118596],[126.921542,35.118656],[126.921589,35.118682]]]]}},{"type":"Feature","id":"0000192792211798924500000000","properties":{"id":"0000192792211798924500000000","pnu":"1221012600200790000"},"geometry":{"type":"MultiPolygon","coordinates":[[[[126.921704,35.118121],[126.921777,35.118114],[126.921777,35.118074],[126.921702,35.118076],[126.921704,35.118121]]]]}},{"type":"Feature","id":"0000192800391799519900000000","properties":{"id":"0000192800391799519900000000","pnu":"1221012600104230000"},"geometry":{"type":"MultiPolygon","coordinates":[[[[126.921876,35.118669],[126.92189,35.118616],[126.92178,35.118597],[126.92177,35.118652],[126.921876,35.118669]]]]}},{"type":"Feature","id":"0000192803811799295500000000","properties":{"id":"0000192803811799295500000000","pnu":"1221012600104220001"},"geometry":{"type":"MultiPolygon","coordinates":[[[[126.921831,35.11846],[126.921916,35.118437],[126.9219,35.1184],[126.921816,35.118428],[126.921831,35.11846]]]]}},{"type":"Feature","id":"0000192814951799235000000000","properties":{"id":"0000192814951799235000000000","pnu":"1221012600104220003"},"geometry":{"type":"MultiPolygon","coordinates":[[[[126.92204,35.11837],[126.921994,35.118337],[126.921934,35.118385],[126.92199,35.118413],[126.92204,35.11837]]]]}},{"type":"Feature","id":"0000192818381799479300000000","properties":{"id":"0000192818381799479300000000","pnu":"1221012600200710000"},"geometry":{"type":"MultiPolygon","coordinates":[[[[126.921997,35.118637],[126.92209,35.118614],[126.922075,35.118569],[126.922042,35.118574],[126.922035,35.118569],[126.922011,35.118574],[126.922,35.118559],[126.921964,35.118566],[126.921997,35.118637]]]]}},{"type":"Feature","id":"0000192820181799161900000000","properties":{"id":"0000192820181799161900000000","pnu":"1221012600104220003"},"geometry":{"type":"MultiPolygon","coordinates":[[[[126.922035,35.118339],[126.922077,35.118304],[126.922061,35.118283],[126.922014,35.118314],[126.922035,35.118339]]]]}},{"type":"Feature","id":"0000192824431799245700000000","properties":{"id":"0000192824431799245700000000","pnu":"1221012600104220003"},"geometry":{"type":"MultiPolygon","coordinates":[[[[126.922055,35.118417],[126.922144,35.118398],[126.92213,35.118355],[126.922041,35.118375],[126.922055,35.118417]]]]}},{"type":"Feature","id":"0000192827091799140700000000","properties":{"id":"0000192827091799140700000000","pnu":"1221012600104210000"},"geometry":{"type":"MultiPolygon","coordinates":[[[[126.92212,35.118319],[126.922151,35.118299],[126.922125,35.118263],[126.922092,35.118286],[126.92212,35.118319]]]]}},{"type":"Feature","id":"0000192827381799426700000000","properties":{"id":"0000192827381799426700000000","pnu":"1221012600200710000"},"geometry":{"type":"MultiPolygon","coordinates":[[[[126.922149,35.118589],[126.922138,35.118507],[126.9221,35.118512],[126.922112,35.11859],[126.922149,35.118589]]]]}},{"type":"Feature","id":"0000192828101798921400000000","properties":{"id":"0000192828101798921400000000","pnu":"1221012600104280000"},"geometry":{"type":"MultiPolygon","coordinates":[[[[126.922091,35.118058],[126.922081,35.118093],[126.922171,35.118128],[126.922189,35.118097],[126.922091,35.118058]]]]}},{"type":"Feature","id":"0000192836921799226200000000","properties":{"id":"0000192836921799226200000000","pnu":"1221012600104210000"},"geometry":{"type":"MultiPolygon","coordinates":[[[[126.922279,35.118391],[126.922275,35.118348],[126.922182,35.118347],[126.922181,35.118388],[126.922279,35.118391]]]]}},{"type":"Feature","id":"0000192841391801696700000000","properties":{"id":"0000192841391801696700000000","pnu":"1221012600103860001"},"geometry":{"type":"MultiPolygon","coordinates":[[[[126.922221,35.120595],[126.922255,35.120623],[126.922268,35.120615],[126.922288,35.120633],[126.922331,35.1206],[126.922274,35.120555],[126.922221,35.120595]]]]}},{"type":"Feature","id":"0000192841781801409500000000","properties":{"id":"0000192841781801409500000000","pnu":"1221012600103860001"},"geometry":{"type":"MultiPolygon","coordinates":[[[[126.922182,35.120394],[126.922284,35.120435],[126.922383,35.120279],[126.922273,35.120241],[126.922182,35.120394]]]]}},{"type":"Feature","id":"0000192849061799666900000000","properties":{"id":"0000192849061799666900000000","pnu":"1221012600200710000"},"geometry":{"type":"MultiPolygon","coordinates":[[[[126.922357,35.118815],[126.922387,35.118808],[126.92237,35.118721],[126.922337,35.118722],[126.922357,35.118815]]]]}},{"type":"Feature","id":"0000192849591799280000000000","properties":{"id":"0000192849591799280000000000","pnu":"1221012600200710000"},"geometry":{"type":"MultiPolygon","coordinates":[[[[126.922391,35.118447],[126.922412,35.11841],[126.922344,35.118387],[126.922327,35.118425],[126.922391,35.118447]]]]}},{"type":"Feature","id":"0000192856711801574800000000","properties":{"id":"0000192856711801574800000000","pnu":"1221012600103860001"},"geometry":{"type":"MultiPolygon","coordinates":[[[[126.922396,35.120539],[126.922486,35.120542],[126.922494,35.120432],[126.922403,35.12043],[126.922396,35.120539]]]]}},{"type":"Feature","id":"0000192856761799321300000000","properties":{"id":"0000192856761799321300000000","pnu":"1221012600104200000"},"geometry":{"type":"MultiPolygon","coordinates":[[[[126.922461,35.118483],[126.922482,35.11846],[126.922436,35.118426],[126.92241,35.118449],[126.922461,35.118483]]]]}},{"type":"Feature","id":"0000192859291801670500000000","properties":{"id":"0000192859291801670500000000","pnu":"1221012600103860001"},"geometry":{"type":"MultiPolygon","coordinates":[[[[126.922482,35.12059],[126.922497,35.120572],[126.922464,35.120554],[126.922449,35.120572],[126.922482,35.12059]]]]}},{"type":"Feature","id":"0000192861851799269000000000","properties":{"id":"0000192861851799269000000000","pnu":"1221012600104200000"},"geometry":{"type":"MultiPolygon","coordinates":[[[[126.92256,35.118432],[126.922565,35.118412],[126.922449,35.118382],[126.922443,35.118404],[126.92256,35.118432]]]]}},{"type":"Feature","id":"0000192863851799536300000000","properties":{"id":"0000192863851799536300000000","pnu":"1221012600104160000"},"geometry":{"type":"MultiPolygon","coordinates":[[[[126.922582,35.118692],[126.92258,35.118603],[126.922468,35.118606],[126.922468,35.118692],[126.922582,35.118692]]]]}},{"type":"Feature","id":"0000192865781799691700000000","properties":{"id":"0000192865781799691700000000","pnu":"1221012600104150000"},"geometry":{"type":"MultiPolygon","coordinates":[[[[126.922562,35.118824],[126.922561,35.118783],[126.9226,35.118784],[126.922601,35.118763],[126.922512,35.118762],[126.92251,35.118822],[126.922562,35.118824]]]]}},{"type":"Feature","id":"0000192867731799419200000000","properties":{"id":"0000192867731799419200000000","pnu":"1221012600104200000"},"geometry":{"type":"MultiPolygon","coordinates":[[[[126.922529,35.11858],[126.922626,35.118539],[126.922608,35.118505],[126.922506,35.118549],[126.922529,35.11858]]]]}},{"type":"Feature","id":"0000192868171799612600000000","properties":{"id":"0000192868171799612600000000","pnu":"1221012600104160000"},"geometry":{"type":"MultiPolygon","coordinates":[[[[126.92255,35.118693],[126.922549,35.11874],[126.922594,35.118741],[126.922595,35.118694],[126.92255,35.118693]]]]}},{"type":"Feature","id":"0000192873771799310600000000","properties":{"id":"0000192873771799310600000000","pnu":"1221012600104190000"},"geometry":{"type":"MultiPolygon","coordinates":[[[[126.922597,35.118458],[126.922667,35.118465],[126.922674,35.118433],[126.922598,35.118424],[126.922597,35.118458]]]]}},{"type":"Feature","id":"0000192874401799529100000000","properties":{"id":"0000192874401799529100000000","pnu":"1221012600104160000"},"geometry":{"type":"MultiPolygon","coordinates":[[[[126.922675,35.118655],[126.922642,35.118611],[126.922606,35.118629],[126.92264,35.118673],[126.922675,35.118655]]]]}},{"type":"Feature","id":"0000192876821799720000000000","properties":{"id":"0000192876821799720000000000","pnu":"1221012600104150000"},"geometry":{"type":"MultiPolygon","coordinates":[[[[126.922654,35.118847],[126.922691,35.118843],[126.922678,35.118781],[126.922644,35.118783],[126.922654,35.118847]]]]}},{"type":"Feature","id":"0000192878851799600500000000","properties":{"id":"0000192878851799600500000000","pnu":"1221012600104160000"},"geometry":{"type":"MultiPolygon","coordinates":[[[[126.922654,35.118705],[126.922688,35.118737],[126.922725,35.118707],[126.922691,35.118676],[126.922654,35.118705]]]]}},{"type":"Feature","id":"0000192879671801478500000000","properties":{"id":"0000192879671801478500000000","pnu":"1221012600103860001"},"geometry":{"type":"MultiPolygon","coordinates":[[[[126.922658,35.120409],[126.922725,35.120422],[126.922735,35.120389],[126.922668,35.120376],[126.922658,35.120409]]]]}},{"type":"Feature","id":"0000192882051799646700000000","properties":{"id":"0000192882051799646700000000","pnu":"1221012600104160000"},"geometry":{"type":"MultiPolygon","coordinates":[[[[126.922678,35.118757],[126.922709,35.118784],[126.92277,35.118741],[126.922741,35.118711],[126.922678,35.118757]]]]}},{"type":"Feature","id":"0000192885971799483700000000","properties":{"id":"0000192885971799483700000000","pnu":"1221012600104170000"},"geometry":{"type":"MultiPolygon","coordinates":[[[[126.922702,35.118645],[126.922848,35.118622],[126.922834,35.118558],[126.922688,35.118578],[126.922702,35.118645]]]]}},{"type":"Feature","id":"0000192890091799360400000000","properties":{"id":"0000192890091799360400000000","pnu":"1221012600104180000"},"geometry":{"type":"MultiPolygon","coordinates":[[[[126.922786,35.118499],[126.92283,35.118509],[126.922839,35.11848],[126.922796,35.118471],[126.922786,35.118499]]]]}},{"type":"Feature","id":"0000192892921801648400000000","properties":{"id":"0000192892921801648400000000","pnu":"1221012600106530000"},"geometry":{"type":"MultiPolygon","coordinates":[[[[126.922767,35.120595],[126.922817,35.120624],[126.922917,35.120509],[126.922867,35.12048],[126.922767,35.120595]]]]}},{"type":"Feature","id":"0000192898811799349000000000","properties":{"id":"0000192898811799349000000000","pnu":"1221012600104180000"},"geometry":{"type":"MultiPolygon","coordinates":[[[[126.922961,35.118516],[126.922969,35.11845],[126.922853,35.118445],[126.922849,35.118508],[126.922961,35.118516]]]]}},{"type":"Feature","id":"0000192904961802409000000000","properties":{"id":"0000192904961802409000000000","pnu":"1221012600103850001"},"geometry":{"type":"MultiPolygon","coordinates":[[[[126.922893,35.121243],[126.922949,35.121301],[126.923053,35.121228],[126.923001,35.121177],[126.922893,35.121243]]]]}},{"type":"Feature","id":"0000192915391799673800000000","properties":{"id":"0000192915391799673800000000","pnu":"1221012600104140000"},"geometry":{"type":"MultiPolygon","coordinates":[[[[126.923023,35.118784],[126.923142,35.118809],[126.923153,35.11876],[126.923042,35.118736],[126.923023,35.118784]]]]}},{"type":"Feature","id":"0000192921511802023800000000","properties":{"id":"0000192921511802023800000000","pnu":"1221012600103860002"},"geometry":{"type":"MultiPolygon","coordinates":[[[[126.923157,35.120921],[126.923191,35.120884],[126.923154,35.12086],[126.923119,35.120897],[126.923157,35.120921]]]]}},{"type":"Feature","id":"0000192927391799616100000000","properties":{"id":"0000192927391799616100000000","pnu":"1221012600104140001"},"geometry":{"type":"MultiPolygon","coordinates":[[[[126.92319,35.118731],[126.923237,35.118746],[126.923254,35.11871],[126.923207,35.118695],[126.92319,35.118731]]]]}},{"type":"Feature","id":"0000192929751799699100000000","properties":{"id":"0000192929751799699100000000","pnu":"1221012600200700006"},"geometry":{"type":"MultiPolygon","coordinates":[[[[126.923292,35.118776],[126.92323,35.118754],[126.923203,35.118817],[126.923267,35.118836],[126.923292,35.118776]]]]}},{"type":"Feature","id":"0000192929931802121200000000","properties":{"id":"0000192929931802121200000000","pnu":"1221012600200650001"},"geometry":{"type":"MultiPolygon","coordinates":[[[[126.923169,35.120971],[126.923276,35.121039],[126.923328,35.120982],[126.923283,35.120953],[126.923274,35.120961],[126.923213,35.120918],[126.923169,35.120971]]]]}},{"type":"Feature","id":"0000192939041802184300000000","properties":{"id":"0000192939041802184300000000","pnu":"1221012600200650001"},"geometry":{"type":"MultiPolygon","coordinates":[[[[126.923297,35.121085],[126.923397,35.12107],[126.92339,35.12098],[126.923343,35.120984],[126.923289,35.12104],[126.923297,35.121085]]]]}},{"type":"Feature","id":"0000192939371799500200000000","properties":{"id":"0000192939371799500200000000","pnu":"1221012600103910000"},"geometry":{"type":"MultiPolygon","coordinates":[[[[126.923352,35.118653],[126.923398,35.118615],[126.923354,35.118579],[126.923308,35.118618],[126.923352,35.118653]]]]}},{"type":"Feature","id":"0000192954181799637200000000","properties":{"id":"0000192954181799637200000000","pnu":"1221012600103910000"},"geometry":{"type":"MultiPolygon","coordinates":[[[[126.92364,35.118863],[126.923666,35.11884],[126.923649,35.118827],[126.923663,35.118815],[126.923397,35.11862],[126.923358,35.118657],[126.92364,35.118863]]]]}},{"type":"Feature","id":"0000192958841799577300000000","properties":{"id":"0000192958841799577300000000","pnu":"1221012600103920000"},"geometry":{"type":"MultiPolygon","coordinates":[[[[126.923689,35.118744],[126.923492,35.118588],[126.923445,35.118628],[126.923642,35.118784],[126.923689,35.118744]]]]}},{"type":"Feature","id":"0000192959801799828300000000","properties":{"id":"0000192959801799828300000000","pnu":"1221012600104140001"},"geometry":{"type":"MultiPolygon","coordinates":[[[[126.923624,35.118904],[126.923565,35.118874],[126.92353,35.11892],[126.923589,35.11895],[126.923624,35.118904]]]]}},{"type":"Feature","id":"0000193092301798982900000000","properties":{"id":"0000193092301798982900000000","pnu":"1221012600106490034"},"geometry":{"type":"MultiPolygon","coordinates":[[[[126.925,35.118155],[126.925031,35.118192],[126.925074,35.118159],[126.92503,35.11811],[126.925,35.118133],[126.924989,35.118142],[126.925,35.118155]]]]}},{"type":"Feature","id":"0000193243631801568000000000","properties":{"id":"0000193243631801568000000000","pnu":"1221012600103160001"},"geometry":{"type":"MultiPolygon","coordinates":[[[[126.92661,35.120497],[126.926661,35.120544],[126.926769,35.120465],[126.92672,35.120421],[126.92661,35.120497]]]]}},{"type":"Feature","id":"0000193341481809895200000000","properties":{"id":"0000193341481809895200000000","pnu":"1221011900109550000"},"geometry":{"type":"MultiPolygon","coordinates":[[[[126.927733,35.12804],[126.927811,35.128015],[126.927777,35.12794],[126.927704,35.127956],[126.927733,35.12804]]]]}},{"type":"Feature","id":"0000193350261809861500000000","properties":{"id":"0000193350261809861500000000","pnu":"1221011900109550000"},"geometry":{"type":"MultiPolygon","coordinates":[[[[126.927827,35.12801],[126.92791,35.127969],[126.927881,35.127911],[126.927796,35.127941],[126.927827,35.12801]]]]}},{"type":"Feature","id":"0000193358781809816500000000","properties":{"id":"0000193358781809816500000000","pnu":"1221011900109550000"},"geometry":{"type":"MultiPolygon","coordinates":[[[[126.927927,35.127959],[126.927997,35.127918],[126.927969,35.127879],[126.927894,35.127914],[126.927927,35.127959]]]]}},{"type":"Feature","id":"0000193361801809875800000000","properties":{"id":"0000193361801809875800000000","pnu":"1221011900109430000"},"geometry":{"type":"MultiPolygon","coordinates":[[[[126.928036,35.127955],[126.928002,35.127929],[126.927924,35.12798],[126.927957,35.128017],[126.928036,35.127955]]]]}},{"type":"Feature","id":"0000193366791809770300000000","properties":{"id":"0000193366791809770300000000","pnu":"1221011900109540000"},"geometry":{"type":"MultiPolygon","coordinates":[[[[126.928049,35.127836],[126.927983,35.12787],[126.928018,35.127917],[126.928085,35.127883],[126.928049,35.127836]]]]}},{"type":"Feature","id":"0000193369651809815300000000","properties":{"id":"0000193369651809815300000000","pnu":"1221011900109450000"},"geometry":{"type":"MultiPolygon","coordinates":[[[[126.928082,35.127886],[126.928025,35.127921],[126.928049,35.127947],[126.928106,35.127913],[126.928082,35.127886]]]]}},{"type":"Feature","id":"0000193372471809721400000000","properties":{"id":"0000193372471809721400000000","pnu":"1221011900109540000"},"geometry":{"type":"MultiPolygon","coordinates":[[[[126.928088,35.127795],[126.928054,35.127817],[126.928104,35.127869],[126.928138,35.127847],[126.928088,35.127795]]]]}},{"type":"Feature","id":"0000193376971809682800000000","properties":{"id":"0000193376971809682800000000","pnu":"1221011900109540000"},"geometry":{"type":"MultiPolygon","coordinates":[[[[126.92809,35.127783],[126.928138,35.127842],[126.928198,35.127809],[126.928159,35.127756],[126.92809,35.127783]]]]}},{"type":"Feature","id":"0000193380991809736800000000","properties":{"id":"0000193380991809736800000000","pnu":"1221011900109470000"},"geometry":{"type":"MultiPolygon","coordinates":[[[[126.928182,35.127871],[126.928219,35.127856],[126.928197,35.127821],[126.928161,35.127837],[126.928182,35.127871]]]]}},{"type":"Feature","id":"0000193382041809659200000000","properties":{"id":"0000193382041809659200000000","pnu":"1221011900109480000"},"geometry":{"type":"MultiPolygon","coordinates":[[[[126.928203,35.127814],[126.928239,35.127796],[126.9282,35.127738],[126.928163,35.127756],[126.928203,35.127814]]]]}},{"type":"Feature","id":"0000193387281809844100000000","properties":{"id":"0000193387281809844100000000","pnu":"1221011900109260000"},"geometry":{"type":"MultiPolygon","coordinates":[[[[126.928274,35.127982],[126.928305,35.127947],[126.928242,35.127905],[126.928211,35.127937],[126.928274,35.127982]]]]}},{"type":"Feature","id":"0000193394391806240800000000","properties":{"id":"0000193394391806240800000000","pnu":"1221012600200080000"},"geometry":{"type":"MultiPolygon","coordinates":[[[[126.928358,35.12471],[126.928361,35.124684],[126.928324,35.124679],[126.928316,35.124706],[126.928358,35.12471]]]]}},{"type":"Feature","id":"0000193395761809898500000000","properties":{"id":"0000193395761809898500000000","pnu":"1221011900109730000"},"geometry":{"type":"MultiPolygon","coordinates":[[[[126.928376,35.128016],[126.928386,35.127987],[126.92833,35.127966],[126.928317,35.128],[126.928376,35.128016]]]]}},{"type":"Feature","id":"0000193395871806181900000000","properties":{"id":"0000193395871806181900000000","pnu":"1221012600200080000"},"geometry":{"type":"MultiPolygon","coordinates":[[[[126.928373,35.12467],[126.928378,35.124622],[126.928339,35.124616],[126.928331,35.124659],[126.928373,35.12467]]]]}},{"type":"Feature","id":"0000193398901809827400000000","properties":{"id":"0000193398901809827400000000","pnu":"1221011900109730000"},"geometry":{"type":"MultiPolygon","coordinates":[[[[126.928401,35.127975],[126.928427,35.127894],[126.928374,35.12788],[126.928343,35.127961],[126.928401,35.127975]]]]}},{"type":"Feature","id":"0000193406751806932000000000","properties":{"id":"0000193406751806932000000000","pnu":"1221012600103020000"},"geometry":{"type":"MultiPolygon","coordinates":[[[[126.928427,35.12538],[126.928541,35.125369],[126.928517,35.125256],[126.928412,35.125266],[126.928427,35.12538]]]]}},{"type":"Feature","id":"0000193409051809614100000000","properties":{"id":"0000193409051809614100000000","pnu":"1221011900109740000"},"geometry":{"type":"MultiPolygon","coordinates":[[[[126.928531,35.127774],[126.928558,35.127733],[126.928488,35.127693],[126.928428,35.127751],[126.928451,35.127766],[126.928468,35.127745],[126.928531,35.127774]]]]}},{"type":"Feature","id":"0000193411531809873300000000","properties":{"id":"0000193411531809873300000000","pnu":"1221010800102070029"},"geometry":{"type":"MultiPolygon","coordinates":[[[[126.928581,35.127936],[126.928519,35.12791],[126.928466,35.128003],[126.928533,35.128028],[126.928581,35.127936]]]]}},{"type":"Feature","id":"0000193414251807478500000000","properties":{"id":"0000193414251807478500000000","pnu":"1221012600200010001"},"geometry":{"type":"MultiPolygon","coordinates":[[[[126.928571,35.125834],[126.928587,35.125808],[126.928542,35.125788],[126.928525,35.125813],[126.928571,35.125834]]]]}},{"type":"Feature","id":"0000193415091809740000000000","properties":{"id":"0000193415091809740000000000","pnu":"1221011000105290038"},"geometry":{"type":"MultiPolygon","coordinates":[[[[126.928611,35.127893],[126.928613,35.127812],[126.928516,35.127809],[126.928513,35.127884],[126.928611,35.127893]]]]}},{"type":"Feature","id":"0000193415791809494600000000","properties":{"id":"0000193415791809494600000000","pnu":"1221011900110230000"},"geometry":{"type":"MultiPolygon","coordinates":[[[[126.928632,35.127624],[126.928606,35.127583],[126.928553,35.127575],[126.928516,35.127656],[126.928559,35.127689],[126.928632,35.127624]]]]}},{"type":"Feature","id":"0000193424661806797300000000","properties":{"id":"0000193424661806797300000000","pnu":"1221012600103000002"},"geometry":{"type":"MultiPolygon","coordinates":[[[[126.928715,35.12526],[126.928754,35.125214],[126.928624,35.125134],[126.928589,35.125179],[126.928715,35.12526]]]]}},{"type":"Feature","id":"0000193424671809302800000000","properties":{"id":"0000193424671809302800000000","pnu":"1221011900102850000"},"geometry":{"type":"MultiPolygon","coordinates":[[[[126.928647,35.127403],[126.928606,35.127451],[126.928648,35.127483],[126.928711,35.127501],[126.928735,35.127472],[126.9287,35.127451],[126.928711,35.127441],[126.928647,35.127403]]]]}},{"type":"Feature","id":"0000193424891809658000000000","properties":{"id":"0000193424891809658000000000","pnu":"1221011600101860005"},"geometry":{"type":"MultiPolygon","coordinates":[[[[126.928744,35.127763],[126.928705,35.127744],[126.928696,35.127754],[126.928624,35.127723],[126.928601,35.127754],[126.92863,35.12777],[126.928616,35.127794],[126.928697,35.12783],[126.928744,35.127763]]]]}},{"type":"Feature","id":"0000193425431807514400000000","properties":{"id":"0000193425431807514400000000","pnu":"1221012600200010001"},"geometry":{"type":"MultiPolygon","coordinates":[[[[126.928646,35.125845],[126.9287,35.125865],[126.928712,35.125842],[126.928658,35.125822],[126.928646,35.125845]]]]}},{"type":"Feature","id":"0000193430421809565300000000","properties":{"id":"0000193430421809565300000000","pnu":"1221012600102870017"},"geometry":{"type":"MultiPolygon","coordinates":[[[[126.928804,35.127672],[126.928765,35.127657],[126.928758,35.127669],[126.928693,35.127648],[126.928659,35.127698],[126.928759,35.127744],[126.928804,35.127672]]]]}},{"type":"Feature","id":"0000193432551809235500000000","properties":{"id":"0000193432551809235500000000","pnu":"1221011100107170046"},"geometry":{"type":"MultiPolygon","coordinates":[[[[126.928819,35.127427],[126.928715,35.127339],[126.928692,35.127362],[126.928795,35.12745],[126.928819,35.127427]]]]}},{"type":"Feature","id":"0000193432671809907200000000","properties":{"id":"0000193432671809907200000000","pnu":"1221011900110630000"},"geometry":{"type":"MultiPolygon","coordinates":[[[[126.9288,35.128051],[126.928827,35.128004],[126.928752,35.127971],[126.92876,35.127955],[126.928725,35.127943],[126.92869,35.128008],[126.9288,35.128051]]]]}},{"type":"Feature","id":"0000193432921806758500000000","properties":{"id":"0000193432921806758500000000","pnu":"1221012600103010000"},"geometry":{"type":"MultiPolygon","coordinates":[[[[126.928808,35.125209],[126.928834,35.125169],[126.928713,35.125117],[126.928688,35.125151],[126.928808,35.125209]]]]}},{"type":"Feature","id":"0000193435291809693300000000","properties":{"id":"0000193435291809693300000000","pnu":"1221013000100580000"},"geometry":{"type":"MultiPolygon","coordinates":[[[[126.928856,35.127778],[126.928781,35.127752],[126.928718,35.127849],[126.928763,35.127865],[126.928779,35.127846],[126.928789,35.12785],[126.928818,35.12781],[126.928837,35.127815],[126.928856,35.127778]]]]}},{"type":"Feature","id":"0000193435701809460000000000","properties":{"id":"0000193435701809460000000000","pnu":"1221012200106740005"},"geometry":{"type":"MultiPolygon","coordinates":[[[[126.928865,35.127577],[126.928821,35.127559],[126.928814,35.12757],[126.928754,35.127544],[126.928715,35.127609],[126.928818,35.127654],[126.928865,35.127577]]]]}},{"type":"Feature","id":"0000193440891806829600000000","properties":{"id":"0000193440891806829600000000","pnu":"1221012600103010000"},"geometry":{"type":"MultiPolygon","coordinates":[[[[126.928837,35.125253],[126.92888,35.125213],[126.928861,35.125199],[126.928818,35.125239],[126.928837,35.125253]]]]}},{"type":"Feature","id":"0000193441741809573100000000","properties":{"id":"0000193441741809573100000000","pnu":"1221011900110730000"},"geometry":{"type":"MultiPolygon","coordinates":[[[[126.928799,35.127723],[126.928858,35.127752],[126.928915,35.127675],[126.92885,35.127648],[126.928799,35.127723]]]]}},{"type":"Feature","id":"0000193442011809367700000000","properties":{"id":"0000193442011809367700000000","pnu":"1221011000103900003"},"geometry":{"type":"MultiPolygon","coordinates":[[[[126.928935,35.1275],[126.9289,35.127481],[126.928891,35.127492],[126.928838,35.127469],[126.928828,35.127477],[126.928817,35.127472],[126.928783,35.127515],[126.92888,35.127568],[126.928935,35.1275]]]]}},{"type":"Feature","id":"0000193444341809062400000000","properties":{"id":"0000193444341809062400000000","pnu":"1221011700100050007"},"geometry":{"type":"MultiPolygon","coordinates":[[[[126.928939,35.127237],[126.928872,35.127198],[126.928832,35.127237],[126.928896,35.127282],[126.928939,35.127237]]]]}},{"type":"Feature","id":"0000193444491809741800000000","properties":{"id":"0000193444491809741800000000","pnu":"1221012200106640014"},"geometry":{"type":"MultiPolygon","coordinates":[[[[126.928964,35.127828],[126.92888,35.127788],[126.928812,35.127893],[126.92886,35.127911],[126.928872,35.127895],[126.928887,35.127901],[126.928914,35.127868],[126.928932,35.127875],[126.928964,35.127828]]]]}},{"type":"Feature","id":"0000193450191809282700000000","properties":{"id":"0000193450191809282700000000","pnu":"1221011000105410036"},"geometry":{"type":"MultiPolygon","coordinates":[[[[126.929023,35.127441],[126.92893,35.127379],[126.928874,35.127433],[126.928969,35.127496],[126.929023,35.127441]]]]}},{"type":"Feature","id":"0000193450581808995600000000","properties":{"id":"0000193450581808995600000000","pnu":"1221011900110070000"},"geometry":{"type":"MultiPolygon","coordinates":[[[[126.928978,35.127236],[126.929027,35.127182],[126.92893,35.127121],[126.92888,35.127175],[126.928978,35.127236]]]]}},{"type":"Feature","id":"0000193453651809814300000000","properties":{"id":"0000193453651809814300000000","pnu":"1221012400103990000"},"geometry":{"type":"MultiPolygon","coordinates":[[[[126.929055,35.127891],[126.928973,35.12786],[126.928919,35.12794],[126.929,35.127974],[126.929055,35.127891]]]]}},{"type":"Feature","id":"1964192784601799464500000000","properties":{"id":"1964192784601799464500000000","pnu":"1221012600104240000"},"geometry":{"type":"MultiPolygon","coordinates":[[[[126.921678,35.118621],[126.921705,35.118595],[126.921635,35.118544],[126.921606,35.118573],[126.921678,35.118621]]]]}},{"type":"Feature","id":"1964192787461799619200000000","properties":{"id":"1964192787461799619200000000","pnu":"1221012600104240000"},"geometry":{"type":"MultiPolygon","coordinates":[[[[126.921636,35.118748],[126.921738,35.118748],[126.921737,35.118696],[126.921635,35.118698],[126.921636,35.118748]]]]}},{"type":"Feature","id":"1964192794501799458800000000","properties":{"id":"1964192794501799458800000000","pnu":"1221012600104230000"},"geometry":{"type":"MultiPolygon","coordinates":[[[[126.921766,35.118614],[126.92179,35.11855],[126.921762,35.118543],[126.921738,35.118605],[126.921766,35.118614]]]]}},{"type":"Feature","id":"1972193434491809106200000000","properties":{"id":"1972193434491809106200000000","pnu":"1221011900110100000"},"geometry":{"type":"MultiPolygon","coordinates":[[[[126.928777,35.127283],[126.928778,35.127283],[126.928779,35.127282],[126.92878,35.127282],[126.928781,35.127282],[126.928781,35.127281],[126.928782,35.12728],[126.928782,35.12728],[126.928783,35.127279],[126.928783,35.127278],[126.928783,35.127277],[126.928782,35.127277],[126.928782,35.127276],[126.928781,35.127275],[126.928781,35.127275],[126.92878,35.127274],[126.928779,35.127274],[126.928778,35.127274],[126.928777,35.127274],[126.928776,35.127274],[126.928775,35.127274],[126.928774,35.127274],[126.928774,35.127275],[126.928773,35.127275],[126.928772,35.127276],[126.928772,35.127277],[126.928772,35.127277],[126.928772,35.127278],[126.928772,35.127279],[126.928772,35.12728],[126.928772,35.12728],[126.928773,35.127281],[126.928774,35.127282],[126.928774,35.127282],[126.928775,35.127282],[126.928776,35.127283],[126.928777,35.127283]]]]}},{"type":"Feature","id":"1972193437971809169200000000","properties":{"id":"1972193437971809169200000000","pnu":"1221011900110100000"},"geometry":{"type":"MultiPolygon","coordinates":[[[[126.92888,35.127335],[126.928803,35.127281],[126.928751,35.12733],[126.928826,35.127392],[126.92888,35.127335]]]]}},{"type":"Feature","id":"1975193454141808889000000000","properties":{"id":"1975193454141808889000000000","pnu":"1221011900110060000"},"geometry":{"type":"MultiPolygon","coordinates":[[[[126.928942,35.127105],[126.928972,35.127125],[126.929042,35.127058],[126.92902,35.127038],[126.928942,35.127105]]]]}},{"type":"Feature","id":"1977193391151809799100000000","properties":{"id":"1977193391151809799100000000","pnu":"1221011900109260000"},"geometry":{"type":"MultiPolygon","coordinates":[[[[126.928315,35.127931],[126.928324,35.12788],[126.928315,35.127876],[126.928264,35.127904],[126.928315,35.127931]]]]}},{"type":"Feature","id":"1979193450871809650400000000","properties":{"id":"1979193450871809650400000000","pnu":"1221011900110720000"},"geometry":{"type":"MultiPolygon","coordinates":[[[[126.929018,35.127762],[126.928929,35.127722],[126.928895,35.127775],[126.928983,35.127816],[126.929018,35.127762]]]]}},{"type":"Feature","id":"1984193451671809114200000000","properties":{"id":"1984193451671809114200000000","pnu":"1221011900110090000"},"geometry":{"type":"MultiPolygon","coordinates":[[[[126.928919,35.127347],[126.929034,35.127246],[126.929008,35.127226],[126.928899,35.127324],[126.928919,35.127347]]]]}},{"type":"Feature","id":"1986192696301798872500000000","properties":{"id":"1986192696301798872500000000","pnu":"1221012600104300001"},"geometry":{"type":"MultiPolygon","coordinates":[[[[126.920691,35.118085],[126.920724,35.118029],[126.92069,35.118009],[126.920648,35.118071],[126.920691,35.118085]]]]}},{"type":"Feature","id":"1986192709651798980800000000","properties":{"id":"1986192709651798980800000000","pnu":"1221012600104300001"},"geometry":{"type":"MultiPolygon","coordinates":[[[[126.920976,35.118147],[126.92075,35.118044],[126.920693,35.118147],[126.920916,35.118249],[126.920976,35.118147]]]]}},{"type":"Feature","id":"1986192723251799100900000000","properties":{"id":"1986192723251799100900000000","pnu":"1221012600104300001"},"geometry":{"type":"MultiPolygon","coordinates":[[[[126.921005,35.118298],[126.921035,35.118243],[126.92096,35.118213],[126.92093,35.118265],[126.921005,35.118298]]]]}},{"type":"Feature","id":"1986192738651799028600000000","properties":{"id":"1986192738651799028600000000","pnu":"1221012600104300001"},"geometry":{"type":"MultiPolygon","coordinates":[[[[126.921212,35.118281],[126.92127,35.118181],[126.921089,35.118101],[126.921033,35.118194],[126.921212,35.118281]]]]}},{"type":"Feature","id":"1986192754951798899900000000","properties":{"id":"1986192754951798899900000000","pnu":"1221012600104300001"},"geometry":{"type":"MultiPolygon","coordinates":[[[[126.921317,35.118047],[126.921304,35.118094],[126.921345,35.118101],[126.921358,35.118054],[126.921317,35.118047]]]]}},{"type":"Feature","id":"1986192763151798912000000000","properties":{"id":"1986192763151798912000000000","pnu":"1221012600104300001"},"geometry":{"type":"MultiPolygon","coordinates":[[[[126.921477,35.118124],[126.921493,35.118072],[126.921361,35.118046],[126.92135,35.118098],[126.921477,35.118124]]]]}},{"type":"Feature","id":"1987193375741809772300000000","properties":{"id":"1987193375741809772300000000","pnu":"1221011900109470000"},"geometry":{"type":"MultiPolygon","coordinates":[[[[126.928166,35.127885],[126.928143,35.12785],[126.928098,35.127873],[126.928122,35.127906],[126.928166,35.127885]]]]}},{"type":"Feature","id":"1998193320201809904900000000","properties":{"id":"1998193320201809904900000000","pnu":"1221011900109510000"},"geometry":{"type":"MultiPolygon","coordinates":[[[[126.927416,35.127937],[126.927437,35.128072],[126.927679,35.128049],[126.927662,35.127978],[126.927496,35.127995],[126.927488,35.127949],[126.927513,35.12792],[126.927493,35.127871],[126.927463,35.127877],[126.927416,35.127937]]]]}},{"type":"Feature","id":"2012193423381809385300000000","properties":{"id":"2012193423381809385300000000","pnu":"1221011900110190000"},"geometry":{"type":"MultiPolygon","coordinates":[[[[126.928619,35.127482],[126.928584,35.127523],[126.928619,35.127523],[126.928666,35.127589],[126.928716,35.127528],[126.928661,35.127497],[126.928645,35.127498],[126.928619,35.127482]]]]}}]}
