{"type":"FeatureCollection","features":[{"type":"Feature","id":"0000192914891771197400000000","properties":{"id":"0000192914891771197400000000","pnu":"1221012500108610004","purpose":"기타"},"geometry":{"type":"MultiPolygon","coordinates":[[[[126.923095,35.09309],[126.923089,35.093115],[126.923123,35.09312],[126.923129,35.093095],[126.923095,35.09309]]]]}},{"type":"Feature","id":"0000192919381770947400000000","properties":{"id":"0000192919381770947400000000","pnu":"1221012500108610004","purpose":"기타"},"geometry":{"type":"MultiPolygon","coordinates":[[[[126.923134,35.09289],[126.92317,35.0929],[126.923184,35.09287],[126.923147,35.092859],[126.923134,35.09289]]]]}},{"type":"Feature","id":"0000192920341771173900000000","properties":{"id":"0000192920341771173900000000","pnu":"1221012500108380000","purpose":"기타"},"geometry":{"type":"MultiPolygon","coordinates":[[[[126.923167,35.093103],[126.923192,35.093084],[126.923171,35.093065],[126.923145,35.093084],[126.923167,35.093103]]]]}},{"type":"Feature","id":"0000193393761768507100000000","properties":{"id":"0000193393761768507100000000","pnu":"1221012500107250000","purpose":"기타"},"geometry":{"type":"MultiPolygon","coordinates":[[[[126.928332,35.090724],[126.928384,35.090728],[126.928394,35.090643],[126.928342,35.090639],[126.928332,35.090724]]]]}},{"type":"Feature","id":"0000193405871768441500000000","properties":{"id":"0000193405871768441500000000","pnu":"1221012500107240000","purpose":"기타"},"geometry":{"type":"MultiPolygon","coordinates":[[[[126.928426,35.09064],[126.928546,35.090665],[126.92857,35.090611],[126.928441,35.090583],[126.928426,35.09064]]]]}},{"type":"Feature","id":"0000193406891768325700000000","properties":{"id":"0000193406891768325700000000","pnu":"1221012500107010000","purpose":"기타"},"geometry":{"type":"MultiPolygon","coordinates":[[[[126.928444,35.090541],[126.928568,35.090545],[126.92857,35.090499],[126.928446,35.090495],[126.928444,35.090541]]]]}},{"type":"Feature","id":"0000193448541768886400000000","properties":{"id":"0000193448541768886400000000","pnu":"1221012500107070000","purpose":"기타"},"geometry":{"type":"MultiPolygon","coordinates":[[[[126.928994,35.090979],[126.928935,35.09098],[126.928935,35.091075],[126.92899,35.091072],[126.928994,35.090979]]]]}},{"type":"Feature","id":"0000193449591768505300000000","properties":{"id":"0000193449591768505300000000","pnu":"1221012500107030000","purpose":"기타"},"geometry":{"type":"MultiPolygon","coordinates":[[[[126.929041,35.090703],[126.929038,35.090656],[126.928909,35.090662],[126.928912,35.090708],[126.929041,35.090703]]]]}},{"type":"Feature","id":"1969193436291768623600000000","properties":{"id":"1969193436291768623600000000","pnu":"1221012500107040000","purpose":"기타","structure":"일반목구조"},"geometry":{"type":"MultiPolygon","coordinates":[[[[126.92884,35.090749],[126.928791,35.090764],[126.928818,35.090828],[126.928867,35.090814],[126.92884,35.090749]]]]}},{"type":"Feature","id":"1969193449561768624200000000","properties":{"id":"1969193449561768624200000000","pnu":"1221012500107040000","purpose":"단독주택","floors":1,"structure":"일반목구조"},"geometry":{"type":"MultiPolygon","coordinates":[[[[126.929033,35.090768],[126.928923,35.090767],[126.928916,35.090809],[126.929022,35.090814],[126.929033,35.090768]]]]}},{"type":"Feature","id":"1989193419001768305300000000","properties":{"id":"1989193419001768305300000000","pnu":"1221012500107010000","year":1989,"purpose":"단독주택","floors":1,"structure":"벽돌구조"},"geometry":{"type":"MultiPolygon","coordinates":[[[[126.928569,35.090531],[126.92871,35.090549],[126.928716,35.09049],[126.928696,35.090487],[126.928696,35.090477],[126.928644,35.09047],[126.928645,35.090454],[126.928583,35.090447],[126.928569,35.090531]]]]}},{"type":"Feature","id":"1989193428951768257400000000","properties":{"id":"1989193428951768257400000000","pnu":"1221012500107010000","purpose":"기타","structure":"벽돌구조"},"geometry":{"type":"MultiPolygon","coordinates":[[[[126.928723,35.090508],[126.928775,35.090511],[126.928779,35.090476],[126.92877,35.090406],[126.928718,35.090409],[126.928726,35.090473],[126.928723,35.090508]]]]}},{"type":"Feature","id":"1990193421361768911000000000","properties":{"id":"1990193421361768911000000000","pnu":"1221012500107080000","year":1990,"purpose":"단독주택","far":30.07,"floors":1,"structure":"벽돌구조"},"geometry":{"type":"MultiPolygon","coordinates":[[[[126.928639,35.09104],[126.928646,35.091064],[126.928691,35.091055],[126.928684,35.091031],[126.928639,35.09104]]]]}},{"type":"Feature","id":"1990193434861768884800000000","properties":{"id":"1990193434861768884800000000","pnu":"1221012500107080000","year":1990,"purpose":"단독주택","far":30.07,"floors":1,"structure":"벽돌구조"},"geometry":{"type":"MultiPolygon","coordinates":[[[[126.928907,35.090995],[126.928733,35.090976],[126.92872,35.091053],[126.928894,35.091072],[126.928907,35.090995]]]]}},{"type":"Feature","id":"1992193405621768543000000000","properties":{"id":"1992193405621768543000000000","pnu":"1221012500107230000","year":1992,"purpose":"단독주택","far":46.4,"floors":1,"structure":"벽돌구조"},"geometry":{"type":"MultiPolygon","coordinates":[[[[126.928419,35.090736],[126.928542,35.090764],[126.928566,35.090694],[126.928443,35.090669],[126.928419,35.090736]]]]}},{"type":"Feature","id":"1996193423501768470000000000","properties":{"id":"1996193423501768470000000000","pnu":"1221012500107020000","year":1996,"purpose":"단독주택","far":26.09,"floors":1,"structure":"벽돌구조"},"geometry":{"type":"MultiPolygon","coordinates":[[[[126.928769,35.090617],[126.928708,35.090598],[126.928698,35.090622],[126.928628,35.090605],[126.928606,35.090656],[126.928622,35.090662],[126.928616,35.090679],[126.928729,35.090706],[126.928743,35.090671],[126.928752,35.090672],[126.928769,35.090617]]]]}},{"type":"Feature","id":"2001193418331768579200000000","properties":{"id":"2001193418331768579200000000","pnu":"1221012500107220000","year":2001,"purpose":"단독주택","far":58.66,"floors":1,"structure":"벽돌구조"},"geometry":{"type":"MultiPolygon","coordinates":[[[[126.928596,35.090687],[126.928558,35.090758],[126.928674,35.090809],[126.928704,35.090764],[126.928678,35.090753],[126.928693,35.090729],[126.928596,35.090687]]]]}},{"type":"Feature","id":"2012193446271768386400000000","properties":{"id":"2012193446271768386400000000","pnu":"1221012500106990000","year":2012,"purpose":"단독주택","far":56.03,"floors":2,"structure":"일반목구조"},"geometry":{"type":"MultiPolygon","coordinates":[[[[126.928847,35.090624],[126.928902,35.090624],[126.928902,35.090591],[126.928975,35.090591],[126.928975,35.090582],[126.929008,35.090582],[126.929007,35.090523],[126.928991,35.090523],[126.928991,35.090532],[126.928942,35.090532],[126.928942,35.090557],[126.928926,35.090557],[126.928926,35.090578],[126.928888,35.090579],[126.928889,35.090591],[126.928847,35.090592],[126.928847,35.090624]]]]}}]}
