{"type":"FeatureCollection","features":[{"type":"Feature","id":"0000192787921782604400000000","properties":{"id":"0000192787921782604400000000","pnu":"1221012600201780002","purpose":"기타"},"geometry":{"type":"MultiPolygon","coordinates":[[[[126.921751,35.103388],[126.921734,35.103358],[126.921662,35.103384],[126.921679,35.103415],[126.921751,35.103388]]]]}},{"type":"Feature","id":"0000193168281784920100000000","properties":{"id":"0000193168281784920100000000","pnu":"1221012300104530000","purpose":"단독주택","far":29.54,"floors":1,"structure":"철근콘크리트구조"},"geometry":{"type":"MultiPolygon","coordinates":[[[[126.925833,35.10552],[126.925914,35.105524],[126.925914,35.105429],[126.925845,35.105425],[126.925833,35.10552]]]]}},{"type":"Feature","id":"0000193214871784569700000000","properties":{"id":"0000193214871784569700000000","pnu":"1221012300104580000","purpose":"단독주택","floors":1,"structure":"석구조"},"geometry":{"type":"MultiPolygon","coordinates":[[[[126.926445,35.105204],[126.926492,35.105163],[126.92643,35.105118],[126.926292,35.105138],[126.926308,35.105201],[126.926407,35.105184],[126.926445,35.105204]]]]}},{"type":"Feature","id":"0000193293191784443200000000","properties":{"id":"0000193293191784443200000000","pnu":"1221012300104660000","purpose":"기타"},"geometry":{"type":"MultiPolygon","coordinates":[[[[126.927226,35.10502],[126.927226,35.105075],[126.92727,35.105073],[126.927267,35.105019],[126.927226,35.10502]]]]}},{"type":"Feature","id":"0000193299241784503400000000","properties":{"id":"0000193299241784503400000000","pnu":"1221012300104660000","purpose":"단독주택"},"geometry":{"type":"MultiPolygon","coordinates":[[[[126.927367,35.105109],[126.927292,35.10506],[126.92726,35.105094],[126.927334,35.105142],[126.927367,35.105109]]]]}},{"type":"Feature","id":"0000193316711783678900000000","properties":{"id":"0000193316711783678900000000","pnu":"1221012300105160000","purpose":"기타","structure":"블록구조"},"geometry":{"type":"MultiPolygon","coordinates":[[[[126.927437,35.104351],[126.927474,35.104396],[126.927576,35.104356],[126.927559,35.104323],[126.92749,35.104349],[126.927474,35.104333],[126.927437,35.104351]]]]}},{"type":"Feature","id":"0000193324031783794200000000","properties":{"id":"0000193324031783794200000000","pnu":"1221012300105180000","purpose":"기타"},"geometry":{"type":"MultiPolygon","coordinates":[[[[126.927517,35.10444],[126.927599,35.104518],[126.927654,35.104485],[126.927574,35.104406],[126.927517,35.10444]]]]}},{"type":"Feature","id":"0000193334421783658500000000","properties":{"id":"0000193334421783658500000000","pnu":"1221012300105170000","purpose":"기타"},"geometry":{"type":"MultiPolygon","coordinates":[[[[126.927622,35.104371],[126.927705,35.104372],[126.927704,35.104384],[126.927779,35.104386],[126.927783,35.104343],[126.927762,35.104343],[126.927763,35.1043],[126.927622,35.104298],[126.927622,35.104371]]]]}},{"type":"Feature","id":"0000193334971784488000000000","properties":{"id":"0000193334971784488000000000","pnu":"1221012300104740000","purpose":"기타"},"geometry":{"type":"MultiPolygon","coordinates":[[[[126.927717,35.105146],[126.927747,35.105114],[126.927759,35.105078],[126.927677,35.105031],[126.927644,35.105069],[126.927693,35.105094],[126.92767,35.105121],[126.927717,35.105146]]]]}},{"type":"Feature","id":"1966193226001784886600000000","properties":{"id":"1966193226001784886600000000","pnu":"1221012300104370000","purpose":"단독주택"},"geometry":{"type":"MultiPolygon","coordinates":[[[[126.926555,35.105475],[126.926559,35.105423],[126.926465,35.105417],[126.92646,35.105469],[126.926555,35.105475]]]]}},{"type":"Feature","id":"1969193325651783913400000000","properties":{"id":"1969193325651783913400000000","pnu":"1221012300105180000","purpose":"단독주택"},"geometry":{"type":"MultiPolygon","coordinates":[[[[126.927653,35.104586],[126.92765,35.104548],[126.927554,35.104553],[126.927557,35.104591],[126.927653,35.104586]]]]}},{"type":"Feature","id":"1977193314631783565300000000","properties":{"id":"1977193314631783565300000000","pnu":"1221012300105160000","year":1977,"purpose":"단독주택","floors":1,"structure":"벽돌구조"},"geometry":{"type":"MultiPolygon","coordinates":[[[[126.927402,35.104257],[126.927494,35.104286],[126.927486,35.104307],[126.927521,35.10432],[126.927558,35.104244],[126.927429,35.104204],[126.927402,35.104257]]]]}},{"type":"Feature","id":"1979193268551784824500000000","properties":{"id":"1979193268551784824500000000","pnu":"1221012300104330000","year":1979,"purpose":"단독주택"},"geometry":{"type":"MultiPolygon","coordinates":[[[[126.927026,35.105437],[126.92705,35.10538],[126.926927,35.105344],[126.926903,35.105401],[126.927026,35.105437]]]]}},{"type":"Feature","id":"1984193233951784545300000000","properties":{"id":"1984193233951784545300000000","pnu":"1221012300104600000","year":1984,"purpose":"단독주택","far":11.29,"floors":1,"structure":"벽돌구조"},"geometry":{"type":"MultiPolygon","coordinates":[[[[126.926599,35.105077],[126.926532,35.10512],[126.926598,35.105198],[126.926663,35.105161],[126.926622,35.105115],[126.926627,35.105111],[126.926599,35.105077]]]]}},{"type":"Feature","id":"1984193339071783915700000000","properties":{"id":"1984193339071783915700000000","pnu":"1221012300105190000","year":1984,"purpose":"단독주택"},"geometry":{"type":"MultiPolygon","coordinates":[[[[126.927686,35.104583],[126.927757,35.104595],[126.927754,35.104603],[126.927794,35.104613],[126.927814,35.104555],[126.927694,35.104539],[126.927686,35.104583]]]]}},{"type":"Feature","id":"1984193339761783824500000000","properties":{"id":"1984193339761783824500000000","pnu":"1221012300105190000","year":1984,"purpose":"단독주택"},"geometry":{"type":"MultiPolygon","coordinates":[[[[126.92771,35.104536],[126.92781,35.104538],[126.927811,35.104454],[126.927756,35.104432],[126.927687,35.104474],[126.927712,35.104502],[126.92771,35.104536]]]]}},{"type":"Feature","id":"1986193194471784980400000000","properties":{"id":"1986193194471784980400000000","pnu":"1221012300104390000","year":1986,"purpose":"단독주택"},"geometry":{"type":"MultiPolygon","coordinates":[[[[126.926095,35.105542],[126.926208,35.105575],[126.926232,35.105521],[126.926122,35.105485],[126.926095,35.105542]]]]}},{"type":"Feature","id":"1990193209661784932600000000","properties":{"id":"1990193209661784932600000000","pnu":"1221012300104380000","year":1990,"purpose":"단독주택","far":29.18,"floors":1,"structure":"경량철골구조"},"geometry":{"type":"MultiPolygon","coordinates":[[[[126.926404,35.105519],[126.926395,35.105445],[126.926257,35.105456],[126.926266,35.10553],[126.926404,35.105519]]]]}},{"type":"Feature","id":"1990193275431784507500000000","properties":{"id":"1990193275431784507500000000","pnu":"1221012300104620000","year":1990,"purpose":"단독주택","far":19.45,"floors":1,"structure":"벽돌구조"},"geometry":{"type":"MultiPolygon","coordinates":[[[[126.927025,35.105167],[126.927124,35.105145],[126.927114,35.105106],[126.927097,35.105108],[126.927079,35.105058],[126.927064,35.105059],[126.927057,35.105039],[126.926989,35.105053],[126.927025,35.105167]]]]}},{"type":"Feature","id":"1993193323361784580000000000","properties":{"id":"1993193323361784580000000000","pnu":"1221012300104740000","year":1993,"purpose":"단독주택","far":30.92,"floors":1,"structure":"벽돌구조"},"geometry":{"type":"MultiPolygon","coordinates":[[[[126.927504,35.10522],[126.927636,35.105238],[126.927648,35.105183],[126.92763,35.10518],[126.927639,35.105131],[126.927623,35.105126],[126.927627,35.105111],[126.927536,35.105095],[126.927504,35.10522]]]]}},{"type":"Feature","id":"1994193274971784716400000000","properties":{"id":"1994193274971784716400000000","pnu":"1221012300104320000","year":1994,"purpose":"단독주택","far":48.31,"floors":1,"structure":"벽돌구조"},"geometry":{"type":"MultiPolygon","coordinates":[[[[126.927135,35.105293],[126.927087,35.105265],[126.92708,35.105273],[126.927029,35.10524],[126.927014,35.105252],[126.926996,35.105238],[126.926957,35.105279],[126.927076,35.105357],[126.927135,35.105293]]]]}},{"type":"Feature","id":"1994193296451784617500000000","properties":{"id":"1994193296451784617500000000","pnu":"1221012300104640000","year":1994,"purpose":"단독주택","far":58.15,"floors":1,"structure":"벽돌구조"},"geometry":{"type":"MultiPolygon","coordinates":[[[[126.927241,35.10515],[126.927227,35.1052],[126.927239,35.105246],[126.927306,35.105257],[126.92734,35.105212],[126.927348,35.105176],[126.927241,35.10515]]]]}},{"type":"Feature","id":"1996193327301784227900000000","properties":{"id":"1996193327301784227900000000","pnu":"1221012300104700000","year":1996,"purpose":"단독주택","far":33.3,"floors":1,"structure":"벽돌구조"},"geometry":{"type":"MultiPolygon","coordinates":[[[[126.92771,35.104876],[126.92763,35.104798],[126.927562,35.104784],[126.927551,35.104806],[126.927567,35.104814],[126.927547,35.104839],[126.927604,35.104909],[126.927611,35.104903],[126.927635,35.104925],[126.92771,35.104876]]]]}},{"type":"Feature","id":"1997193168361784725200000000","properties":{"id":"1997193168361784725200000000","pnu":"1221012300104520000","year":1997,"purpose":"단독주택","far":24.58,"floors":2,"structure":"벽돌구조"},"geometry":{"type":"MultiPolygon","coordinates":[[[[126.925834,35.105257],[126.925833,35.105338],[126.925843,35.105338],[126.925843,35.105348],[126.925899,35.105352],[126.925902,35.105337],[126.925909,35.105335],[126.925912,35.105301],[126.925932,35.1053],[126.925935,35.105261],[126.925834,35.105257]]]]}},{"type":"Feature","id":"1998193302061783741400000000","properties":{"id":"1998193302061783741400000000","pnu":"1221012300104890000","purpose":"기타","structure":"일반목구조"},"geometry":{"type":"MultiPolygon","coordinates":[[[[126.927381,35.104378],[126.927298,35.104388],[126.927309,35.104451],[126.927392,35.104441],[126.927381,35.104378]]]]}},{"type":"Feature","id":"1998193303191783646200000000","properties":{"id":"1998193303191783646200000000","pnu":"1221012300104890000","purpose":"기타","structure":"벽돌구조"},"geometry":{"type":"MultiPolygon","coordinates":[[[[126.927353,35.104285],[126.92731,35.104308],[126.927361,35.104372],[126.927405,35.104349],[126.927353,35.104285]]]]}},{"type":"Feature","id":"1998193305561783867400000000","properties":{"id":"1998193305561783867400000000","pnu":"1221012300104890000","year":1998,"purpose":"제2종 근린생활시설","far":24.3,"floors":1,"structure":"일반목구조"},"geometry":{"type":"MultiPolygon","coordinates":[[[[126.927316,35.104606],[126.927454,35.104602],[126.927454,35.104454],[126.92731,35.104452],[126.927316,35.104606]]]]}},{"type":"Feature","id":"1999193296881784319200000000","properties":{"id":"1999193296881784319200000000","pnu":"1221012300104670000","year":1999,"purpose":"기타","far":43.97,"floors":1,"structure":"철근콘크리트구조"},"geometry":{"type":"MultiPolygon","coordinates":[[[[126.927231,35.104997],[126.927387,35.104955],[126.927362,35.104894],[126.927315,35.104907],[126.927312,35.104898],[126.927297,35.104902],[126.927284,35.10487],[126.927226,35.104886],[126.927236,35.104912],[126.927204,35.104921],[126.927211,35.10494],[126.927209,35.104941],[126.927231,35.104997]]]]}},{"type":"Feature","id":"2000193259511784504000000000","properties":{"id":"2000193259511784504000000000","pnu":"1221012300104610000","year":2000,"purpose":"단독주택","far":16.22,"floors":1,"structure":"벽돌구조"},"geometry":{"type":"MultiPolygon","coordinates":[[[[126.926791,35.105081],[126.926878,35.105171],[126.926966,35.105114],[126.926929,35.105077],[126.926923,35.10508],[126.926881,35.10504],[126.926869,35.105048],[126.926857,35.10504],[126.926791,35.105081]]]]}},{"type":"Feature","id":"2001193289231784760900000000","properties":{"id":"2001193289231784760900000000","pnu":"1221012300104300000","year":2001,"purpose":"단독주택","far":33.51,"floors":1,"structure":"경량철골구조"},"geometry":{"type":"MultiPolygon","coordinates":[[[[126.927257,35.105322],[126.927178,35.105293],[126.92715,35.105344],[126.927229,35.105373],[126.927257,35.105322]]]]}},{"type":"Feature","id":"2001193317621784409900000000","properties":{"id":"2001193317621784409900000000","pnu":"1221012300104730000","year":2001,"purpose":"단독주택","far":28.13,"floors":1,"structure":"벽돌구조"},"geometry":{"type":"MultiPolygon","coordinates":[[[[126.927517,35.104948],[126.92743,35.104977],[126.927484,35.105061],[126.927496,35.105058],[126.927515,35.105088],[126.927602,35.105051],[126.927554,35.104985],[126.927547,35.104991],[126.927517,35.104948]]]]}},{"type":"Feature","id":"2006193351361783850300000000","properties":{"id":"2006193351361783850300000000","pnu":"1221012300105200000","year":2006,"purpose":"단독주택","far":39.85,"floors":1,"structure":"벽돌구조"},"geometry":{"type":"MultiPolygon","coordinates":[[[[126.927845,35.104452],[126.927835,35.104569],[126.927926,35.104574],[126.927936,35.104457],[126.927845,35.104452]]]]}},{"type":"Feature","id":"2011193271521784046900000000","properties":{"id":"2011193271521784046900000000","pnu":"1221012300104840000","year":2011,"purpose":"기타","far":1.84,"floors":1,"structure":"블록구조"},"geometry":{"type":"MultiPolygon","coordinates":[[[[126.927093,35.104667],[126.927061,35.104638],[126.927039,35.104654],[126.927015,35.104632],[126.926954,35.104676],[126.926963,35.104684],[126.926942,35.1047],[126.926952,35.104709],[126.926937,35.10472],[126.926974,35.104754],[126.927018,35.104723],[126.927024,35.104729],[126.927068,35.104697],[126.927061,35.104691],[126.927093,35.104667]]]]}},{"type":"Feature","id":"2012193249461784795400000000","properties":{"id":"2012193249461784795400000000","pnu":"1221012300104340000","year":2012,"purpose":"단독주택","far":48.04,"floors":2,"structure":"일반철골구조"},"geometry":{"type":"MultiPolygon","coordinates":[[[[126.926679,35.105407],[126.926849,35.105426],[126.926859,35.105362],[126.92685,35.105361],[126.926857,35.105322],[126.926685,35.105302],[126.926674,35.105369],[126.926685,35.105371],[126.926679,35.105407]]]]}}]}
