{"type":"FeatureCollection","features":[{"type":"Feature","id":"2002193456621759326800000000","properties":{"id":"2002193456621759326800000000","pnu":"1221012500106490001","year":2002,"purpose":"제2종 근린생활시설"},"geometry":{"type":"MultiPolygon","coordinates":[[[[126.92919,35.082344],[126.928994,35.082291],[126.928974,35.082291],[126.928973,35.082453],[126.928994,35.082458],[126.928977,35.082494],[126.92907,35.082559],[126.92919,35.082344]]]]}},{"type":"Feature","id":"2013194213501754690900000000","properties":{"id":"2013194213501754690900000000","pnu":"1221012500101350001","year":2013,"purpose":"제2종 근린생활시설","far":69.9,"floors":2,"structure":"철근콘크리트구조"},"geometry":{"type":"MultiPolygon","coordinates":[[[[126.937246,35.078228],[126.937347,35.078264],[126.937343,35.078267],[126.937371,35.078279],[126.937373,35.078274],[126.937468,35.078308],[126.937488,35.078268],[126.937423,35.078244],[126.937431,35.07823],[126.937408,35.078218],[126.93741,35.078212],[126.937382,35.078202],[126.937382,35.078196],[126.937285,35.078163],[126.937265,35.078202],[126.937259,35.078202],[126.937246,35.078228]]]]}}]}
