{"type":"FeatureCollection","features":[{"type":"Feature","id":"0000193455121768443300000000","properties":{"id":"0000193455121768443300000000","pnu":"1221012500107030000","purpose":"기타"},"geometry":{"type":"MultiPolygon","coordinates":[[[[126.929022,35.0906],[126.929012,35.090646],[126.929052,35.09065],[126.929059,35.090608],[126.929022,35.0906]]]]}},{"type":"Feature","id":"0000193461101768487000000000","properties":{"id":"0000193461101768487000000000","pnu":"1221012500106950000","purpose":"기타"},"geometry":{"type":"MultiPolygon","coordinates":[[[[126.929062,35.090702],[126.929116,35.090708],[126.929148,35.090639],[126.92908,35.090622],[126.929062,35.090702]]]]}},{"type":"Feature","id":"0000193462201768700500000000","properties":{"id":"0000193462201768700500000000","pnu":"1221012500106950000","purpose":"기타"},"geometry":{"type":"MultiPolygon","coordinates":[[[[126.929172,35.090834],[126.92905,35.090843],[126.929054,35.090883],[126.929176,35.090873],[126.929172,35.090834]]]]}},{"type":"Feature","id":"0000193469471768509300000000","properties":{"id":"0000193469471768509300000000","pnu":"1221012500106950000","purpose":"기타"},"geometry":{"type":"MultiPolygon","coordinates":[[[[126.929158,35.090701],[126.929219,35.090709],[126.929228,35.090673],[126.929168,35.090661],[126.929158,35.090701]]]]}},{"type":"Feature","id":"0000193471271768123200000000","properties":{"id":"0000193471271768123200000000","pnu":"1221012500106870000","purpose":"기타"},"geometry":{"type":"MultiPolygon","coordinates":[[[[126.929193,35.090285],[126.929176,35.090388],[126.929234,35.090388],[126.929251,35.090291],[126.929193,35.090285]]]]}},{"type":"Feature","id":"0000193481491768033300000000","properties":{"id":"0000193481491768033300000000","pnu":"1221012500106870000","purpose":"기타"},"geometry":{"type":"MultiPolygon","coordinates":[[[[126.92935,35.090234],[126.929315,35.090228],[126.929301,35.090279],[126.929335,35.090286],[126.92935,35.090234]]]]}},{"type":"Feature","id":"0000193487961768325200000000","properties":{"id":"0000193487961768325200000000","pnu":"1221012500106900000","purpose":"기타"},"geometry":{"type":"MultiPolygon","coordinates":[[[[126.929478,35.090575],[126.929477,35.09047],[126.929305,35.090472],[126.929305,35.090542],[126.929328,35.090542],[126.929328,35.090559],[126.929358,35.090559],[126.929359,35.090575],[126.929478,35.090575]]]]}},{"type":"Feature","id":"0000193499121768543200000000","properties":{"id":"0000193499121768543200000000","pnu":"1221012500106910000","purpose":"기타"},"geometry":{"type":"MultiPolygon","coordinates":[[[[126.929483,35.090712],[126.929493,35.090737],[126.929553,35.090721],[126.929544,35.090696],[126.929483,35.090712]]]]}},{"type":"Feature","id":"0000193510601768179000000000","properties":{"id":"0000193510601768179000000000","pnu":"1221012500104600000","purpose":"기타"},"geometry":{"type":"MultiPolygon","coordinates":[[[[126.929611,35.090416],[126.929687,35.090408],[126.929678,35.090361],[126.929602,35.09037],[126.929611,35.090416]]]]}},{"type":"Feature","id":"0000193510791768119800000000","properties":{"id":"0000193510791768119800000000","pnu":"1221012500104600000","purpose":"기타"},"geometry":{"type":"MultiPolygon","coordinates":[[[[126.929601,35.090315],[126.9296,35.09036],[126.929694,35.090354],[126.929691,35.09031],[126.929601,35.090315]]]]}},{"type":"Feature","id":"0000193529291767724800000000","properties":{"id":"0000193529291767724800000000","pnu":"1221012500108820000","purpose":"기타"},"geometry":{"type":"MultiPolygon","coordinates":[[[[126.929849,35.090017],[126.92989,35.089964],[126.929852,35.08994],[126.929808,35.089996],[126.929849,35.090017]]]]}},{"type":"Feature","id":"0000193540191768092200000000","properties":{"id":"0000193540191768092200000000","pnu":"1221012500104680000","purpose":"단독주택","floors":1,"structure":"일반목구조"},"geometry":{"type":"MultiPolygon","coordinates":[[[[126.929941,35.090296],[126.929947,35.090326],[126.929995,35.090326],[126.929993,35.090296],[126.929941,35.090296]]]]}},{"type":"Feature","id":"0000193545911768655600000000","properties":{"id":"0000193545911768655600000000","pnu":"1221012500104550000","purpose":"기타"},"geometry":{"type":"MultiPolygon","coordinates":[[[[126.930084,35.090788],[126.929973,35.090796],[126.929979,35.090849],[126.93009,35.09084],[126.930084,35.090788]]]]}},{"type":"Feature","id":"0000193559381768035900000000","properties":{"id":"0000193559381768035900000000","pnu":"1221012500104670000","purpose":"기타"},"geometry":{"type":"MultiPolygon","coordinates":[[[[126.930128,35.09028],[126.930148,35.090292],[126.930152,35.090289],[126.930175,35.090301],[126.93023,35.090242],[126.930188,35.090217],[126.930128,35.09028]]]]}},{"type":"Feature","id":"0000193559451768120700000000","properties":{"id":"0000193559451768120700000000","pnu":"1221012500104670000","purpose":"기타"},"geometry":{"type":"MultiPolygon","coordinates":[[[[126.930128,35.090311],[126.930194,35.090383],[126.930234,35.090362],[126.930187,35.090309],[126.930152,35.09029],[126.930128,35.090311]]]]}},{"type":"Feature","id":"0000193563561768053000000000","properties":{"id":"0000193563561768053000000000","pnu":"1221012500104670000","purpose":"기타"},"geometry":{"type":"MultiPolygon","coordinates":[[[[126.930213,35.090306],[126.93026,35.090258],[126.930238,35.090244],[126.930191,35.090292],[126.930213,35.090306]]]]}},{"type":"Feature","id":"0000193574111767887600000000","properties":{"id":"0000193574111767887600000000","pnu":"1221012500108820000","purpose":"기타"},"geometry":{"type":"MultiPolygon","coordinates":[[[[126.93031,35.090095],[126.930292,35.09013],[126.930372,35.090158],[126.93039,35.090122],[126.93031,35.090095]]]]}},{"type":"Feature","id":"0000193578811767372000000000","properties":{"id":"0000193578811767372000000000","pnu":"1221012500104990000","purpose":"기타"},"geometry":{"type":"MultiPolygon","coordinates":[[[[126.930313,35.089653],[126.930339,35.089706],[126.93037,35.089696],[126.930376,35.089707],[126.930471,35.089672],[126.930438,35.08961],[126.930313,35.089653]]]]}},{"type":"Feature","id":"0000193579741767753600000000","properties":{"id":"0000193579741767753600000000","pnu":"1221012500104750000","purpose":"기타"},"geometry":{"type":"MultiPolygon","coordinates":[[[[126.930379,35.09005],[126.930458,35.090004],[126.930428,35.089961],[126.930347,35.090007],[126.930379,35.09005]]]]}},{"type":"Feature","id":"0000193581191768192300000000","properties":{"id":"0000193581191768192300000000","pnu":"1221012500104640000","purpose":"단독주택"},"geometry":{"type":"MultiPolygon","coordinates":[[[[126.930358,35.090362],[126.930425,35.090464],[126.930479,35.090439],[126.930413,35.090338],[126.930358,35.090362]]]]}},{"type":"Feature","id":"0000193581341768463900000000","properties":{"id":"0000193581341768463900000000","pnu":"1221012500108820000","purpose":"기타"},"geometry":{"type":"MultiPolygon","coordinates":[[[[126.930395,35.090671],[126.930459,35.090648],[126.930445,35.090621],[126.93038,35.090644],[126.930395,35.090671]]]]}},{"type":"Feature","id":"0000193606431767222600000000","properties":{"id":"0000193606431767222600000000","pnu":"1221012500108820000","purpose":"기타"},"geometry":{"type":"MultiPolygon","coordinates":[[[[126.930654,35.089528],[126.930667,35.089552],[126.930739,35.089526],[126.930725,35.089502],[126.930654,35.089528]]]]}},{"type":"Feature","id":"0000193621251767719700000000","properties":{"id":"0000193621251767719700000000","pnu":"1221012500104780000","purpose":"기타"},"geometry":{"type":"MultiPolygon","coordinates":[[[[126.930814,35.089951],[126.930817,35.089996],[126.930899,35.090002],[126.9309,35.089952],[126.930814,35.089951]]]]}},{"type":"Feature","id":"0000193623081767321600000000","properties":{"id":"0000193623081767321600000000","pnu":"1221012500108820000","purpose":"기타"},"geometry":{"type":"MultiPolygon","coordinates":[[[[126.9309,35.089645],[126.930904,35.08959],[126.930856,35.089588],[126.930852,35.089636],[126.930864,35.089636],[126.930864,35.089646],[126.9309,35.089645]]]]}},{"type":"Feature","id":"0000193628451767563000000000","properties":{"id":"0000193628451767563000000000","pnu":"1221012500104880000","purpose":"기타"},"geometry":{"type":"MultiPolygon","coordinates":[[[[126.930952,35.089799],[126.930906,35.089807],[126.930923,35.089867],[126.930967,35.089864],[126.930952,35.089799]]]]}},{"type":"Feature","id":"0000193638761767556600000000","properties":{"id":"0000193638761767556600000000","pnu":"1221012500104870000","purpose":"단독주택","floors":1,"structure":"일반목구조"},"geometry":{"type":"MultiPolygon","coordinates":[[[[126.931113,35.089792],[126.930977,35.089811],[126.930987,35.089864],[126.931124,35.089845],[126.931113,35.089792]]]]}},{"type":"Feature","id":"0000193646941767143500000000","properties":{"id":"0000193646941767143500000000","pnu":"1221012500108820000","purpose":"기타"},"geometry":{"type":"MultiPolygon","coordinates":[[[[126.931089,35.089472],[126.931187,35.08948],[126.931192,35.08944],[126.931094,35.089431],[126.931089,35.089472]]]]}},{"type":"Feature","id":"0000193676541767407200000000","properties":{"id":"0000193676541767407200000000","pnu":"1221012500104830000","purpose":"기타"},"geometry":{"type":"MultiPolygon","coordinates":[[[[126.931424,35.08968],[126.931453,35.089728],[126.931504,35.089712],[126.931477,35.089657],[126.931424,35.08968]]]]}},{"type":"Feature","id":"0000193697931767188100000000","properties":{"id":"0000193697931767188100000000","pnu":"1221012500108610000","purpose":"기타"},"geometry":{"type":"MultiPolygon","coordinates":[[[[126.931737,35.089459],[126.931641,35.089501],[126.931662,35.089534],[126.931758,35.089492],[126.931737,35.089459]]]]}},{"type":"Feature","id":"0000193703591767079100000000","properties":{"id":"0000193703591767079100000000","pnu":"1221012500105460000","purpose":"기타"},"geometry":{"type":"MultiPolygon","coordinates":[[[[126.931713,35.089452],[126.931822,35.089391],[126.931819,35.089362],[126.931721,35.089376],[126.931713,35.089452]]]]}},{"type":"Feature","id":"0000193708891766997400000000","properties":{"id":"0000193708891766997400000000","pnu":"1221012500105540000","purpose":"기타"},"geometry":{"type":"MultiPolygon","coordinates":[[[[126.931854,35.089339],[126.931836,35.089296],[126.931786,35.08931],[126.931804,35.089354],[126.931854,35.089339]]]]}},{"type":"Feature","id":"0000193711101767144200000000","properties":{"id":"0000193711101767144200000000","pnu":"1221012500105460000","purpose":"기타"},"geometry":{"type":"MultiPolygon","coordinates":[[[[126.931869,35.089407],[126.931781,35.089473],[126.931819,35.089507],[126.931907,35.089442],[126.931869,35.089407]]]]}},{"type":"Feature","id":"0000193728911767005800000000","properties":{"id":"0000193728911767005800000000","pnu":"1221012500105530001","purpose":"기타"},"geometry":{"type":"MultiPolygon","coordinates":[[[[126.932046,35.089287],[126.93199,35.089352],[126.932033,35.089377],[126.932089,35.089313],[126.932046,35.089287]]]]}},{"type":"Feature","id":"0000193734981775149400000000","properties":{"id":"0000193734981775149400000000","pnu":"1221012500104100000","purpose":"기타"},"geometry":{"type":"MultiPolygon","coordinates":[[[[126.932171,35.096685],[126.932065,35.09662],[126.932028,35.096661],[126.932135,35.096726],[126.932171,35.096685]]]]}},{"type":"Feature","id":"0000194336041770122200000000","properties":{"id":"0000194336041770122200000000","pnu":"1221012500102410000","purpose":"기타"},"geometry":{"type":"MultiPolygon","coordinates":[[[[126.938662,35.092122],[126.938654,35.092149],[126.938728,35.092167],[126.938739,35.092142],[126.938662,35.092122]]]]}},{"type":"Feature","id":"0000194345221775907700000000","properties":{"id":"0000194345221775907700000000","pnu":"1221012500108690000","purpose":"기타"},"geometry":{"type":"MultiPolygon","coordinates":[[[[126.938828,35.097293],[126.938749,35.097296],[126.938755,35.097427],[126.938835,35.097424],[126.938828,35.097293]]]]}},{"type":"Feature","id":"0000194348381770485600000000","properties":{"id":"0000194348381770485600000000","pnu":"1221012500102460000","purpose":"기타"},"geometry":{"type":"MultiPolygon","coordinates":[[[[126.938794,35.092486],[126.938851,35.0925],[126.938869,35.09246],[126.938805,35.092446],[126.938794,35.092486]]]]}},{"type":"Feature","id":"0000194350961768972000000000","properties":{"id":"0000194350961768972000000000","pnu":"1221012500102320000","purpose":"기타"},"geometry":{"type":"MultiPolygon","coordinates":[[[[126.938869,35.091171],[126.938911,35.091062],[126.938851,35.091045],[126.938808,35.091157],[126.938869,35.091171]]]]}},{"type":"Feature","id":"0000194351061774667900000000","properties":{"id":"0000194351061774667900000000","pnu":"1221012500103270000","purpose":"기타"},"geometry":{"type":"MultiPolygon","coordinates":[[[[126.938821,35.096212],[126.938805,35.096241],[126.938892,35.096273],[126.938908,35.096244],[126.938821,35.096212]]]]}},{"type":"Feature","id":"0000194353401769370400000000","properties":{"id":"0000194353401769370400000000","pnu":"1221012500102340000","purpose":"기타"},"geometry":{"type":"MultiPolygon","coordinates":[[[[126.938898,35.091518],[126.938941,35.091497],[126.938871,35.091416],[126.938833,35.091437],[126.938898,35.091518]]]]}},{"type":"Feature","id":"0000194358691774537100000000","properties":{"id":"0000194358691774537100000000","pnu":"1221012500108550000","purpose":"기타"},"geometry":{"type":"MultiPolygon","coordinates":[[[[126.938924,35.096073],[126.938882,35.096147],[126.938958,35.096176],[126.938999,35.096102],[126.938924,35.096073]]]]}},{"type":"Feature","id":"0000194359721774348200000000","properties":{"id":"0000194359721774348200000000","pnu":"1221012500103230003","purpose":"기타"},"geometry":{"type":"MultiPolygon","coordinates":[[[[126.938918,35.096016],[126.938991,35.096013],[126.938991,35.095895],[126.938908,35.095898],[126.938918,35.096016]]]]}},{"type":"Feature","id":"0000194362801769776400000000","properties":{"id":"0000194362801769776400000000","pnu":"1221012500102400000","purpose":"기타"},"geometry":{"type":"MultiPolygon","coordinates":[[[[126.938966,35.091815],[126.938963,35.091847],[126.939009,35.091855],[126.939016,35.091818],[126.938966,35.091815]]]]}},{"type":"Feature","id":"1927193558011767527400000000","properties":{"id":"1927193558011767527400000000","pnu":"1221012500104980000","year":1927,"purpose":"단독주택"},"geometry":{"type":"MultiPolygon","coordinates":[[[[126.930125,35.089804],[126.930148,35.08983],[126.930208,35.089794],[126.930189,35.089777],[126.930167,35.089787],[126.930163,35.089781],[126.930125,35.089804]]]]}},{"type":"Feature","id":"1927193562561767586900000000","properties":{"id":"1927193562561767586900000000","pnu":"1221012500104980000","year":1927,"purpose":"단독주택"},"geometry":{"type":"MultiPolygon","coordinates":[[[[126.930274,35.089843],[126.930247,35.089806],[126.930156,35.089869],[126.930179,35.089905],[126.930274,35.089843]]]]}},{"type":"Feature","id":"1961194352761776059400000000","properties":{"id":"1961194352761776059400000000","pnu":"1221012500103320000","purpose":"기타","structure":"블록구조"},"geometry":{"type":"MultiPolygon","coordinates":[[[[126.938918,35.097556],[126.938911,35.097435],[126.938831,35.097438],[126.938838,35.097559],[126.938918,35.097556]]]]}},{"type":"Feature","id":"1964193601211767452100000000","properties":{"id":"1964193601211767452100000000","pnu":"1221012500104920000","purpose":"단독주택","floors":1,"structure":"일반목구조"},"geometry":{"type":"MultiPolygon","coordinates":[[[[126.930582,35.08972],[126.930655,35.089778],[126.93069,35.089752],[126.930634,35.08969],[126.930582,35.08972]]]]}},{"type":"Feature","id":"1964193607111767349700000000","properties":{"id":"1964193607111767349700000000","pnu":"1221012500104920000","purpose":"기타","structure":"일반목구조"},"geometry":{"type":"MultiPolygon","coordinates":[[[[126.930703,35.089646],[126.930704,35.089646],[126.930705,35.089646],[126.930706,35.089645],[126.930707,35.089645],[126.930708,35.089644],[126.930708,35.089644],[126.930709,35.089643],[126.930709,35.089642],[126.930709,35.089642],[126.930709,35.089641],[126.930709,35.08964],[126.930708,35.089639],[126.930708,35.089639],[126.930707,35.089638],[126.930706,35.089638],[126.930705,35.089637],[126.930704,35.089637],[126.930703,35.089637],[126.930702,35.089637],[126.930702,35.089637],[126.930701,35.089638],[126.9307,35.089638],[126.930699,35.089639],[126.930699,35.089639],[126.930698,35.08964],[126.930698,35.089641],[126.930698,35.089642],[126.930698,35.089642],[126.930698,35.089643],[126.930699,35.089644],[126.930699,35.089644],[126.9307,35.089645],[126.930701,35.089645],[126.930702,35.089646],[126.930702,35.089646],[126.930703,35.089646]]]]}},{"type":"Feature","id":"1964194331241769562500000000","properties":{"id":"1964194331241769562500000000","pnu":"1221012500102380000","year":1964,"purpose":"단독주택"},"geometry":{"type":"MultiPolygon","coordinates":[[[[126.938653,35.091672],[126.938661,35.09161],[126.938634,35.091608],[126.938624,35.091669],[126.938653,35.091672]]]]}},{"type":"Feature","id":"1964194336561769684300000000","properties":{"id":"1964194336561769684300000000","pnu":"1221012500102380000","year":1964,"purpose":"단독주택"},"geometry":{"type":"MultiPolygon","coordinates":[[[[126.938771,35.091789],[126.938784,35.091732],[126.938631,35.09171],[126.93862,35.091769],[126.938771,35.091789]]]]}},{"type":"Feature","id":"1964194338641769514300000000","properties":{"id":"1964194338641769514300000000","pnu":"1221012500102380000","year":1964,"purpose":"단독주택"},"geometry":{"type":"MultiPolygon","coordinates":[[[[126.938753,35.09168],[126.938777,35.091519],[126.938703,35.091513],[126.938664,35.091666],[126.938753,35.09168]]]]}},{"type":"Feature","id":"1966193589851768342100000000","properties":{"id":"1966193589851768342100000000","pnu":"1221012500104520000","year":1966,"purpose":"단독주택"},"geometry":{"type":"MultiPolygon","coordinates":[[[[126.930479,35.09059],[126.930592,35.090531],[126.930551,35.090482],[126.930433,35.090541],[126.930479,35.09059]]]]}},{"type":"Feature","id":"1966193593281768417800000000","properties":{"id":"1966193593281768417800000000","pnu":"1221012500104520000","year":1966,"purpose":"단독주택"},"geometry":{"type":"MultiPolygon","coordinates":[[[[126.930524,35.09065],[126.93061,35.090596],[126.930576,35.090559],[126.930492,35.090612],[126.930524,35.09065]]]]}},{"type":"Feature","id":"1966193622611767645900000000","properties":{"id":"1966193622611767645900000000","pnu":"1221012500104880000","purpose":"단독주택"},"geometry":{"type":"MultiPolygon","coordinates":[[[[126.930799,35.089874],[126.930803,35.089948],[126.930947,35.089943],[126.930944,35.089869],[126.930799,35.089874]]]]}},{"type":"Feature","id":"1969193457801768145200000000","properties":{"id":"1969193457801768145200000000","pnu":"1221012500106870000","purpose":"단독주택","floors":1,"structure":"일반목구조"},"geometry":{"type":"MultiPolygon","coordinates":[[[[126.929036,35.090406],[126.929105,35.090401],[126.9291,35.090312],[126.929022,35.090315],[126.929036,35.090406]]]]}},{"type":"Feature","id":"1969193463571768816500000000","properties":{"id":"1969193463571768816500000000","pnu":"1221012500106940000","purpose":"단독주택","floors":1,"structure":"일반목구조"},"geometry":{"type":"MultiPolygon","coordinates":[[[[126.929188,35.090931],[126.929059,35.090949],[126.929069,35.090995],[126.929197,35.090976],[126.929188,35.090931]]]]}},{"type":"Feature","id":"1969193471511768199900000000","properties":{"id":"1969193471511768199900000000","pnu":"1221012500106870000","purpose":"기타","structure":"일반목구조"},"geometry":{"type":"MultiPolygon","coordinates":[[[[126.929261,35.090388],[126.929168,35.090396],[126.929171,35.090426],[126.929264,35.090418],[126.929261,35.090388]]]]}},{"type":"Feature","id":"1969193485321768704100000000","properties":{"id":"1969193485321768704100000000","pnu":"1221012500106930000","purpose":"단독주택","floors":1,"structure":"일반목구조"},"geometry":{"type":"MultiPolygon","coordinates":[[[[126.929425,35.090827],[126.929302,35.090837],[126.929309,35.090896],[126.929432,35.090886],[126.929425,35.090827]]]]}},{"type":"Feature","id":"1969193496201768656700000000","properties":{"id":"1969193496201768656700000000","pnu":"1221012500106930000","purpose":"기타","structure":"일반목구조"},"geometry":{"type":"MultiPolygon","coordinates":[[[[126.929539,35.090826],[126.929521,35.090786],[126.929434,35.090812],[126.929451,35.090852],[126.929539,35.090826]]]]}},{"type":"Feature","id":"1969193529721768380200000000","properties":{"id":"1969193529721768380200000000","pnu":"1221012500104620000","purpose":"단독주택","structure":"일반목구조"},"geometry":{"type":"MultiPolygon","coordinates":[[[[126.929829,35.090595],[126.929881,35.090593],[126.929879,35.090545],[126.929827,35.090547],[126.929829,35.090595]]]]}},{"type":"Feature","id":"1969193531131768516900000000","properties":{"id":"1969193531131768516900000000","pnu":"1221012500104570000","purpose":"단독주택"},"geometry":{"type":"MultiPolygon","coordinates":[[[[126.929788,35.090677],[126.929793,35.090721],[126.92995,35.09071],[126.929945,35.090665],[126.929788,35.090677]]]]}},{"type":"Feature","id":"1969193531761768658700000000","properties":{"id":"1969193531761768658700000000","pnu":"1221012500104570000","purpose":"단독주택"},"geometry":{"type":"MultiPolygon","coordinates":[[[[126.929802,35.090782],[126.929796,35.090851],[126.929951,35.09086],[126.929957,35.090791],[126.929802,35.090782]]]]}},{"type":"Feature","id":"1969193535621768135800000000","properties":{"id":"1969193535621768135800000000","pnu":"1221012500104680000","year":1969,"purpose":"단독주택"},"geometry":{"type":"MultiPolygon","coordinates":[[[[126.929938,35.090291],[126.929873,35.090299],[126.929909,35.090411],[126.929957,35.090411],[126.929938,35.090291]]]]}},{"type":"Feature","id":"1969193542511768413700000000","properties":{"id":"1969193542511768413700000000","pnu":"1221012500104620000","purpose":"단독주택","floors":1,"structure":"일반목구조"},"geometry":{"type":"MultiPolygon","coordinates":[[[[126.929911,35.09063],[126.930076,35.090633],[126.930077,35.09057],[126.929912,35.090567],[126.929911,35.09063]]]]}},{"type":"Feature","id":"1969193551081768197600000000","properties":{"id":"1969193551081768197600000000","pnu":"1221012500104680000","year":1969,"purpose":"단독주택"},"geometry":{"type":"MultiPolygon","coordinates":[[[[126.930019,35.090399],[126.930068,35.090455],[126.930157,35.0904],[126.930115,35.090359],[126.93007,35.090387],[126.930063,35.09038],[126.930019,35.090399]]]]}},{"type":"Feature","id":"1969193570251768133500000000","properties":{"id":"1969193570251768133500000000","pnu":"1221012500104670000","purpose":"단독주택"},"geometry":{"type":"MultiPolygon","coordinates":[[[[126.930376,35.090313],[126.930323,35.090278],[126.930221,35.090383],[126.930274,35.090418],[126.930376,35.090313]]]]}},{"type":"Feature","id":"1969193572361767474100000000","properties":{"id":"1969193572361767474100000000","pnu":"1221012500104990000","year":1969,"purpose":"기타"},"geometry":{"type":"MultiPolygon","coordinates":[[[[126.930402,35.089766],[126.930371,35.0897],[126.930243,35.089741],[126.930274,35.089807],[126.930402,35.089766]]]]}},{"type":"Feature","id":"1969193574591767535400000000","properties":{"id":"1969193574591767535400000000","pnu":"1221012500104950000","purpose":"단독주택","structure":"일반목구조"},"geometry":{"type":"MultiPolygon","coordinates":[[[[126.930293,35.08984],[126.930409,35.089822],[126.930394,35.08977],[126.930276,35.089807],[126.930293,35.08984]]]]}},{"type":"Feature","id":"1969193576361768561800000000","properties":{"id":"1969193576361768561800000000","pnu":"1221012500104530000","purpose":"단독주택"},"geometry":{"type":"MultiPolygon","coordinates":[[[[126.930307,35.09073],[126.930328,35.090771],[126.930424,35.090738],[126.930402,35.090697],[126.930307,35.09073]]]]}},{"type":"Feature","id":"1969193577311767634700000000","properties":{"id":"1969193577311767634700000000","pnu":"1221012500104950000","purpose":"단독주택","floors":1,"structure":"블록구조"},"geometry":{"type":"MultiPolygon","coordinates":[[[[126.930445,35.089918],[126.930415,35.08985],[126.930309,35.089882],[126.930332,35.089944],[126.930445,35.089918]]]]}},{"type":"Feature","id":"1969193580141767923600000000","properties":{"id":"1969193580141767923600000000","pnu":"1221012500104660000","year":1969,"purpose":"단독주택"},"geometry":{"type":"MultiPolygon","coordinates":[[[[126.930364,35.090172],[126.930429,35.090187],[126.930447,35.090143],[126.930389,35.090131],[126.930364,35.090172]]]]}},{"type":"Feature","id":"1969193585511767853100000000","properties":{"id":"1969193585511767853100000000","pnu":"1221012500104750000","purpose":"기타","structure":"일반목구조"},"geometry":{"type":"MultiPolygon","coordinates":[[[[126.930489,35.09007],[126.930439,35.090087],[126.930444,35.090096],[126.930426,35.090103],[126.930434,35.090117],[126.930449,35.090112],[126.930451,35.090117],[126.930504,35.090098],[126.930489,35.09007]]]]}},{"type":"Feature","id":"1969193586201767729900000000","properties":{"id":"1969193586201767729900000000","pnu":"1221012500104750000","purpose":"기타","structure":"일반목구조"},"geometry":{"type":"MultiPolygon","coordinates":[[[[126.930486,35.089963],[126.930446,35.089982],[126.930462,35.090005],[126.930502,35.089987],[126.930486,35.089963]]]]}},{"type":"Feature","id":"1969193593211768147600000000","properties":{"id":"1969193593211768147600000000","pnu":"1221012500104650000","purpose":"단독주택","floors":1,"structure":"일반목구조"},"geometry":{"type":"MultiPolygon","coordinates":[[[[126.930616,35.090309],[126.930541,35.090286],[126.930485,35.090413],[126.93056,35.090435],[126.930616,35.090309]]]]}},{"type":"Feature","id":"1969193594041767918700000000","properties":{"id":"1969193594041767918700000000","pnu":"1221012500104760000","year":1969,"purpose":"단독주택"},"geometry":{"type":"MultiPolygon","coordinates":[[[[126.930586,35.090158],[126.930568,35.090133],[126.930533,35.090151],[126.930552,35.090175],[126.930586,35.090158]]]]}},{"type":"Feature","id":"1969193595201767783600000000","properties":{"id":"1969193595201767783600000000","pnu":"1221012500104750000","purpose":"단독주택","floors":1,"structure":"일반목구조"},"geometry":{"type":"MultiPolygon","coordinates":[[[[126.930538,35.090091],[126.930656,35.090027],[126.930615,35.089978],[126.930543,35.090016],[126.930529,35.090003],[126.930493,35.090024],[126.930538,35.090091]]]]}},{"type":"Feature","id":"1969193595231767512200000000","properties":{"id":"1969193595231767512200000000","pnu":"1221012500104930000","purpose":"기타","structure":"일반목구조"},"geometry":{"type":"MultiPolygon","coordinates":[[[[126.930578,35.089865],[126.930628,35.089851],[126.930568,35.089711],[126.930518,35.089725],[126.930578,35.089865]]]]}},{"type":"Feature","id":"1969193605721767888700000000","properties":{"id":"1969193605721767888700000000","pnu":"1221012500104760000","year":1969,"purpose":"단독주택"},"geometry":{"type":"MultiPolygon","coordinates":[[[[126.930756,35.090117],[126.930724,35.090072],[126.930615,35.090144],[126.930656,35.090179],[126.930756,35.090117]]]]}},{"type":"Feature","id":"1969193607671767621300000000","properties":{"id":"1969193607671767621300000000","pnu":"1221012500104930000","purpose":"단독주택","floors":1,"structure":"일반목구조"},"geometry":{"type":"MultiPolygon","coordinates":[[[[126.930638,35.089866],[126.930649,35.089924],[126.930781,35.089907],[126.93077,35.089849],[126.930638,35.089866]]]]}},{"type":"Feature","id":"1969193609831767084100000000","properties":{"id":"1969193609831767084100000000","pnu":"1221012500105030000","purpose":"단독주택","floors":1,"structure":"일반목구조"},"geometry":{"type":"MultiPolygon","coordinates":[[[[126.930736,35.089352],[126.930684,35.089374],[126.930731,35.089452],[126.930783,35.08943],[126.930736,35.089352]]]]}},{"type":"Feature","id":"1969193610481767510000000000","properties":{"id":"1969193610481767510000000000","pnu":"1221012500104930000","purpose":"기타","structure":"블록구조"},"geometry":{"type":"MultiPolygon","coordinates":[[[[126.930723,35.089809],[126.930769,35.089801],[126.930757,35.089764],[126.930713,35.08977],[126.930723,35.089809]]]]}},{"type":"Feature","id":"1969193615631767382400000000","properties":{"id":"1969193615631767382400000000","pnu":"1221012500104910000","purpose":"단독주택","floors":1,"structure":"일반목구조"},"geometry":{"type":"MultiPolygon","coordinates":[[[[126.930725,35.089649],[126.930736,35.089701],[126.930863,35.089696],[126.930861,35.08964],[126.930725,35.089649]]]]}},{"type":"Feature","id":"1969193633401767697500000000","properties":{"id":"1969193633401767697500000000","pnu":"1221012500104790000","purpose":"기타","structure":"일반목구조"},"geometry":{"type":"MultiPolygon","coordinates":[[[[126.930979,35.089915],[126.930956,35.089985],[126.931002,35.089999],[126.931028,35.089921],[126.930979,35.089915]]]]}},{"type":"Feature","id":"1969193636591767445900000000","properties":{"id":"1969193636591767445900000000","pnu":"1221012500104870000","purpose":"기타","structure":"일반목구조"},"geometry":{"type":"MultiPolygon","coordinates":[[[[126.931011,35.089787],[126.931036,35.089731],[126.931086,35.089739],[126.931079,35.089696],[126.93101,35.089681],[126.930974,35.089779],[126.931011,35.089787]]]]}},{"type":"Feature","id":"1969193641331767644700000000","properties":{"id":"1969193641331767644700000000","pnu":"1221012500104790000","purpose":"단독주택"},"geometry":{"type":"MultiPolygon","coordinates":[[[[126.93103,35.089888],[126.93103,35.089929],[126.931127,35.089928],[126.931127,35.089886],[126.93103,35.089888]]]]}},{"type":"Feature","id":"1969193647491767412200000000","properties":{"id":"1969193647491767412200000000","pnu":"1221012500104800000","purpose":"단독주택","floors":1,"structure":"일반목구조"},"geometry":{"type":"MultiPolygon","coordinates":[[[[126.931099,35.089737],[126.931219,35.089698],[126.931186,35.089661],[126.93108,35.089695],[126.931099,35.089737]]]]}},{"type":"Feature","id":"1969193654241767554600000000","properties":{"id":"1969193654241767554600000000","pnu":"1221012500104800000","purpose":"기타","structure":"일반목구조"},"geometry":{"type":"MultiPolygon","coordinates":[[[[126.931149,35.089881],[126.931303,35.089839],[126.93128,35.089765],[126.931223,35.089774],[126.931229,35.089802],[126.931123,35.089828],[126.931149,35.089881]]]]}},{"type":"Feature","id":"1969193654371767706700000000","properties":{"id":"1969193654371767706700000000","pnu":"1221012500104790000","purpose":"단독주택","floors":1,"structure":"일반목구조"},"geometry":{"type":"MultiPolygon","coordinates":[[[[126.931141,35.089963],[126.931175,35.090018],[126.931302,35.089964],[126.931268,35.08991],[126.931141,35.089963]]]]}},{"type":"Feature","id":"1969193685561767414600000000","properties":{"id":"1969193685561767414600000000","pnu":"1221012500104820000","purpose":"단독주택","floors":1,"structure":"일반목구조"},"geometry":{"type":"MultiPolygon","coordinates":[[[[126.931548,35.089646],[126.931486,35.089651],[126.931516,35.089729],[126.931623,35.089752],[126.931646,35.089692],[126.931554,35.089672],[126.931548,35.089646]]]]}},{"type":"Feature","id":"1969193733171776278400000000","properties":{"id":"1969193733171776278400000000","pnu":"1221012500103860000","purpose":"단독주택"},"geometry":{"type":"MultiPolygon","coordinates":[[[[126.932123,35.097742],[126.932115,35.097634],[126.932035,35.097638],[126.932043,35.097747],[126.932123,35.097742]]]]}},{"type":"Feature","id":"1969193740641776589100000000","properties":{"id":"1969193740641776589100000000","pnu":"1221012500103740000","purpose":"단독주택","floors":1,"structure":"일반목구조"},"geometry":{"type":"MultiPolygon","coordinates":[[[[126.932093,35.09792],[126.932069,35.097973],[126.932229,35.098021],[126.932252,35.097968],[126.932093,35.09792]]]]}},{"type":"Feature","id":"1969193740751776374500000000","properties":{"id":"1969193740751776374500000000","pnu":"1221012500103860000","purpose":"단독주택"},"geometry":{"type":"MultiPolygon","coordinates":[[[[126.932187,35.097744],[126.932123,35.097755],[126.932137,35.09781],[126.932202,35.097799],[126.932187,35.097744]]]]}},{"type":"Feature","id":"1969194325061770313900000000","properties":{"id":"1969194325061770313900000000","pnu":"1221012500102490000","purpose":"단독주택","floors":1,"structure":"일반목구조"},"geometry":{"type":"MultiPolygon","coordinates":[[[[126.938563,35.09238],[126.938622,35.092362],[126.938596,35.092261],[126.938521,35.092274],[126.938563,35.09238]]]]}},{"type":"Feature","id":"1969194332901769796400000000","properties":{"id":"1969194332901769796400000000","pnu":"1221012500102390000","purpose":"단독주택"},"geometry":{"type":"MultiPolygon","coordinates":[[[[126.938676,35.091921],[126.938716,35.091792],[126.938641,35.091783],[126.938609,35.091913],[126.938676,35.091921]]]]}},{"type":"Feature","id":"1969194335341770330600000000","properties":{"id":"1969194335341770330600000000","pnu":"1221012500102490000","purpose":"단독주택","structure":"일반목구조"},"geometry":{"type":"MultiPolygon","coordinates":[[[[126.938687,35.092337],[126.938688,35.092337],[126.938689,35.092337],[126.93869,35.092337],[126.938691,35.092336],[126.938692,35.092336],[126.938692,35.092335],[126.938693,35.092334],[126.938693,35.092334],[126.938693,35.092333],[126.938693,35.092332],[126.938693,35.092331],[126.938692,35.092331],[126.938692,35.09233],[126.938691,35.092329],[126.93869,35.092329],[126.938689,35.092329],[126.938688,35.092328],[126.938687,35.092328],[126.938686,35.092328],[126.938686,35.092329],[126.938685,35.092329],[126.938684,35.092329],[126.938683,35.09233],[126.938683,35.092331],[126.938682,35.092331],[126.938682,35.092332],[126.938682,35.092333],[126.938682,35.092334],[126.938682,35.092334],[126.938683,35.092335],[126.938683,35.092336],[126.938684,35.092336],[126.938685,35.092337],[126.938686,35.092337],[126.938686,35.092337],[126.938687,35.092337]]]]}},{"type":"Feature","id":"1969194338781769877500000000","properties":{"id":"1969194338781769877500000000","pnu":"1221012500102390000","purpose":"기타"},"geometry":{"type":"MultiPolygon","coordinates":[[[[126.938701,35.091943],[126.938737,35.091947],[126.938752,35.091909],[126.938711,35.091901],[126.938701,35.091943]]]]}},{"type":"Feature","id":"1969194348901771527600000000","properties":{"id":"1969194348901771527600000000","pnu":"1221012500102790000","purpose":"단독주택","structure":"블록구조"},"geometry":{"type":"MultiPolygon","coordinates":[[[[126.938876,35.093379],[126.93878,35.093422],[126.938791,35.093438],[126.938802,35.093433],[126.938808,35.093441],[126.938874,35.093412],[126.938869,35.093405],[126.938888,35.093397],[126.938876,35.093379]]]]}},{"type":"Feature","id":"1969194358931771503600000000","properties":{"id":"1969194358931771503600000000","pnu":"1221012500102790000","purpose":"단독주택","structure":"블록구조"},"geometry":{"type":"MultiPolygon","coordinates":[[[[126.938913,35.093371],[126.938951,35.093423],[126.938978,35.09341],[126.938939,35.093357],[126.938913,35.093371]]]]}},{"type":"Feature","id":"1977194356141769052800000000","properties":{"id":"1977194356141769052800000000","pnu":"1221012500102320000","year":1977,"purpose":"단독주택"},"geometry":{"type":"MultiPolygon","coordinates":[[[[126.938951,35.091204],[126.938958,35.091175],[126.938883,35.091159],[126.938874,35.091187],[126.938951,35.091204]]]]}},{"type":"Feature","id":"1978194351891769752500000000","properties":{"id":"1978194351891769752500000000","pnu":"1221012500102400000","year":1978,"purpose":"단독주택","floors":1,"structure":"블록구조"},"geometry":{"type":"MultiPolygon","coordinates":[[[[126.938821,35.091777],[126.938809,35.091818],[126.938915,35.091849],[126.938928,35.091803],[126.938821,35.091777]]]]}},{"type":"Feature","id":"1978194354781771629900000000","properties":{"id":"1978194354781771629900000000","pnu":"1221012500102790000","year":1978,"purpose":"단독주택","floors":1,"structure":"블록구조"},"geometry":{"type":"MultiPolygon","coordinates":[[[[126.93885,35.093491],[126.938881,35.093544],[126.938949,35.093518],[126.938918,35.093464],[126.93885,35.093491]]]]}},{"type":"Feature","id":"1978194363381773601800000000","properties":{"id":"1978194363381773601800000000","pnu":"1221012500108570012","purpose":"단독주택"},"geometry":{"type":"MultiPolygon","coordinates":[[[[126.939019,35.095252],[126.938977,35.095249],[126.938963,35.095309],[126.939011,35.095313],[126.939019,35.095252]]]]}},{"type":"Feature","id":"1979194336911769995100000000","properties":{"id":"1979194336911769995100000000","pnu":"1221012500102410000","year":1979,"purpose":"단독주택"},"geometry":{"type":"MultiPolygon","coordinates":[[[[126.938671,35.092085],[126.938741,35.092088],[126.938744,35.092055],[126.938737,35.092054],[126.938741,35.091977],[126.938669,35.091972],[126.938671,35.092085]]]]}},{"type":"Feature","id":"1979194341041770268900000000","properties":{"id":"1979194341041770268900000000","pnu":"1221012500102470000","year":1979,"purpose":"단독주택","far":25.78,"floors":1,"structure":"벽돌구조"},"geometry":{"type":"MultiPolygon","coordinates":[[[[126.938692,35.092265],[126.938743,35.092321],[126.938809,35.092291],[126.938753,35.092232],[126.938692,35.092265]]]]}},{"type":"Feature","id":"1979194344601769906600000000","properties":{"id":"1979194344601769906600000000","pnu":"1221012500102410000","year":1979,"purpose":"단독주택"},"geometry":{"type":"MultiPolygon","coordinates":[[[[126.938746,35.091948],[126.938763,35.091978],[126.938832,35.091958],[126.938812,35.091921],[126.938746,35.091948]]]]}},{"type":"Feature","id":"1979194346271770108000000000","properties":{"id":"1979194346271770108000000000","pnu":"1221012500102410000","year":1979,"purpose":"단독주택"},"geometry":{"type":"MultiPolygon","coordinates":[[[[126.938757,35.092102],[126.938752,35.09215],[126.93886,35.092162],[126.93886,35.092113],[126.938757,35.092102]]]]}},{"type":"Feature","id":"1980193459011768254200000000","properties":{"id":"1980193459011768254200000000","pnu":"1221012500106970000","purpose":"단독주택"},"geometry":{"type":"MultiPolygon","coordinates":[[[[126.929043,35.090422],[126.929058,35.090497],[126.929112,35.09049],[126.929102,35.090417],[126.929043,35.090422]]]]}},{"type":"Feature","id":"1980193468701768300900000000","properties":{"id":"1980193468701768300900000000","pnu":"1221012500106970000","purpose":"단독주택"},"geometry":{"type":"MultiPolygon","coordinates":[[[[126.929241,35.090521],[126.929237,35.09047],[126.929129,35.090475],[126.929133,35.090526],[126.929241,35.090521]]]]}},{"type":"Feature","id":"1980193480501768474800000000","properties":{"id":"1980193480501768474800000000","pnu":"1221012500106910000","purpose":"기타"},"geometry":{"type":"MultiPolygon","coordinates":[[[[126.929279,35.090673],[126.929324,35.090687],[126.92935,35.090636],[126.929302,35.090624],[126.929279,35.090673]]]]}},{"type":"Feature","id":"1980193483781768552200000000","properties":{"id":"1980193483781768552200000000","pnu":"1221012500106910000","year":1980,"purpose":"기타"},"geometry":{"type":"MultiPolygon","coordinates":[[[[126.929421,35.090707],[126.929291,35.090688],[126.929279,35.090742],[126.929409,35.090761],[126.929421,35.090707]]]]}},{"type":"Feature","id":"1980193668541767500900000000","properties":{"id":"1980193668541767500900000000","pnu":"1221012500104810000","purpose":"단독주택","floors":1,"structure":"일반목구조"},"geometry":{"type":"MultiPolygon","coordinates":[[[[126.931294,35.089806],[126.931365,35.089852],[126.93146,35.08975],[126.931389,35.089705],[126.931294,35.089806]]]]}},{"type":"Feature","id":"1980194324591770191000000000","properties":{"id":"1980194324591770191000000000","pnu":"1221012500102480000","purpose":"단독주택"},"geometry":{"type":"MultiPolygon","coordinates":[[[[126.938561,35.092267],[126.938642,35.092235],[126.938608,35.092186],[126.938599,35.09219],[126.938565,35.092146],[126.938501,35.092171],[126.938561,35.092267]]]]}},{"type":"Feature","id":"1980194330821770109400000000","properties":{"id":"1980194330821770109400000000","pnu":"1221012500102480000","purpose":"기타"},"geometry":{"type":"MultiPolygon","coordinates":[[[[126.938617,35.092146],[126.93865,35.09215],[126.93866,35.092123],[126.938625,35.092116],[126.938617,35.092146]]]]}},{"type":"Feature","id":"1980194342371776108600000000","properties":{"id":"1980194342371776108600000000","pnu":"1221012500103450000","year":1980,"purpose":"기타"},"geometry":{"type":"MultiPolygon","coordinates":[[[[126.938706,35.097491],[126.938686,35.097569],[126.938817,35.097591],[126.938832,35.097512],[126.938706,35.097491]]]]}},{"type":"Feature","id":"1983194326041770484500000000","properties":{"id":"1983194326041770484500000000","pnu":"1221012500102510000","purpose":"단독주택","floors":1,"structure":"벽돌구조"},"geometry":{"type":"MultiPolygon","coordinates":[[[[126.938606,35.092535],[126.938654,35.092433],[126.938562,35.092407],[126.938519,35.092513],[126.938606,35.092535]]]]}},{"type":"Feature","id":"1983194327021770588500000000","properties":{"id":"1983194327021770588500000000","pnu":"1221012500102510000","purpose":"기타","structure":"일반목구조"},"geometry":{"type":"MultiPolygon","coordinates":[[[[126.938527,35.092525],[126.938515,35.092552],[126.938659,35.092607],[126.938672,35.092573],[126.938527,35.092525]]]]}},{"type":"Feature","id":"1984194354921769521600000000","properties":{"id":"1984194354921769521600000000","pnu":"1221012500102360000","year":1984,"purpose":"단독주택"},"geometry":{"type":"MultiPolygon","coordinates":[[[[126.938857,35.091651],[126.938955,35.09166],[126.938963,35.091607],[126.938952,35.091607],[126.938953,35.091577],[126.938937,35.091576],[126.938938,35.091551],[126.938849,35.091549],[126.938845,35.0916],[126.938854,35.0916],[126.938857,35.091651]]]]}},{"type":"Feature","id":"1984194361801769424200000000","properties":{"id":"1984194361801769424200000000","pnu":"1221012500102360000","purpose":"기타"},"geometry":{"type":"MultiPolygon","coordinates":[[[[126.938942,35.091497],[126.938933,35.091531],[126.939016,35.091537],[126.939017,35.091497],[126.938942,35.091497]]]]}},{"type":"Feature","id":"1985193458951768355400000000","properties":{"id":"1985193458951768355400000000","pnu":"1221012500106960000","purpose":"기타","structure":"일반목구조"},"geometry":{"type":"MultiPolygon","coordinates":[[[[126.929095,35.090577],[126.929094,35.090516],[126.929061,35.090517],[126.929062,35.090578],[126.929095,35.090577]]]]}},{"type":"Feature","id":"1985193462941768596900000000","properties":{"id":"1985193462941768596900000000","pnu":"1221012500106950000","year":1985,"purpose":"단독주택","floors":1,"structure":"일반목구조"},"geometry":{"type":"MultiPolygon","coordinates":[[[[126.929054,35.090757],[126.929147,35.090817],[126.929189,35.090773],[126.929096,35.090713],[126.929054,35.090757]]]]}},{"type":"Feature","id":"1985193470861768430400000000","properties":{"id":"1985193470861768430400000000","pnu":"1221012500106960000","year":1985,"purpose":"단독주택","floors":1,"structure":"일반목구조"},"geometry":{"type":"MultiPolygon","coordinates":[[[[126.929136,35.090573],[126.92913,35.090615],[126.929155,35.090639],[126.929273,35.090658],[126.929289,35.090597],[126.929136,35.090573]]]]}},{"type":"Feature","id":"1985193552121767557300000000","properties":{"id":"1985193552121767557300000000","pnu":"1221012500104970000","purpose":"기타"},"geometry":{"type":"MultiPolygon","coordinates":[[[[126.93008,35.089858],[126.930145,35.089832],[126.930116,35.089798],[126.930058,35.089825],[126.93008,35.089858]]]]}},{"type":"Feature","id":"1985193554441767854800000000","properties":{"id":"1985193554441767854800000000","pnu":"1221012500104730000","year":1985,"purpose":"단독주택"},"geometry":{"type":"MultiPolygon","coordinates":[[[[126.930061,35.090085],[126.93013,35.090148],[126.930189,35.090099],[126.930154,35.090065],[126.930142,35.090071],[126.930123,35.090053],[126.930099,35.090069],[126.930088,35.090059],[126.930061,35.090085]]]]}},{"type":"Feature","id":"1985193554521767641700000000","properties":{"id":"1985193554521767641700000000","pnu":"1221012500104970000","year":1985,"purpose":"단독주택"},"geometry":{"type":"MultiPolygon","coordinates":[[[[126.930102,35.089946],[126.930183,35.089916],[126.93015,35.089862],[126.93007,35.089894],[126.930102,35.089946]]]]}},{"type":"Feature","id":"1985193559361767904800000000","properties":{"id":"1985193559361767904800000000","pnu":"1221012500104730000","year":1985,"purpose":"단독주택"},"geometry":{"type":"MultiPolygon","coordinates":[[[[126.930164,35.090183],[126.930231,35.090129],[126.930193,35.090101],[126.930129,35.090152],[126.930164,35.090183]]]]}},{"type":"Feature","id":"1985193561881767954600000000","properties":{"id":"1985193561881767954600000000","pnu":"1221012500104740000","purpose":"단독주택","floors":1,"structure":"일반목구조"},"geometry":{"type":"MultiPolygon","coordinates":[[[[126.930207,35.090191],[126.930208,35.090191],[126.930209,35.090191],[126.93021,35.09019],[126.930211,35.09019],[126.930211,35.090189],[126.930212,35.090189],[126.930212,35.090188],[126.930212,35.090187],[126.930213,35.090186],[126.930212,35.090186],[126.930212,35.090185],[126.930212,35.090184],[126.930211,35.090184],[126.930211,35.090183],[126.93021,35.090183],[126.930209,35.090182],[126.930208,35.090182],[126.930207,35.090182],[126.930206,35.090182],[126.930205,35.090182],[126.930204,35.090183],[126.930204,35.090183],[126.930203,35.090184],[126.930202,35.090184],[126.930202,35.090185],[126.930202,35.090186],[126.930202,35.090186],[126.930202,35.090187],[126.930202,35.090188],[126.930202,35.090189],[126.930203,35.090189],[126.930204,35.09019],[126.930204,35.09019],[126.930205,35.090191],[126.930206,35.090191],[126.930207,35.090191]]]]}},{"type":"Feature","id":"1985193566771767974300000000","properties":{"id":"1985193566771767974300000000","pnu":"1221012500104740000","year":1985,"purpose":"단독주택","floors":1,"structure":"일반목구조"},"geometry":{"type":"MultiPolygon","coordinates":[[[[126.930265,35.090159],[126.930205,35.090221],[126.930255,35.090249],[126.930317,35.090191],[126.930265,35.090159]]]]}},{"type":"Feature","id":"1985193609931767267500000000","properties":{"id":"1985193609931767267500000000","pnu":"1221012500105010000","year":1985,"purpose":"단독주택","floors":1,"structure":"블록구조"},"geometry":{"type":"MultiPolygon","coordinates":[[[[126.930737,35.089597],[126.93077,35.089559],[126.930732,35.089538],[126.930698,35.089575],[126.930737,35.089597]]]]}},{"type":"Feature","id":"1985193618941767023300000000","properties":{"id":"1985193618941767023300000000","pnu":"1221012500105050000","year":1985,"purpose":"단독주택","floors":1,"structure":"일반목구조"},"geometry":{"type":"MultiPolygon","coordinates":[[[[126.930822,35.089412],[126.930901,35.089386],[126.930846,35.089286],[126.930766,35.089304],[126.930822,35.089412]]]]}},{"type":"Feature","id":"1985193621141767244200000000","properties":{"id":"1985193621141767244200000000","pnu":"1221012500104840000","purpose":"기타","structure":"일반목구조"},"geometry":{"type":"MultiPolygon","coordinates":[[[[126.930814,35.089511],[126.930801,35.089567],[126.930901,35.089582],[126.930914,35.089527],[126.930814,35.089511]]]]}},{"type":"Feature","id":"1985193623201767155400000000","properties":{"id":"1985193623201767155400000000","pnu":"1221012500104840000","year":1985,"purpose":"단독주택"},"geometry":{"type":"MultiPolygon","coordinates":[[[[126.93084,35.089495],[126.930886,35.089472],[126.930894,35.089494],[126.930925,35.089491],[126.930921,35.089433],[126.930818,35.089463],[126.93084,35.089495]]]]}},{"type":"Feature","id":"1985193627411767410000000000","properties":{"id":"1985193627411767410000000000","pnu":"1221012500104900000","year":1985,"purpose":"단독주택","floors":1,"structure":"일반목구조"},"geometry":{"type":"MultiPolygon","coordinates":[[[[126.930867,35.089698],[126.930907,35.089742],[126.930985,35.089694],[126.930945,35.08965],[126.930867,35.089698]]]]}},{"type":"Feature","id":"1985193663171767151900000000","properties":{"id":"1985193663171767151900000000","pnu":"1221012500104840000","year":1985,"purpose":"단독주택"},"geometry":{"type":"MultiPolygon","coordinates":[[[[126.9313,35.08949],[126.931343,35.089484],[126.931338,35.089438],[126.931293,35.089443],[126.9313,35.08949]]]]}},{"type":"Feature","id":"1985193669781767189300000000","properties":{"id":"1985193669781767189300000000","pnu":"1221012500104840000","year":1985,"purpose":"단독주택"},"geometry":{"type":"MultiPolygon","coordinates":[[[[126.931356,35.089538],[126.931431,35.089535],[126.931426,35.089457],[126.931351,35.08946],[126.931356,35.089538]]]]}},{"type":"Feature","id":"1985194339121770405500000000","properties":{"id":"1985194339121770405500000000","pnu":"1221012500102460000","year":1985,"purpose":"단독주택","far":56.79,"floors":1,"structure":"벽돌구조"},"geometry":{"type":"MultiPolygon","coordinates":[[[[126.938714,35.09247],[126.938789,35.092444],[126.938773,35.09238],[126.938787,35.092373],[126.93877,35.09233],[126.938666,35.092366],[126.93866,35.092372],[126.938659,35.092379],[126.938659,35.092384],[126.938701,35.092465],[126.938707,35.09247],[126.938714,35.09247]]]]}},{"type":"Feature","id":"1985194355541770489500000000","properties":{"id":"1985194355541770489500000000","pnu":"1221012500102460000","purpose":"기타"},"geometry":{"type":"MultiPolygon","coordinates":[[[[126.938882,35.092445],[126.938866,35.092492],[126.938934,35.092508],[126.938953,35.09246],[126.938882,35.092445]]]]}},{"type":"Feature","id":"1986193523961768151800000000","properties":{"id":"1986193523961768151800000000","pnu":"1221012500104610000","purpose":"단독주택","floors":1,"structure":"일반목구조"},"geometry":{"type":"MultiPolygon","coordinates":[[[[126.92972,35.090398],[126.929871,35.090375],[126.929869,35.090331],[126.929708,35.090352],[126.92972,35.090398]]]]}},{"type":"Feature","id":"1986193526741768269300000000","properties":{"id":"1986193526741768269300000000","pnu":"1221012500104610000","year":1986,"purpose":"단독주택","far":16.7,"floors":1,"structure":"벽돌구조"},"geometry":{"type":"MultiPolygon","coordinates":[[[[126.929749,35.090503],[126.92978,35.090503],[126.92978,35.090509],[126.929874,35.090509],[126.929876,35.090481],[126.929891,35.090481],[126.929889,35.090428],[126.929828,35.090429],[126.929826,35.090436],[126.929783,35.090437],[126.929781,35.090443],[126.929751,35.090443],[126.929749,35.090503]]]]}},{"type":"Feature","id":"1986193658111766919500000000","properties":{"id":"1986193658111766919500000000","pnu":"1221012500105440001","year":1986,"purpose":"기타","far":16.47,"floors":1,"structure":"일반목구조"},"geometry":{"type":"MultiPolygon","coordinates":[[[[126.931225,35.089298],[126.93129,35.089304],[126.931302,35.08921],[126.931236,35.089204],[126.931225,35.089298]]]]}},{"type":"Feature","id":"1986193679491766958000000000","properties":{"id":"1986193679491766958000000000","pnu":"1221012500105440001","year":1986,"purpose":"단독주택","far":14.34,"floors":1,"structure":"벽돌구조"},"geometry":{"type":"MultiPolygon","coordinates":[[[[126.931585,35.089253],[126.931422,35.089238],[126.93141,35.089325],[126.931573,35.08934],[126.931585,35.089253]]]]}},{"type":"Feature","id":"1990193489351768092200000000","properties":{"id":"1990193489351768092200000000","pnu":"1221012500106880000","year":1990,"purpose":"단독주택","far":52.76,"floors":1,"structure":"벽돌구조"},"geometry":{"type":"MultiPolygon","coordinates":[[[[126.929443,35.090362],[126.929481,35.090302],[126.929382,35.09026],[126.92934,35.090315],[126.929443,35.090362]]]]}},{"type":"Feature","id":"1990193586291767185400000000","properties":{"id":"1990193586291767185400000000","pnu":"1221012500105070000","year":1990,"purpose":"단독주택","far":40.65,"floors":1,"structure":"벽돌구조"},"geometry":{"type":"MultiPolygon","coordinates":[[[[126.930465,35.089557],[126.930551,35.089509],[126.930486,35.08943],[126.930399,35.089478],[126.930465,35.089557]]]]}},{"type":"Feature","id":"1990193591911767121500000000","properties":{"id":"1990193591911767121500000000","pnu":"1221012500105070000","purpose":"기타","structure":"벽돌구조"},"geometry":{"type":"MultiPolygon","coordinates":[[[[126.93054,35.089401],[126.930486,35.089425],[126.930505,35.089447],[126.930522,35.089441],[126.930551,35.089471],[126.930584,35.089459],[126.93054,35.089401]]]]}},{"type":"Feature","id":"1990193708661776066400000000","properties":{"id":"1990193708661776066400000000","pnu":"1221012500103850000","year":1990,"purpose":"제2종 근린생활시설","far":15.31,"floors":1,"structure":"일반목구조"},"geometry":{"type":"MultiPolygon","coordinates":[[[[126.931879,35.097431],[126.931776,35.097415],[126.931741,35.097567],[126.931844,35.097583],[126.931879,35.097431]]]]}},{"type":"Feature","id":"1991193559761767744100000000","properties":{"id":"1991193559761767744100000000","pnu":"1221012500104960000","purpose":"단독주택","structure":"벽돌구조"},"geometry":{"type":"MultiPolygon","coordinates":[[[[126.930183,35.089937],[126.930134,35.089976],[126.930201,35.090061],[126.93023,35.090042],[126.930197,35.090002],[126.930218,35.089987],[126.930183,35.089937]]]]}},{"type":"Feature","id":"1991193567711767732100000000","properties":{"id":"1991193567711767732100000000","pnu":"1221012500104960000","year":1991,"purpose":"단독주택","floors":1,"structure":"벽돌구조"},"geometry":{"type":"MultiPolygon","coordinates":[[[[126.93024,35.090051],[126.93035,35.089991],[126.930289,35.089918],[126.930245,35.089943],[126.930249,35.08995],[126.930211,35.089977],[126.930219,35.089987],[126.930199,35.090002],[126.93024,35.090051]]]]}},{"type":"Feature","id":"1992193556281767369700000000","properties":{"id":"1992193556281767369700000000","pnu":"1221012500105090000","year":1992,"purpose":"단독주택"},"geometry":{"type":"MultiPolygon","coordinates":[[[[126.930174,35.089588],[126.930058,35.089672],[126.93012,35.08973],[126.930233,35.089647],[126.930174,35.089588]]]]}},{"type":"Feature","id":"1992193564391768426300000000","properties":{"id":"1992193564391768426300000000","pnu":"1221012500104630000","year":1992,"purpose":"단독주택","far":23.64,"floors":1,"structure":"벽돌구조"},"geometry":{"type":"MultiPolygon","coordinates":[[[[126.930277,35.09055],[126.930207,35.090596],[126.930182,35.09058],[126.930141,35.090609],[126.930157,35.090624],[126.930151,35.090627],[126.930191,35.090662],[126.930203,35.090656],[126.930219,35.090673],[126.930329,35.090597],[126.930277,35.09055]]]]}},{"type":"Feature","id":"1992193576121768338300000000","properties":{"id":"1992193576121768338300000000","pnu":"1221012500104630000","purpose":"단독주택","structure":"벽돌구조"},"geometry":{"type":"MultiPolygon","coordinates":[[[[126.930352,35.090488],[126.930318,35.090506],[126.930374,35.090577],[126.930408,35.090559],[126.930352,35.090488]]]]}},{"type":"Feature","id":"1993193689501776075600000000","properties":{"id":"1993193689501776075600000000","pnu":"1221012500103840000","year":1993,"purpose":"단독주택","far":28.27,"floors":1,"structure":"블록구조"},"geometry":{"type":"MultiPolygon","coordinates":[[[[126.93153,35.097497],[126.931619,35.097564],[126.931671,35.097518],[126.931581,35.097451],[126.93153,35.097497]]]]}},{"type":"Feature","id":"1993194346361773483100000000","properties":{"id":"1993194346361773483100000000","pnu":"1221012500103070001","purpose":"단독주택","structure":"블록구조"},"geometry":{"type":"MultiPolygon","coordinates":[[[[126.938795,35.095202],[126.938822,35.0952],[126.938817,35.095147],[126.93879,35.095148],[126.938795,35.095202]]]]}},{"type":"Feature","id":"1993194349871769162300000000","properties":{"id":"1993194349871769162300000000","pnu":"1221012500102330000","year":1993,"purpose":"단독주택","far":42.84,"floors":1,"structure":"벽돌구조"},"geometry":{"type":"MultiPolygon","coordinates":[[[[126.938891,35.091346],[126.938918,35.091269],[126.938891,35.091262],[126.938896,35.091235],[126.938805,35.091209],[126.938784,35.091259],[126.938794,35.091261],[126.938788,35.091284],[126.938798,35.091287],[126.93879,35.091319],[126.938805,35.091322],[126.938803,35.09133],[126.938891,35.091346]]]]}},{"type":"Feature","id":"1993194355371773368100000000","properties":{"id":"1993194355371773368100000000","pnu":"1221012500103070001","year":1993,"purpose":"단독주택","floors":1,"structure":"블록구조"},"geometry":{"type":"MultiPolygon","coordinates":[[[[126.938934,35.095139],[126.938967,35.095026],[126.938865,35.095009],[126.938845,35.09507],[126.938872,35.095076],[126.938857,35.095126],[126.938934,35.095139]]]]}},{"type":"Feature","id":"1994193519721768420800000000","properties":{"id":"1994193519721768420800000000","pnu":"1221012500104590000","year":1994,"purpose":"단독주택","far":26.03,"floors":1,"structure":"경량철골구조"},"geometry":{"type":"MultiPolygon","coordinates":[[[[126.929812,35.090648],[126.9298,35.090554],[126.929676,35.090564],[126.929689,35.090659],[126.929812,35.090648]]]]}},{"type":"Feature","id":"1994193543121767620400000000","properties":{"id":"1994193543121767620400000000","pnu":"1221012500105120000","purpose":"기타","structure":"벽돌구조"},"geometry":{"type":"MultiPolygon","coordinates":[[[[126.929972,35.089878],[126.929995,35.089904],[126.930032,35.089888],[126.930025,35.089876],[126.92998,35.089872],[126.929972,35.089878]]]]}},{"type":"Feature","id":"1994193543851767698900000000","properties":{"id":"1994193543851767698900000000","pnu":"1221012500105120000","year":1994,"purpose":"단독주택","far":46.92,"floors":1,"structure":"벽돌구조"},"geometry":{"type":"MultiPolygon","coordinates":[[[[126.930021,35.089902],[126.929995,35.089918],[126.929984,35.089908],[126.929971,35.08992],[126.929963,35.089913],[126.929918,35.089949],[126.929938,35.089972],[126.929997,35.089986],[126.930032,35.090015],[126.930098,35.08997],[126.930021,35.089902]]]]}},{"type":"Feature","id":"1994193549611767767200000000","properties":{"id":"1994193549611767767200000000","pnu":"1221012500105120000","purpose":"기타","structure":"벽돌구조"},"geometry":{"type":"MultiPolygon","coordinates":[[[[126.930134,35.090006],[126.930101,35.089975],[126.930016,35.090025],[126.93004,35.090063],[126.930134,35.090006]]]]}},{"type":"Feature","id":"1994194356201773190800000000","properties":{"id":"1994194356201773190800000000","pnu":"1221012500103070009","year":1994,"purpose":"단독주택"},"geometry":{"type":"MultiPolygon","coordinates":[[[[126.938895,35.094847],[126.938839,35.094905],[126.938937,35.094973],[126.938991,35.094926],[126.938931,35.094881],[126.938939,35.094873],[126.938895,35.094847]]]]}},{"type":"Feature","id":"1995193546391767448400000000","properties":{"id":"1995193546391767448400000000","pnu":"1221012500105100000","year":1995,"purpose":"단독주택","far":57.06,"floors":1,"structure":"벽돌구조"},"geometry":{"type":"MultiPolygon","coordinates":[[[[126.930046,35.089677],[126.929983,35.089724],[126.930038,35.089782],[126.93008,35.089759],[126.930067,35.089742],[126.930076,35.089735],[126.930066,35.089715],[126.930078,35.089709],[126.930046,35.089677]]]]}},{"type":"Feature","id":"1995193594041767362000000000","properties":{"id":"1995193594041767362000000000","pnu":"1221012500105000000","year":1995,"purpose":"단독주택","far":54.57,"floors":1,"structure":"벽돌구조"},"geometry":{"type":"MultiPolygon","coordinates":[[[[126.930629,35.08969],[126.930597,35.08959],[126.930521,35.089605],[126.930526,35.089619],[126.93049,35.089626],[126.93052,35.089712],[126.930629,35.08969]]]]}},{"type":"Feature","id":"1995193599991767272800000000","properties":{"id":"1995193599991767272800000000","pnu":"1221012500105000000","purpose":"기타","structure":"벽돌구조"},"geometry":{"type":"MultiPolygon","coordinates":[[[[126.930638,35.089534],[126.930581,35.089554],[126.930585,35.089567],[126.930597,35.089569],[126.930617,35.089614],[126.930657,35.089595],[126.930663,35.089584],[126.930638,35.089534]]]]}},{"type":"Feature","id":"1995194353751769646000000000","properties":{"id":"1995194353751769646000000000","pnu":"1221012500102370000","year":1995,"purpose":"단독주택","far":47.04,"floors":1,"structure":"벽돌구조"},"geometry":{"type":"MultiPolygon","coordinates":[[[[126.93881,35.091762],[126.938962,35.091747],[126.93896,35.091675],[126.938897,35.091675],[126.938895,35.09167],[126.938837,35.091673],[126.938835,35.091719],[126.938812,35.091719],[126.93881,35.091762]]]]}},{"type":"Feature","id":"1996193527451767890000000000","properties":{"id":"1996193527451767890000000000","pnu":"1221012500104710000","year":1996,"purpose":"단독주택","far":42.27,"floors":1,"structure":"벽돌구조"},"geometry":{"type":"MultiPolygon","coordinates":[[[[126.929751,35.090141],[126.929846,35.09018],[126.929852,35.090171],[126.92988,35.090181],[126.929909,35.090133],[126.929882,35.09012],[126.929887,35.090113],[126.929844,35.090096],[126.929852,35.090085],[126.929799,35.090064],[126.929751,35.090141]]]]}},{"type":"Feature","id":"1996193545171767994900000000","properties":{"id":"1996193545171767994900000000","pnu":"1221012500104690000","year":1996,"purpose":"단독주택","far":31.38,"floors":1,"structure":"벽돌구조"},"geometry":{"type":"MultiPolygon","coordinates":[[[[126.930109,35.090199],[126.930046,35.09018],[126.930041,35.09019],[126.92998,35.090173],[126.929974,35.090186],[126.929956,35.090182],[126.929936,35.090241],[126.930077,35.090278],[126.930109,35.090199]]]]}},{"type":"Feature","id":"1996193566251767296300000000","properties":{"id":"1996193566251767296300000000","pnu":"1221012500105080000","year":1996,"purpose":"단독주택","far":39.96,"floors":1,"structure":"벽돌구조"},"geometry":{"type":"MultiPolygon","coordinates":[[[[126.930257,35.089554],[126.930215,35.089569],[126.930252,35.089631],[126.930296,35.089618],[126.930257,35.089554]]]]}},{"type":"Feature","id":"1996193574911767236400000000","properties":{"id":"1996193574911767236400000000","pnu":"1221012500105080000","year":1996,"purpose":"단독주택","far":39.96,"floors":1,"structure":"벽돌구조"},"geometry":{"type":"MultiPolygon","coordinates":[[[[126.930383,35.089478],[126.930286,35.089516],[126.930291,35.089529],[126.930277,35.089534],[126.93031,35.0896],[126.93043,35.089555],[126.930383,35.089478]]]]}},{"type":"Feature","id":"1996193586231767491600000000","properties":{"id":"1996193586231767491600000000","pnu":"1221012500104940000","purpose":"단독주택","structure":"벽돌구조"},"geometry":{"type":"MultiPolygon","coordinates":[[[[126.930435,35.089764],[126.930446,35.089793],[126.930514,35.089775],[126.930503,35.089746],[126.930435,35.089764]]]]}},{"type":"Feature","id":"1996193588621767591900000000","properties":{"id":"1996193588621767591900000000","pnu":"1221012500104940000","year":1996,"purpose":"단독주택","far":44.52,"floors":1,"structure":"벽돌구조"},"geometry":{"type":"MultiPolygon","coordinates":[[[[126.930457,35.089919],[126.930582,35.089893],[126.930551,35.08981],[126.930511,35.089818],[126.930508,35.089817],[126.930499,35.089811],[126.930489,35.089806],[126.930423,35.089819],[126.930457,35.089919]]]]}},{"type":"Feature","id":"1996194309231770630000000000","properties":{"id":"1996194309231770630000000000","pnu":"1221012500102540000","year":1996,"purpose":"단독주택","far":22.53,"floors":1,"structure":"일반목구조"},"geometry":{"type":"MultiPolygon","coordinates":[[[[126.9385,35.092722],[126.938529,35.092666],[126.93849,35.092649],[126.938496,35.092632],[126.938441,35.092607],[126.938451,35.09258],[126.93842,35.092561],[126.938454,35.092497],[126.938372,35.092468],[126.938281,35.092632],[126.9385,35.092722]]]]}},{"type":"Feature","id":"1997194343731770818500000000","properties":{"id":"1997194343731770818500000000","pnu":"1221012500102520000","year":1997,"purpose":"단독주택","far":45.56,"floors":1,"structure":"벽돌구조"},"geometry":{"type":"MultiPolygon","coordinates":[[[[126.9387,35.092809],[126.938811,35.09285],[126.938841,35.092804],[126.938823,35.092794],[126.938837,35.092753],[126.938821,35.092748],[126.938829,35.092735],[126.93882,35.09273],[126.93883,35.092706],[126.938767,35.09269],[126.9387,35.092809]]]]}},{"type":"Feature","id":"1997194351511770758600000000","properties":{"id":"1997194351511770758600000000","pnu":"1221012500102520000","purpose":"단독주택","structure":"벽돌구조"},"geometry":{"type":"MultiPolygon","coordinates":[[[[126.938864,35.092723],[126.938865,35.092723],[126.938866,35.092723],[126.938867,35.092723],[126.938868,35.092722],[126.938869,35.092722],[126.938869,35.092721],[126.93887,35.09272],[126.93887,35.09272],[126.93887,35.092719],[126.93887,35.092718],[126.93887,35.092717],[126.938869,35.092716],[126.938869,35.092716],[126.938868,35.092715],[126.938867,35.092715],[126.938866,35.092715],[126.938865,35.092714],[126.938864,35.092714],[126.938863,35.092714],[126.938863,35.092715],[126.938862,35.092715],[126.938861,35.092715],[126.93886,35.092716],[126.93886,35.092716],[126.938859,35.092717],[126.938859,35.092718],[126.938859,35.092719],[126.938859,35.09272],[126.938859,35.09272],[126.93886,35.092721],[126.93886,35.092722],[126.938861,35.092722],[126.938862,35.092723],[126.938862,35.092723],[126.938863,35.092723],[126.938864,35.092723]]]]}},{"type":"Feature","id":"1998193664901767360900000000","properties":{"id":"1998193664901767360900000000","pnu":"1221012500104830000","year":1998,"purpose":"단독주택","far":15.94,"floors":1,"structure":"벽돌구조"},"geometry":{"type":"MultiPolygon","coordinates":[[[[126.93138,35.089588],[126.931322,35.089606],[126.931327,35.089616],[126.931252,35.089644],[126.931288,35.089713],[126.931421,35.089666],[126.93138,35.089588]]]]}},{"type":"Feature","id":"1998193671371767278800000000","properties":{"id":"1998193671371767278800000000","pnu":"1221012500104830000","purpose":"기타","structure":"벽돌구조"},"geometry":{"type":"MultiPolygon","coordinates":[[[[126.931446,35.089599],[126.931407,35.08954],[126.93137,35.089557],[126.93141,35.089616],[126.931446,35.089599]]]]}},{"type":"Feature","id":"1998194319161771052500000000","properties":{"id":"1998194319161771052500000000","pnu":"1221012500102560001","year":1998,"purpose":"단독주택"},"geometry":{"type":"MultiPolygon","coordinates":[[[[126.93855,35.09306],[126.93858,35.093008],[126.938591,35.093001],[126.938596,35.092997],[126.938603,35.092989],[126.938607,35.092981],[126.938607,35.092973],[126.938604,35.092962],[126.938601,35.092955],[126.938586,35.092947],[126.938568,35.092944],[126.938555,35.092944],[126.938473,35.092907],[126.938402,35.093002],[126.93855,35.09306]]]]}},{"type":"Feature","id":"1998194336731770929700000000","properties":{"id":"1998194336731770929700000000","pnu":"1221012500102560001","purpose":"기타"},"geometry":{"type":"MultiPolygon","coordinates":[[[[126.938671,35.092836],[126.938649,35.092872],[126.938735,35.092909],[126.938755,35.092875],[126.938671,35.092836]]]]}},{"type":"Feature","id":"2001193652701767035100000000","properties":{"id":"2001193652701767035100000000","pnu":"1221012500105450001","year":2001,"purpose":"단독주택","far":31.66,"floors":1,"structure":"철근콘크리트구조"},"geometry":{"type":"MultiPolygon","coordinates":[[[[126.931128,35.089314],[126.93112,35.08939],[126.931279,35.089402],[126.931288,35.089327],[126.931128,35.089314]]]]}},{"type":"Feature","id":"2001193662141775864300000000","properties":{"id":"2001193662141775864300000000","pnu":"1221012500104010000","purpose":"단독주택"},"geometry":{"type":"MultiPolygon","coordinates":[[[[126.931335,35.097373],[126.931354,35.097272],[126.931265,35.097261],[126.931247,35.097362],[126.931335,35.097373]]]]}},{"type":"Feature","id":"2001193666971776012300000000","properties":{"id":"2001193666971776012300000000","pnu":"1221012500104010000","year":2001,"purpose":"제2종 근린생활시설","far":31.16,"floors":1,"structure":"경량철골구조"},"geometry":{"type":"MultiPolygon","coordinates":[[[[126.931447,35.097468],[126.931304,35.097382],[126.93126,35.097432],[126.931402,35.097518],[126.931447,35.097468]]]]}},{"type":"Feature","id":"2002193520801768065700000000","properties":{"id":"2002193520801768065700000000","pnu":"1221012500104700000","year":2002,"purpose":"제1종 근린생활시설","far":70.93,"floors":2,"structure":"벽돌구조"},"geometry":{"type":"MultiPolygon","coordinates":[[[[126.929704,35.090345],[126.92982,35.090324],[126.929816,35.090296],[126.929839,35.090293],[126.929822,35.090239],[126.92978,35.090246],[126.929778,35.090233],[126.929679,35.090251],[126.929704,35.090345]]]]}},{"type":"Feature","id":"2002193599411767111900000000","properties":{"id":"2002193599411767111900000000","pnu":"1221012500105020000","year":2002,"purpose":"단독주택","far":42.49,"floors":1,"structure":"벽돌구조"},"geometry":{"type":"MultiPolygon","coordinates":[[[[126.930544,35.089399],[126.930615,35.089498],[126.93068,35.089468],[126.930671,35.089447],[126.930685,35.08944],[126.930628,35.089357],[126.930544,35.089399]]]]}},{"type":"Feature","id":"2003193718511776297900000000","properties":{"id":"2003193718511776297900000000","pnu":"1221012500103820002","year":2003,"purpose":"단독주택","far":97.08,"floors":3,"structure":"경량철골구조"},"geometry":{"type":"MultiPolygon","coordinates":[[[[126.931853,35.097744],[126.931963,35.09775],[126.931965,35.097735],[126.931981,35.097736],[126.931986,35.09768],[126.931965,35.097678],[126.931965,35.097669],[126.931861,35.097667],[126.931853,35.097744]]]]}},{"type":"Feature","id":"2005193646131767256200000000","properties":{"id":"2005193646131767256200000000","pnu":"1221012500104840000","year":2005,"purpose":"단독주택","far":15.94,"floors":1,"structure":"철근콘크리트구조"},"geometry":{"type":"MultiPolygon","coordinates":[[[[126.931071,35.089588],[126.931199,35.089592],[126.931187,35.089528],[126.931072,35.08952],[126.931071,35.089588]]]]}},{"type":"Feature","id":"2006193539591767830900000000","properties":{"id":"2006193539591767830900000000","pnu":"1221012500104720000","year":2006,"purpose":"단독주택","far":33.476,"floors":1,"structure":"철근콘크리트구조"},"geometry":{"type":"MultiPolygon","coordinates":[[[[126.929968,35.090001],[126.929892,35.090107],[126.929956,35.090141],[126.930033,35.090059],[126.929968,35.090001]]]]}},{"type":"Feature","id":"2006193619321767517400000000","properties":{"id":"2006193619321767517400000000","pnu":"1221012500104890000","year":2006,"purpose":"단독주택","far":23.91,"floors":1,"structure":"일반목구조"},"geometry":{"type":"MultiPolygon","coordinates":[[[[126.930787,35.089835],[126.930909,35.089805],[126.930889,35.08975],[126.930764,35.089782],[126.930787,35.089835]]]]}},{"type":"Feature","id":"2007193498911768197500000000","properties":{"id":"2007193498911768197500000000","pnu":"1221012500106890000","year":2007,"purpose":"단독주택","far":27.02,"floors":2,"structure":"철근콘크리트구조"},"geometry":{"type":"MultiPolygon","coordinates":[[[[126.929488,35.090354],[126.929472,35.090445],[126.92953,35.090456],[126.92955,35.090442],[126.929563,35.090379],[126.929541,35.090378],[126.92954,35.090355],[126.929488,35.090354]]]]}},{"type":"Feature","id":"2007194356911770065000000000","properties":{"id":"2007194356911770065000000000","pnu":"1221012500102430000","year":2007,"purpose":"단독주택","far":62.84,"floors":2,"structure":"철근콘크리트구조"},"geometry":{"type":"MultiPolygon","coordinates":[[[[126.938983,35.092051],[126.938871,35.092046],[126.938865,35.092136],[126.938977,35.092141],[126.938983,35.092051]]]]}},{"type":"Feature","id":"2008193716161767229800000000","properties":{"id":"2008193716161767229800000000","pnu":"1221012500105460000","year":2008,"purpose":"단독주택","far":14.4622,"floors":1,"structure":"일반목구조"},"geometry":{"type":"MultiPolygon","coordinates":[[[[126.931839,35.089582],[126.931964,35.089567],[126.93195,35.089482],[126.931852,35.089494],[126.931857,35.089525],[126.931841,35.089527],[126.931844,35.089545],[126.931834,35.089546],[126.931831,35.089554],[126.93183,35.089562],[126.931833,35.089571],[126.931835,35.089577],[126.931839,35.089582]]]]}},{"type":"Feature","id":"2012193542851767543400000000","properties":{"id":"2012193542851767543400000000","pnu":"1221012500105110000","year":2012,"purpose":"단독주택","far":14.96,"floors":1,"structure":"기타강구조"},"geometry":{"type":"MultiPolygon","coordinates":[[[[126.929981,35.089842],[126.930035,35.089812],[126.930016,35.089789],[126.929962,35.08982],[126.929981,35.089842]]]]}},{"type":"Feature","id":"2013193495031768841500000000","properties":{"id":"2013193495031768841500000000","pnu":"1221012500106920000","year":2013,"purpose":"단독주택","far":21.3795,"floors":1,"structure":"일반목구조"},"geometry":{"type":"MultiPolygon","coordinates":[[[[126.929438,35.091016],[126.929459,35.091012],[126.929462,35.091021],[126.929515,35.091011],[126.929508,35.090984],[126.929524,35.090981],[126.92952,35.090968],[126.929504,35.090971],[126.929497,35.090945],[126.929444,35.090955],[126.92945,35.090978],[126.929418,35.090984],[126.929424,35.091005],[126.929434,35.091003],[126.929438,35.091016]]]]}},{"type":"Feature","id":"road:2911012300101590000000023:30684","properties":{"id":"road:2911012300101590000000023:30684","pnu":"1221012300106380000","purpose":"공동주택","year":2016},"geometry":{"type":"MultiPolygon","coordinates":[[[[126.938613,35.09776],[126.938664,35.097782],[126.938691,35.097741],[126.938639,35.09772],[126.938613,35.09776]]]]}}]}
