{"type":"FeatureCollection","features":[{"type":"Feature","id":"0000193506871797318800000000","properties":{"id":"0000193506871797318800000000","pnu":"1221012600101290000","purpose":"기타"},"geometry":{"type":"MultiPolygon","coordinates":[[[[126.929543,35.116695],[126.929625,35.116678],[126.929619,35.116664],[126.929638,35.116652],[126.929621,35.11661],[126.929518,35.116643],[126.929543,35.116695]]]]}},{"type":"Feature","id":"0000193516621798322800000000","properties":{"id":"0000193516621798322800000000","pnu":"1221012600101880002","purpose":"기타"},"geometry":{"type":"MultiPolygon","coordinates":[[[[126.92975,35.11752],[126.929637,35.117508],[126.929623,35.117598],[126.929736,35.11761],[126.92975,35.11752]]]]}},{"type":"Feature","id":"0000193517381797373600000000","properties":{"id":"0000193517381797373600000000","pnu":"1221012600106490000","purpose":"제1종 근린생활시설"},"geometry":{"type":"MultiPolygon","coordinates":[[[[126.929728,35.116688],[126.92966,35.116694],[126.929664,35.116719],[126.929731,35.116713],[126.929728,35.116688]]]]}},{"type":"Feature","id":"0000193524891797376100000000","properties":{"id":"0000193524891797376100000000","pnu":"1221012600101310000","purpose":"기타"},"geometry":{"type":"MultiPolygon","coordinates":[[[[126.92982,35.116723],[126.92982,35.116687],[126.929736,35.116688],[126.929737,35.116724],[126.92982,35.116723]]]]}},{"type":"Feature","id":"0000193531401798496200000000","properties":{"id":"0000193531401798496200000000","pnu":"1221012600101880001","purpose":"단독주택","floors":2},"geometry":{"type":"MultiPolygon","coordinates":[[[[126.929813,35.117783],[126.92993,35.117742],[126.929894,35.117653],[126.929793,35.117673],[126.929769,35.117703],[126.929813,35.117783]]]]}},{"type":"Feature","id":"0000193538281798638900000000","properties":{"id":"0000193538281798638900000000","pnu":"1221012600101890000","purpose":"기타"},"geometry":{"type":"MultiPolygon","coordinates":[[[[126.929963,35.117898],[126.929942,35.117783],[126.929886,35.117789],[126.929905,35.117904],[126.929963,35.117898]]]]}},{"type":"Feature","id":"0000193544751798510200000000","properties":{"id":"0000193544751798510200000000","pnu":"1221012600101880001","purpose":"기타"},"geometry":{"type":"MultiPolygon","coordinates":[[[[126.930021,35.117729],[126.930008,35.11771],[126.92997,35.117727],[126.929982,35.117746],[126.930021,35.117729]]]]}},{"type":"Feature","id":"0000193550001798469000000000","properties":{"id":"0000193550001798469000000000","pnu":"1221012600101880001","purpose":"기타"},"geometry":{"type":"MultiPolygon","coordinates":[[[[126.930095,35.117677],[126.930075,35.117658],[126.930011,35.117705],[126.93003,35.117724],[126.930095,35.117677]]]]}},{"type":"Feature","id":"0000193554351798429200000000","properties":{"id":"0000193554351798429200000000","pnu":"1221012600101880001","purpose":"기타"},"geometry":{"type":"MultiPolygon","coordinates":[[[[126.930104,35.117671],[126.93012,35.117659],[126.930096,35.11764],[126.930081,35.11765],[126.930104,35.117671]]]]}},{"type":"Feature","id":"0000193555651798661100000000","properties":{"id":"0000193555651798661100000000","pnu":"1221012600101870000","purpose":"기타"},"geometry":{"type":"MultiPolygon","coordinates":[[[[126.930106,35.117915],[126.930169,35.117841],[126.930122,35.117814],[126.930061,35.117888],[126.930106,35.117915]]]]}},{"type":"Feature","id":"0000193560401797489300000000","properties":{"id":"0000193560401797489300000000","pnu":"1221012600101410000","purpose":"기타"},"geometry":{"type":"MultiPolygon","coordinates":[[[[126.93012,35.116825],[126.930214,35.116828],[126.930215,35.116791],[126.930122,35.116788],[126.93012,35.116825]]]]}},{"type":"Feature","id":"0000193561421798596300000000","properties":{"id":"0000193561421798596300000000","pnu":"1221012600101870000","purpose":"기타"},"geometry":{"type":"MultiPolygon","coordinates":[[[[126.930217,35.117807],[126.930186,35.117774],[126.930139,35.117805],[126.93017,35.117837],[126.930217,35.117807]]]]}},{"type":"Feature","id":"0000193574411797501500000000","properties":{"id":"0000193574411797501500000000","pnu":"1221012600101410000","purpose":"기타"},"geometry":{"type":"MultiPolygon","coordinates":[[[[126.930362,35.116813],[126.930293,35.116794],[126.93028,35.116825],[126.930349,35.116844],[126.930362,35.116813]]]]}},{"type":"Feature","id":"0000193666501798774400000000","properties":{"id":"0000193666501798774400000000","pnu":"1221012600101470001","purpose":"기타"},"geometry":{"type":"MultiPolygon","coordinates":[[[[126.931363,35.117968],[126.931342,35.117942],[126.931298,35.117966],[126.931319,35.117992],[126.931363,35.117968]]]]}},{"type":"Feature","id":"0000193692791797847400000000","properties":{"id":"0000193692791797847400000000","pnu":"1221012600101390003","purpose":"기타"},"geometry":{"type":"MultiPolygon","coordinates":[[[[126.931576,35.117184],[126.931655,35.117188],[126.931663,35.117079],[126.931585,35.117075],[126.931576,35.117184]]]]}},{"type":"Feature","id":"0000193698031797885900000000","properties":{"id":"0000193698031797885900000000","pnu":"1221012600101390003","purpose":"기타"},"geometry":{"type":"MultiPolygon","coordinates":[[[[126.931694,35.117182],[126.931696,35.117153],[126.931659,35.117153],[126.931657,35.117178],[126.931694,35.117182]]]]}},{"type":"Feature","id":"0000193789521798110000000000","properties":{"id":"0000193789521798110000000000","pnu":"1221012600101510000","purpose":"기타"},"geometry":{"type":"MultiPolygon","coordinates":[[[[126.932665,35.117392],[126.932692,35.117393],[126.932696,35.117346],[126.932669,35.117344],[126.932665,35.117392]]]]}},{"type":"Feature","id":"0000193792201797969200000000","properties":{"id":"0000193792201797969200000000","pnu":"1221012600101510000","purpose":"기타"},"geometry":{"type":"MultiPolygon","coordinates":[[[[126.932688,35.117269],[126.932732,35.11727],[126.932733,35.117215],[126.932689,35.117214],[126.932688,35.117269]]]]}},{"type":"Feature","id":"0000193795711798054500000000","properties":{"id":"0000193795711798054500000000","pnu":"1221012600101510000","purpose":"기타"},"geometry":{"type":"MultiPolygon","coordinates":[[[[126.932813,35.117342],[126.932816,35.117303],[126.932684,35.117296],[126.932681,35.117335],[126.932813,35.117342]]]]}},{"type":"Feature","id":"0000193811351798178400000000","properties":{"id":"0000193811351798178400000000","pnu":"1221012600101510000","purpose":"기타"},"geometry":{"type":"MultiPolygon","coordinates":[[[[126.932945,35.117393],[126.932901,35.11739],[126.932895,35.117469],[126.932939,35.117471],[126.932945,35.117393]]]]}},{"type":"Feature","id":"0000193885651793221900000000","properties":{"id":"0000193885651793221900000000","pnu":"1221012600202630000","purpose":"기타"},"geometry":{"type":"MultiPolygon","coordinates":[[[[126.933684,35.112946],[126.93375,35.113011],[126.933794,35.112981],[126.933728,35.112916],[126.933684,35.112946]]]]}},{"type":"Feature","id":"0000193892591789376700000000","properties":{"id":"0000193892591789376700000000","pnu":"1221012600100550001","purpose":"기타"},"geometry":{"type":"MultiPolygon","coordinates":[[[[126.933811,35.109517],[126.933839,35.109507],[126.933825,35.109479],[126.933796,35.109489],[126.933811,35.109517]]]]}},{"type":"Feature","id":"0000193892971793272300000000","properties":{"id":"0000193892971793272300000000","pnu":"1221012600202630000","purpose":"기타"},"geometry":{"type":"MultiPolygon","coordinates":[[[[126.933835,35.112972],[126.933773,35.113019],[126.933803,35.113046],[126.933865,35.113],[126.933835,35.112972]]]]}},{"type":"Feature","id":"0000193922371794561600000000","properties":{"id":"0000193922371794561600000000","pnu":"1221012600202610002","purpose":"기타"},"geometry":{"type":"MultiPolygon","coordinates":[[[[126.934178,35.114208],[126.9342,35.114158],[126.934101,35.114136],[126.934082,35.114184],[126.934178,35.114208]]]]}},{"type":"Feature","id":"0000194058771796970500000000","properties":{"id":"0000194058771796970500000000","pnu":"1221011900102000000","purpose":"기타"},"geometry":{"type":"MultiPolygon","coordinates":[[[[126.935463,35.11622],[126.935412,35.116298],[126.935808,35.116467],[126.935858,35.116389],[126.935463,35.11622]]]]}},{"type":"Feature","id":"0000194062171796680100000000","properties":{"id":"0000194062171796680100000000","pnu":"1221011900102000000","purpose":"기타"},"geometry":{"type":"MultiPolygon","coordinates":[[[[126.935594,35.116011],[126.935558,35.116072],[126.935752,35.116155],[126.935782,35.116108],[126.935735,35.116063],[126.935594,35.116011]]]]}},{"type":"Feature","id":"0000194063151796886600000000","properties":{"id":"0000194063151796886600000000","pnu":"1221011900102000000","purpose":"기타"},"geometry":{"type":"MultiPolygon","coordinates":[[[[126.935504,35.116148],[126.935463,35.116218],[126.935858,35.116387],[126.935904,35.116317],[126.935504,35.116148]]]]}},{"type":"Feature","id":"0000194067221796804200000000","properties":{"id":"0000194067221796804200000000","pnu":"1221011900102000000","purpose":"기타"},"geometry":{"type":"MultiPolygon","coordinates":[[[[126.935951,35.116243],[126.935555,35.116072],[126.93551,35.116148],[126.9359,35.116313],[126.935951,35.116243]]]]}},{"type":"Feature","id":"0000194072471796387700000000","properties":{"id":"0000194072471796387700000000","pnu":"1221011900101970000","purpose":"기타"},"geometry":{"type":"MultiPolygon","coordinates":[[[[126.935706,35.115784],[126.935681,35.115838],[126.935812,35.115851],[126.935932,35.115809],[126.935706,35.115784]]]]}},{"type":"Feature","id":"0000194079011796334100000000","properties":{"id":"0000194079011796334100000000","pnu":"1221011900101970000","purpose":"기타"},"geometry":{"type":"MultiPolygon","coordinates":[[[[126.935736,35.115731],[126.935707,35.115782],[126.935934,35.115807],[126.936045,35.115764],[126.935736,35.115731]]]]}},{"type":"Feature","id":"0000194082981796281100000000","properties":{"id":"0000194082981796281100000000","pnu":"1221011900101970000","purpose":"기타"},"geometry":{"type":"MultiPolygon","coordinates":[[[[126.935758,35.11568],[126.935735,35.11573],[126.936045,35.115764],[126.936067,35.115714],[126.935758,35.11568]]]]}},{"type":"Feature","id":"0000194086081796226000000000","properties":{"id":"0000194086081796226000000000","pnu":"1221011900101970000","purpose":"기타"},"geometry":{"type":"MultiPolygon","coordinates":[[[[126.935782,35.115629],[126.935758,35.115679],[126.936088,35.115715],[126.936115,35.115667],[126.935782,35.115629]]]]}},{"type":"Feature","id":"0000194088571796169400000000","properties":{"id":"0000194088571796169400000000","pnu":"1221011900101970000","purpose":"기타"},"geometry":{"type":"MultiPolygon","coordinates":[[[[126.935809,35.115578],[126.935784,35.115628],[126.936116,35.115666],[126.936139,35.115615],[126.935809,35.115578]]]]}},{"type":"Feature","id":"0000194090071797777800000000","properties":{"id":"0000194090071797777800000000","pnu":"1221011900202340001","purpose":"기타"},"geometry":{"type":"MultiPolygon","coordinates":[[[[126.935906,35.117054],[126.936025,35.117119],[126.936049,35.117089],[126.935931,35.117023],[126.935906,35.117054]]]]}},{"type":"Feature","id":"0000194091101796114100000000","properties":{"id":"0000194091101796114100000000","pnu":"1221011900101970000","purpose":"기타"},"geometry":{"type":"MultiPolygon","coordinates":[[[[126.935838,35.115528],[126.935812,35.115578],[126.936141,35.115615],[126.936171,35.115566],[126.935838,35.115528]]]]}},{"type":"Feature","id":"0000194093601796056900000000","properties":{"id":"0000194093601796056900000000","pnu":"1221011900101970000","purpose":"기타"},"geometry":{"type":"MultiPolygon","coordinates":[[[[126.935865,35.115476],[126.935839,35.115527],[126.936172,35.115564],[126.936197,35.115514],[126.935865,35.115476]]]]}},{"type":"Feature","id":"0000194095921795998800000000","properties":{"id":"0000194095921795998800000000","pnu":"1221011900101970002","purpose":"기타"},"geometry":{"type":"MultiPolygon","coordinates":[[[[126.935891,35.115423],[126.935865,35.115475],[126.936197,35.115513],[126.93622,35.11546],[126.935891,35.115423]]]]}},{"type":"Feature","id":"0000194098311795939200000000","properties":{"id":"0000194098311795939200000000","pnu":"1221011900101970002","purpose":"기타"},"geometry":{"type":"MultiPolygon","coordinates":[[[[126.936246,35.115408],[126.935918,35.11537],[126.935893,35.115421],[126.936222,35.115458],[126.936246,35.115408]]]]}},{"type":"Feature","id":"0000194100461795883400000000","properties":{"id":"0000194100461795883400000000","pnu":"1221011900101970002","purpose":"기타"},"geometry":{"type":"MultiPolygon","coordinates":[[[[126.936272,35.115361],[126.935942,35.11532],[126.935918,35.115369],[126.936247,35.115406],[126.936272,35.115361]]]]}},{"type":"Feature","id":"0000194103071795829200000000","properties":{"id":"0000194103071795829200000000","pnu":"1221011900101970002","purpose":"기타"},"geometry":{"type":"MultiPolygon","coordinates":[[[[126.935943,35.115319],[126.936275,35.115357],[126.936297,35.115309],[126.935966,35.115273],[126.935943,35.115319]]]]}},{"type":"Feature","id":"0000194104481795318500000000","properties":{"id":"0000194104481795318500000000","pnu":"1221011900101890002","purpose":"기타"},"geometry":{"type":"MultiPolygon","coordinates":[[[[126.936119,35.114865],[126.936145,35.114872],[126.936157,35.114844],[126.93613,35.114837],[126.936119,35.114865]]]]}},{"type":"Feature","id":"0000194117741796125500000000","properties":{"id":"0000194117741796125500000000","pnu":"1221011900101970000","purpose":"기타"},"geometry":{"type":"MultiPolygon","coordinates":[[[[126.936289,35.115471],[126.936213,35.115677],[126.936276,35.115693],[126.936352,35.115487],[126.936289,35.115471]]]]}},{"type":"Feature","id":"0000194122071795852500000000","properties":{"id":"0000194122071795852500000000","pnu":"1221011900101970002","purpose":"기타"},"geometry":{"type":"MultiPolygon","coordinates":[[[[126.936318,35.115229],[126.936281,35.115439],[126.936342,35.115446],[126.936379,35.115231],[126.936318,35.115229]]]]}},{"type":"Feature","id":"0000194242901789775500000000","properties":{"id":"0000194242901789775500000000","pnu":"1221011900101730001","purpose":"기타","structure":"철근콘크리트구조"},"geometry":{"type":"MultiPolygon","coordinates":[[[[126.937619,35.109891],[126.937717,35.109858],[126.937701,35.10983],[126.937608,35.109856],[126.937619,35.109891]]]]}},{"type":"Feature","id":"0000194246911788906200000000","properties":{"id":"0000194246911788906200000000","pnu":"1221011900101660000","purpose":"기타"},"geometry":{"type":"MultiPolygon","coordinates":[[[[126.93763,35.109108],[126.937779,35.10911],[126.937777,35.109043],[126.937632,35.109041],[126.93763,35.109108]]]]}},{"type":"Feature","id":"0000194305341789123900000000","properties":{"id":"0000194305341789123900000000","pnu":"1221011900101660000","purpose":"기타"},"geometry":{"type":"MultiPolygon","coordinates":[[[[126.938334,35.109322],[126.938401,35.10925],[126.938355,35.109223],[126.93829,35.109293],[126.938334,35.109322]]]]}},{"type":"Feature","id":"1964193540341798434900000000","properties":{"id":"1964193540341798434900000000","pnu":"1221012600101880001","year":1964,"purpose":"제2종 근린생활시설"},"geometry":{"type":"MultiPolygon","coordinates":[[[[126.929932,35.117726],[126.930022,35.11767],[126.929934,35.117601],[126.929886,35.117623],[126.929932,35.117726]]]]}},{"type":"Feature","id":"1964193545021798390900000000","properties":{"id":"1964193545021798390900000000","pnu":"1221012600101880001","year":1964,"purpose":"단독주택"},"geometry":{"type":"MultiPolygon","coordinates":[[[[126.93003,35.117669],[126.930056,35.117636],[126.929993,35.117588],[126.929959,35.11758],[126.929937,35.117602],[126.93003,35.117669]]]]}},{"type":"Feature","id":"1964193556211798533500000000","properties":{"id":"1964193556211798533500000000","pnu":"1221012600101890000","purpose":"단독주택","floors":1,"structure":"일반목구조"},"geometry":{"type":"MultiPolygon","coordinates":[[[[126.930133,35.117808],[126.930184,35.117769],[126.930111,35.11769],[126.930057,35.117731],[126.930133,35.117808]]]]}},{"type":"Feature","id":"1970193527401797504300000000","properties":{"id":"1970193527401797504300000000","pnu":"1221012600101300000","year":1970,"purpose":"제2종 근린생활시설","far":14.09,"floors":1,"structure":"벽돌구조"},"geometry":{"type":"MultiPolygon","coordinates":[[[[126.929874,35.116772],[126.92974,35.116759],[126.929729,35.116828],[126.929774,35.116833],[126.929766,35.116885],[126.929855,35.116894],[126.929874,35.116772]]]]}},{"type":"Feature","id":"1979193576881798334000000000","properties":{"id":"1979193576881798334000000000","pnu":"1221012600101440002","year":1979,"purpose":"단독주택"},"geometry":{"type":"MultiPolygon","coordinates":[[[[126.930312,35.117569],[126.930325,35.117593],[126.930383,35.117571],[126.93037,35.117545],[126.930312,35.117569]]]]}},{"type":"Feature","id":"1979193586301798347300000000","properties":{"id":"1979193586301798347300000000","pnu":"1221012600101440002","year":1979,"purpose":"단독주택"},"geometry":{"type":"MultiPolygon","coordinates":[[[[126.93042,35.117635],[126.930522,35.11758],[126.93049,35.11753],[126.930378,35.117579],[126.93042,35.117635]]]]}},{"type":"Feature","id":"1979193591901798275700000000","properties":{"id":"1979193591901798275700000000","pnu":"1221012600101440002","year":1979,"purpose":"단독주택"},"geometry":{"type":"MultiPolygon","coordinates":[[[[126.930551,35.117543],[126.93051,35.117476],[126.930474,35.117491],[126.930515,35.117558],[126.930551,35.117543]]]]}},{"type":"Feature","id":"1983193570601798786500000000","properties":{"id":"1983193570601798786500000000","pnu":"1221012600101860000","year":1983,"purpose":"단독주택"},"geometry":{"type":"MultiPolygon","coordinates":[[[[126.930261,35.118022],[126.930323,35.11801],[126.930292,35.117931],[126.930236,35.117944],[126.930261,35.118022]]]]}},{"type":"Feature","id":"1985193945911794530300000000","properties":{"id":"1985193945911794530300000000","pnu":"1221012600106360118","year":1985,"purpose":"단독주택"},"geometry":{"type":"MultiPolygon","coordinates":[[[[126.93436,35.114185],[126.934427,35.11419],[126.934438,35.114102],[126.934371,35.114096],[126.93436,35.114185]]]]}},{"type":"Feature","id":"1985193957011794673500000000","properties":{"id":"1985193957011794673500000000","pnu":"1221012600106360118","year":1985,"purpose":"단독주택"},"geometry":{"type":"MultiPolygon","coordinates":[[[[126.934452,35.114216],[126.934446,35.114286],[126.934582,35.114327],[126.934603,35.114265],[126.934452,35.114216]]]]}},{"type":"Feature","id":"1990193561781798799100000000","properties":{"id":"1990193561781798799100000000","pnu":"1221012600101850000","year":1990,"purpose":"단독주택"},"geometry":{"type":"MultiPolygon","coordinates":[[[[126.930206,35.117956],[126.930137,35.117966],[126.930123,35.118004],[126.930226,35.118018],[126.930242,35.118012],[126.930206,35.117956]]]]}},{"type":"Feature","id":"1991193548901798780400000000","properties":{"id":"1991193548901798780400000000","pnu":"1221012600101900000","year":1991,"purpose":"단독주택","far":70.22,"floors":2,"structure":"벽돌구조"},"geometry":{"type":"MultiPolygon","coordinates":[[[[126.930107,35.118022],[126.930121,35.11794],[126.929974,35.117919],[126.929963,35.118005],[126.930107,35.118022]]]]}},{"type":"Feature","id":"1991193640151798669200000000","properties":{"id":"1991193640151798669200000000","pnu":"1221012600101470001","year":1991,"purpose":"공동주택","floors":15,"structure":"철근콘크리트구조"},"geometry":{"type":"MultiPolygon","coordinates":[[[[126.930681,35.117845],[126.930863,35.118129],[126.93097,35.11808],[126.930952,35.118047],[126.931016,35.118022],[126.931002,35.117986],[126.931288,35.11784],[126.93127,35.117793],[126.931444,35.117702],[126.93139,35.117614],[126.931128,35.117736],[126.931146,35.117763],[126.930855,35.117912],[126.93078,35.117801],[126.930681,35.117845]]]]}},{"type":"Feature","id":"1991193763331792354900000000","properties":{"id":"1991193763331792354900000000","pnu":"1221012600100980004","year":1991,"purpose":"단독주택","far":28.26,"floors":1,"structure":"벽돌구조"},"geometry":{"type":"MultiPolygon","coordinates":[[[[126.932475,35.112197],[126.932422,35.112149],[126.932434,35.112141],[126.932395,35.112107],[126.932338,35.112146],[126.93235,35.112165],[126.932325,35.112182],[126.932405,35.112254],[126.932475,35.112197]]]]}},{"type":"Feature","id":"1992193514021797493500000000","properties":{"id":"1992193514021797493500000000","pnu":"1221012600101300001","year":1992,"purpose":"단독주택","far":60.87,"floors":2,"structure":"벽돌구조"},"geometry":{"type":"MultiPolygon","coordinates":[[[[126.929711,35.116771],[126.929611,35.116769],[126.929608,35.116837],[126.929631,35.116839],[126.929631,35.116858],[126.929697,35.116859],[126.929711,35.116771]]]]}},{"type":"Feature","id":"1994193678791791409100000000","properties":{"id":"1994193678791791409100000000","pnu":"1221012600100900001","year":1994,"purpose":"제2종 근린생활시설","far":46.83,"floors":2,"structure":"벽돌구조"},"geometry":{"type":"MultiPolygon","coordinates":[[[[126.931455,35.111259],[126.931391,35.111356],[126.9315,35.111398],[126.931517,35.111362],[126.931512,35.111358],[126.931544,35.111293],[126.931455,35.111259]]]]}},{"type":"Feature","id":"1994193875471798757000000000","properties":{"id":"1994193875471798757000000000","pnu":"1221012600101680007","year":1994,"purpose":"기타","far":78.45,"floors":2,"structure":"철근콘크리트구조"},"geometry":{"type":"MultiPolygon","coordinates":[[[[126.933743,35.117984],[126.933667,35.117957],[126.933748,35.117754],[126.933684,35.117736],[126.933453,35.118049],[126.933657,35.118113],[126.933671,35.118089],[126.933683,35.118093],[126.933743,35.117984]]]]}},{"type":"Feature","id":"1994193892371798645000000000","properties":{"id":"1994193892371798645000000000","pnu":"1221012600101680007","year":1994,"purpose":"기타","far":78.45,"floors":2,"structure":"철근콘크리트구조"},"geometry":{"type":"MultiPolygon","coordinates":[[[[126.93384,35.117938],[126.933902,35.117804],[126.933776,35.117767],[126.933714,35.117897],[126.93384,35.117938]]]]}},{"type":"Feature","id":"1995193716391792139500000000","properties":{"id":"1995193716391792139500000000","pnu":"1221012600100920000","year":1995,"purpose":"단독주택","far":14.97,"floors":1,"structure":"벽돌구조"},"geometry":{"type":"MultiPolygon","coordinates":[[[[126.931878,35.111899],[126.931794,35.11195],[126.931841,35.112002],[126.931832,35.112006],[126.931893,35.112075],[126.931968,35.112029],[126.931934,35.111988],[126.931944,35.111981],[126.931878,35.111899]]]]}},{"type":"Feature","id":"1996194131011788673900000000","properties":{"id":"1996194131011788673900000000","pnu":"1221012300102580003","year":1996,"purpose":"기타","far":48.25,"floors":1,"structure":"벽돌구조"},"geometry":{"type":"MultiPolygon","coordinates":[[[[126.93639,35.108943],[126.9365,35.108928],[126.936488,35.10887],[126.936495,35.108858],[126.936478,35.10883],[126.936469,35.108781],[126.936414,35.108785],[126.936367,35.108839],[126.93639,35.108943]]]]}},{"type":"Feature","id":"1996194132111788808000000000","properties":{"id":"1996194132111788808000000000","pnu":"1221012300102580003","purpose":"기타","structure":"벽돌구조"},"geometry":{"type":"MultiPolygon","coordinates":[[[[126.936411,35.109042],[126.936439,35.109038],[126.936512,35.108965],[126.936504,35.108945],[126.936391,35.108959],[126.936411,35.109042]]]]}},{"type":"Feature","id":"1998194130501788402500000000","properties":{"id":"1998194130501788402500000000","pnu":"1221012300102560000","year":1998,"purpose":"제1종 근린생활시설"},"geometry":{"type":"MultiPolygon","coordinates":[[[[126.936384,35.108682],[126.93649,35.10867],[126.93647,35.108557],[126.936366,35.108575],[126.936384,35.108682]]]]}},{"type":"Feature","id":"1999194129431788224800000000","properties":{"id":"1999194129431788224800000000","pnu":"1221012300102560015","year":1999,"purpose":"단독주택","floors":1,"structure":"경량철골구조"},"geometry":{"type":"MultiPolygon","coordinates":[[[[126.936392,35.108525],[126.936463,35.108515],[126.93644,35.108397],[126.936371,35.108406],[126.936392,35.108525]]]]}},{"type":"Feature","id":"2000193917891794670400000000","properties":{"id":"2000193917891794670400000000","pnu":"1221012600202610002","year":2000,"purpose":"단독주택","far":59.82,"floors":1,"structure":"벽돌구조"},"geometry":{"type":"MultiPolygon","coordinates":[[[[126.93412,35.114346],[126.93417,35.114222],[126.934063,35.114192],[126.934012,35.114317],[126.93412,35.114346]]]]}},{"type":"Feature","id":"2002193907151798296400000000","properties":{"id":"2002193907151798296400000000","pnu":"1221012600101680002","year":2002,"purpose":"제1종 근린생활시설","far":38.84,"floors":2,"structure":"경량철골구조"},"geometry":{"type":"MultiPolygon","coordinates":[[[[126.934063,35.117423],[126.933945,35.117403],[126.933878,35.117654],[126.934,35.117669],[126.934063,35.117423]]]]}},{"type":"Feature","id":"2002194247431789874400000000","properties":{"id":"2002194247431789874400000000","pnu":"1221011900101730001","year":2002,"purpose":"기타","far":41.55,"floors":1,"structure":"철근콘크리트구조"},"geometry":{"type":"MultiPolygon","coordinates":[[[[126.937655,35.110018],[126.937804,35.109971],[126.937768,35.10989],[126.93774,35.109897],[126.937733,35.109882],[126.937659,35.109901],[126.937665,35.109918],[126.937617,35.109936],[126.937655,35.110018]]]]}},{"type":"Feature","id":"2003194356431788254000000000","properties":{"id":"2003194356431788254000000000","pnu":"1221011900101660000","year":2003,"purpose":"기타","far":0.36,"floors":1,"structure":"일반철골구조"},"geometry":{"type":"MultiPolygon","coordinates":[[[[126.938918,35.108602],[126.939034,35.108538],[126.938891,35.108375],[126.93878,35.108435],[126.938918,35.108602]]]]}},{"type":"Feature","id":"2004193508171798284400000000","properties":{"id":"2004193508171798284400000000","pnu":"1221012600101880002","year":2004,"purpose":"제2종 근린생활시설"},"geometry":{"type":"MultiPolygon","coordinates":[[[[126.929576,35.117496],[126.929561,35.117541],[126.929612,35.117552],[126.929627,35.117508],[126.929576,35.117496]]]]}},{"type":"Feature","id":"2004193529291798349900000000","properties":{"id":"2004193529291798349900000000","pnu":"1221012600101880002","year":2004,"purpose":"제2종 근린생활시설"},"geometry":{"type":"MultiPolygon","coordinates":[[[[126.929778,35.117531],[126.929759,35.117577],[126.92978,35.117624],[126.929844,35.117643],[126.929854,35.117618],[126.929879,35.117613],[126.929903,35.117555],[126.929778,35.117531]]]]}},{"type":"Feature","id":"2004193916761789856300000000","properties":{"id":"2004193916761789856300000000","pnu":"1221012600100010001","year":2004,"purpose":"기타","floors":1,"structure":"일반철골구조"},"geometry":{"type":"MultiPolygon","coordinates":[[[[126.934035,35.109976],[126.934132,35.109976],[126.934131,35.109914],[126.934122,35.109899],[126.934116,35.10989],[126.934109,35.109882],[126.934098,35.109876],[126.934079,35.109875],[126.934063,35.109877],[126.934052,35.109881],[126.934047,35.109886],[126.934043,35.109895],[126.93404,35.109905],[126.934038,35.109919],[126.934032,35.10992],[126.934035,35.109976]]]]}},{"type":"Feature","id":"2004193926041788079200000000","properties":{"id":"2004193926041788079200000000","pnu":"1221012600100010001","year":2004,"purpose":"기타","floors":3,"structure":"철근콘크리트구조"},"geometry":{"type":"MultiPolygon","coordinates":[[[[126.93412,35.108656],[126.934281,35.108651],[126.934251,35.108],[126.93409,35.108005],[126.93412,35.108656]]]]}},{"type":"Feature","id":"2004193938361788386800000000","properties":{"id":"2004193938361788386800000000","pnu":"1221012600100010001","year":2004,"purpose":"기타","floors":1,"structure":"철근콘크리트구조"},"geometry":{"type":"MultiPolygon","coordinates":[[[[126.934343,35.108636],[126.934341,35.108574],[126.934298,35.108575],[126.9343,35.108637],[126.934343,35.108636]]]]}},{"type":"Feature","id":"2004193946851789257600000000","properties":{"id":"2004193946851789257600000000","pnu":"1221012600100010001","year":2004,"purpose":"기타","floors":6,"structure":"철근콘크리트구조"},"geometry":{"type":"MultiPolygon","coordinates":[[[[126.934332,35.109639],[126.934405,35.109637],[126.93441,35.109641],[126.934416,35.109643],[126.934423,35.109644],[126.934429,35.109643],[126.934432,35.109642],[126.934435,35.109639],[126.934437,35.109637],[126.934507,35.109631],[126.934499,35.109547],[126.934512,35.109547],[126.934507,35.109461],[126.934515,35.109447],[126.934522,35.109432],[126.934526,35.109416],[126.93453,35.1094],[126.93453,35.109383],[126.934529,35.109373],[126.93452,35.109347],[126.934511,35.10933],[126.9345,35.109317],[126.934492,35.109307],[126.934491,35.109223],[126.934485,35.109222],[126.934482,35.109141],[126.934409,35.109143],[126.934406,35.109137],[126.934402,35.109135],[126.934397,35.109134],[126.934394,35.109136],[126.934392,35.109139],[126.934385,35.109142],[126.934311,35.109142],[126.934332,35.109639]]]]}},{"type":"Feature","id":"2004193949751790028600000000","properties":{"id":"2004193949751790028600000000","pnu":"1221012600100010001","year":2004,"purpose":"기타","floors":1,"structure":"철근콘크리트구조"},"geometry":{"type":"MultiPolygon","coordinates":[[[[126.934636,35.110217],[126.934625,35.109942],[126.934255,35.109952],[126.934263,35.110231],[126.934636,35.110217]]]]}},{"type":"Feature","id":"2004193974411791674600000000","properties":{"id":"2004193974411791674600000000","pnu":"1221012600100010001","year":2004,"purpose":"기타","floors":2,"structure":"일반철골구조"},"geometry":{"type":"MultiPolygon","coordinates":[[[[126.934379,35.112606],[126.935107,35.112585],[126.935041,35.1111],[126.934897,35.111104],[126.934836,35.109759],[126.934653,35.109764],[126.93471,35.110972],[126.934306,35.110985],[126.934379,35.112606]]]]}},{"type":"Feature","id":"2004194002941790592300000000","properties":{"id":"2004194002941790592300000000","pnu":"1221012600100010001","year":2004,"purpose":"기타","floors":1,"structure":"철근콘크리트구조"},"geometry":{"type":"MultiPolygon","coordinates":[[[[126.934998,35.110638],[126.935058,35.110637],[126.935056,35.11055],[126.934996,35.110551],[126.934998,35.110638]]]]}},{"type":"Feature","id":"2004194003151788000700000000","properties":{"id":"2004194003151788000700000000","pnu":"1221012600100010001","year":2004,"purpose":"기타","floors":1,"structure":"철근콘크리트구조"},"geometry":{"type":"MultiPolygon","coordinates":[[[[126.934987,35.108342],[126.935085,35.108338],[126.935076,35.108174],[126.934978,35.108178],[126.934987,35.108342]]]]}},{"type":"Feature","id":"2004194011351792963800000000","properties":{"id":"2004194011351792963800000000","pnu":"1221012600100010001","year":2004,"purpose":"기타","floors":1,"structure":"철근콘크리트구조"},"geometry":{"type":"MultiPolygon","coordinates":[[[[126.935208,35.112772],[126.935204,35.112678],[126.935065,35.112682],[126.935067,35.112725],[126.935007,35.112727],[126.935009,35.112778],[126.935208,35.112772]]]]}},{"type":"Feature","id":"2004194037441789653600000000","properties":{"id":"2004194037441789653600000000","pnu":"1221012600100010001","year":2004,"purpose":"기타","floors":1,"structure":"철근콘크리트구조"},"geometry":{"type":"MultiPolygon","coordinates":[[[[126.93533,35.109612],[126.935344,35.109889],[126.935483,35.109884],[126.935468,35.109607],[126.93533,35.109612]]]]}},{"type":"Feature","id":"2004194051111792919300000000","properties":{"id":"2004194051111792919300000000","pnu":"1221012600100010001","year":2004,"purpose":"기타","floors":1,"structure":"철근콘크리트구조"},"geometry":{"type":"MultiPolygon","coordinates":[[[[126.935646,35.112469],[126.935443,35.112477],[126.935461,35.112914],[126.935666,35.112907],[126.935646,35.112469]]]]}},{"type":"Feature","id":"2004194073871791773200000000","properties":{"id":"2004194073871791773200000000","pnu":"1221012600100010001","year":2004,"purpose":"기타","floors":1,"structure":"철근콘크리트구조"},"geometry":{"type":"MultiPolygon","coordinates":[[[[126.935793,35.11168],[126.935817,35.111679],[126.935816,35.111638],[126.935792,35.111638],[126.935793,35.11168]]]]}},{"type":"Feature","id":"2004194080091789618600000000","properties":{"id":"2004194080091789618600000000","pnu":"1221012600100010001","year":2004,"purpose":"기타","floors":1,"structure":"철근콘크리트구조"},"geometry":{"type":"MultiPolygon","coordinates":[[[[126.935837,35.109681],[126.93584,35.109754],[126.935911,35.109752],[126.935909,35.10968],[126.935837,35.109681]]]]}},{"type":"Feature","id":"2004194082571790931500000000","properties":{"id":"2004194082571790931500000000","pnu":"1221012600100010001","year":2004,"purpose":"기타","floors":1,"structure":"철근콘크리트구조"},"geometry":{"type":"MultiPolygon","coordinates":[[[[126.93583,35.110683],[126.935853,35.111121],[126.935971,35.111117],[126.935948,35.110679],[126.93583,35.110683]]]]}},{"type":"Feature","id":"2004194104031790607900000000","properties":{"id":"2004194104031790607900000000","pnu":"1221012600100010001","year":2004,"purpose":"기타","floors":1,"structure":"철근콘크리트구조"},"geometry":{"type":"MultiPolygon","coordinates":[[[[126.936097,35.110542],[126.936101,35.110677],[126.936176,35.110675],[126.936171,35.11054],[126.936097,35.110542]]]]}},{"type":"Feature","id":"2004194107541795565000000000","properties":{"id":"2004194107541795565000000000","pnu":"1221011900101890001","year":2004,"purpose":"기타","far":37.17,"floors":1,"structure":"일반철골구조"},"geometry":{"type":"MultiPolygon","coordinates":[[[[126.936163,35.114928],[126.936064,35.115135],[126.936078,35.115139],[126.936054,35.115191],[126.936175,35.11523],[126.936298,35.11497],[126.936163,35.114928]]]]}},{"type":"Feature","id":"2004194125131796548100000000","properties":{"id":"2004194125131796548100000000","pnu":"1221011900101980001","year":2004,"purpose":"단독주택","far":44.77,"floors":1,"structure":"경량철골구조"},"geometry":{"type":"MultiPolygon","coordinates":[[[[126.936335,35.116039],[126.936448,35.116005],[126.936391,35.115886],[126.936279,35.115923],[126.936335,35.116039]]]]}},{"type":"Feature","id":"2004194130381796577900000000","properties":{"id":"2004194130381796577900000000","pnu":"1221011900101980001","year":2004,"purpose":"기타","floors":1,"structure":"경량철골구조"},"geometry":{"type":"MultiPolygon","coordinates":[[[[126.93644,35.115873],[126.936395,35.115888],[126.936452,35.116006],[126.936339,35.11604],[126.936345,35.116058],[126.93639,35.11607],[126.936415,35.116063],[126.936417,35.116069],[126.936462,35.116057],[126.936449,35.116022],[126.936472,35.116016],[126.936444,35.115942],[126.936464,35.115937],[126.93644,35.115873]]]]}},{"type":"Feature","id":"2007193850081788456700000000","properties":{"id":"2007193850081788456700000000","pnu":"1221012600100590001","year":2007,"purpose":"단독주택"},"geometry":{"type":"MultiPolygon","coordinates":[[[[126.933348,35.108636],[126.933321,35.108688],[126.933357,35.1087],[126.933384,35.108648],[126.933348,35.108636]]]]}},{"type":"Feature","id":"2007193864721788526600000000","properties":{"id":"2007193864721788526600000000","pnu":"1221012600100590001","year":2007,"purpose":"단독주택"},"geometry":{"type":"MultiPolygon","coordinates":[[[[126.933528,35.108696],[126.933467,35.108739],[126.933497,35.108767],[126.933558,35.108723],[126.933528,35.108696]]]]}},{"type":"Feature","id":"2007193868051788572000000000","properties":{"id":"2007193868051788572000000000","pnu":"1221012600100590001","year":2007,"purpose":"단독주택","far":7.1612,"floors":1,"structure":"벽돌구조"},"geometry":{"type":"MultiPolygon","coordinates":[[[[126.933535,35.108819],[126.933612,35.108759],[126.933572,35.108728],[126.933485,35.108777],[126.933535,35.108819]]]]}},{"type":"Feature","id":"2007193919181792192000000000","properties":{"id":"2007193919181792192000000000","pnu":"1221012600100790001","year":2007,"purpose":"단독주택"},"geometry":{"type":"MultiPolygon","coordinates":[[[[126.934057,35.11205],[126.934151,35.112057],[126.934153,35.112018],[126.934067,35.112014],[126.934057,35.11205]]]]}},{"type":"Feature","id":"2007193983051794272400000000","properties":{"id":"2007193983051794272400000000","pnu":"1221012600106360056","year":2007,"purpose":"제2종 근린생활시설","far":19.07,"floors":1,"structure":"일반철골구조"},"geometry":{"type":"MultiPolygon","coordinates":[[[[126.93495,35.113885],[126.934853,35.113793],[126.934672,35.113926],[126.934694,35.113949],[126.934679,35.113965],[126.934723,35.114004],[126.934733,35.113996],[126.934768,35.114025],[126.93495,35.113885]]]]}},{"type":"Feature","id":"2007194001201797724300000000","properties":{"id":"2007194001201797724300000000","pnu":"1221011900102040000","year":2007,"purpose":"기타","far":55.54,"floors":1,"structure":"강파이프구조"},"geometry":{"type":"MultiPolygon","coordinates":[[[[126.934888,35.117109],[126.935011,35.11715],[126.935118,35.116935],[126.934994,35.116896],[126.934888,35.117109]]]]}},{"type":"Feature","id":"2008193681661791525600000000","properties":{"id":"2008193681661791525600000000","pnu":"1221012600100900001","year":2008,"purpose":"제2종 근린생활시설","far":1.2676,"floors":1,"structure":"경량철골구조"},"geometry":{"type":"MultiPolygon","coordinates":[[[[126.931484,35.111436],[126.93151,35.111447],[126.931522,35.111432],[126.931495,35.111419],[126.931484,35.111436]]]]}},{"type":"Feature","id":"2008193964151792937900000000","properties":{"id":"2008193964151792937900000000","pnu":"1221012600100010001","year":2008,"purpose":"기타","floors":1,"structure":"일반철골구조"},"geometry":{"type":"MultiPolygon","coordinates":[[[[126.934634,35.112689],[126.934566,35.112689],[126.934566,35.112727],[126.934634,35.112727],[126.934634,35.112689]]]]}},{"type":"Feature","id":"2009193775591792418400000000","properties":{"id":"2009193775591792418400000000","pnu":"1221012600100980002","year":2009,"purpose":"단독주택","far":31.45,"floors":1,"structure":"벽돌구조"},"geometry":{"type":"MultiPolygon","coordinates":[[[[126.932497,35.112185],[126.932459,35.112232],[126.932567,35.112292],[126.932605,35.112245],[126.932497,35.112185]]]]}},{"type":"Feature","id":"2011193620871798349500000000","properties":{"id":"2011193620871798349500000000","pnu":"1221012600101450001","year":2011,"purpose":"기타","far":123.37,"floors":3,"structure":"철근콘크리트구조"},"geometry":{"type":"MultiPolygon","coordinates":[[[[126.930702,35.117495],[126.930686,35.117589],[126.930723,35.117625],[126.930722,35.11764],[126.930746,35.11764],[126.930745,35.117655],[126.930767,35.117656],[126.930765,35.117697],[126.930841,35.117697],[126.930842,35.117669],[126.930887,35.117664],[126.930894,35.117623],[126.93098,35.117627],[126.930988,35.117522],[126.930704,35.117495],[126.930702,35.117495]]]]}},{"type":"Feature","id":"2013193736651798483500000000","properties":{"id":"2013193736651798483500000000","pnu":"1221012600101740003","year":2013,"purpose":"제2종 근린생활시설"},"geometry":{"type":"MultiPolygon","coordinates":[[[[126.932113,35.117656],[126.93206,35.117667],[126.932087,35.117754],[126.932141,35.117743],[126.932113,35.117656]]]]}}]}
