{"type":"FeatureCollection","features":[{"type":"Feature","id":"0000193805771785405400000000","properties":{"id":"0000193805771785405400000000","pnu":"1221012300103180000"},"geometry":{"type":"MultiPolygon","coordinates":[[[[126.932839,35.105868],[126.932821,35.105957],[126.932898,35.105968],[126.932916,35.105878],[126.932839,35.105868]]]]}},{"type":"Feature","id":"0000193809511785081000000000","properties":{"id":"0000193809511785081000000000","pnu":"1221012300103090000"},"geometry":{"type":"MultiPolygon","coordinates":[[[[126.932853,35.105638],[126.932946,35.105663],[126.932966,35.105612],[126.932874,35.105587],[126.932853,35.105638]]]]}},{"type":"Feature","id":"0000193814821785751300000000","properties":{"id":"0000193814821785751300000000","pnu":"1221012300103280000"},"geometry":{"type":"MultiPolygon","coordinates":[[[[126.932963,35.106276],[126.933016,35.106205],[126.932972,35.106183],[126.932919,35.106254],[126.932963,35.106276]]]]}},{"type":"Feature","id":"0000193820841784704300000000","properties":{"id":"0000193820841784704300000000","pnu":"1221012300102790000"},"geometry":{"type":"MultiPolygon","coordinates":[[[[126.93307,35.105371],[126.93309,35.105208],[126.932998,35.1052],[126.932979,35.105364],[126.93307,35.105371]]]]}},{"type":"Feature","id":"0000193830251785505200000000","properties":{"id":"0000193830251785505200000000","pnu":"1221012300103160000"},"geometry":{"type":"MultiPolygon","coordinates":[[[[126.933056,35.106007],[126.933179,35.106065],[126.933218,35.106009],[126.933095,35.105951],[126.933056,35.106007]]]]}},{"type":"Feature","id":"0000193835781784771500000000","properties":{"id":"0000193835781784771500000000","pnu":"1221012300102790000"},"geometry":{"type":"MultiPolygon","coordinates":[[[[126.933206,35.105373],[126.933225,35.105325],[126.933189,35.10532],[126.933172,35.105369],[126.933206,35.105373]]]]}},{"type":"Feature","id":"0000193837221784713700000000","properties":{"id":"0000193837221784713700000000","pnu":"1221012300102790000"},"geometry":{"type":"MultiPolygon","coordinates":[[[[126.933198,35.105266],[126.933189,35.105317],[126.933229,35.105323],[126.933239,35.105271],[126.933198,35.105266]]]]}},{"type":"Feature","id":"0000193857431786161200000000","properties":{"id":"0000193857431786161200000000","pnu":"1221012300103380000"},"geometry":{"type":"MultiPolygon","coordinates":[[[[126.933406,35.106571],[126.933391,35.106607],[126.933462,35.106627],[126.933477,35.106591],[126.933406,35.106571]]]]}},{"type":"Feature","id":"0000193865121785645800000000","properties":{"id":"0000193865121785645800000000","pnu":"1221012300103310000"},"geometry":{"type":"MultiPolygon","coordinates":[[[[126.933596,35.10609],[126.933514,35.106057],[126.933442,35.106179],[126.933524,35.106212],[126.933596,35.10609]]]]}},{"type":"Feature","id":"0000193866191786068100000000","properties":{"id":"0000193866191786068100000000","pnu":"1221012300103380000"},"geometry":{"type":"MultiPolygon","coordinates":[[[[126.933533,35.106483],[126.933494,35.106533],[126.933532,35.106545],[126.933565,35.106499],[126.933533,35.106483]]]]}},{"type":"Feature","id":"0000193869401784431700000000","properties":{"id":"0000193869401784431700000000","pnu":"1221012300102830002"},"geometry":{"type":"MultiPolygon","coordinates":[[[[126.933618,35.105009],[126.933579,35.104989],[126.933516,35.105071],[126.933555,35.105091],[126.933618,35.105009]]]]}},{"type":"Feature","id":"0000193872651785805900000000","properties":{"id":"0000193872651785805900000000","pnu":"1221012300103360001"},"geometry":{"type":"MultiPolygon","coordinates":[[[[126.933662,35.106334],[126.933691,35.106273],[126.933541,35.106224],[126.933512,35.106285],[126.933662,35.106334]]]]}},{"type":"Feature","id":"0000193872781786083800000000","properties":{"id":"0000193872781786083800000000","pnu":"1221012300103390001"},"geometry":{"type":"MultiPolygon","coordinates":[[[[126.933571,35.106499],[126.933552,35.106533],[126.933634,35.106561],[126.933653,35.106525],[126.933571,35.106499]]]]}},{"type":"Feature","id":"0000193884151785013900000000","properties":{"id":"0000193884151785013900000000","pnu":"1221012300102710000"},"geometry":{"type":"MultiPolygon","coordinates":[[[[126.933678,35.105612],[126.933747,35.105628],[126.933777,35.105517],[126.933712,35.105502],[126.933678,35.105612]]]]}},{"type":"Feature","id":"0000193886241785744700000000","properties":{"id":"0000193886241785744700000000","pnu":"1221012300103360001"},"geometry":{"type":"MultiPolygon","coordinates":[[[[126.93375,35.106174],[126.9337,35.106249],[126.933755,35.106274],[126.933799,35.106196],[126.93375,35.106174]]]]}},{"type":"Feature","id":"0000193888501785645100000000","properties":{"id":"0000193888501785645100000000","pnu":"1221012300103360001"},"geometry":{"type":"MultiPolygon","coordinates":[[[[126.933802,35.106174],[126.93383,35.106125],[126.933749,35.106094],[126.933721,35.106144],[126.933802,35.106174]]]]}},{"type":"Feature","id":"0000193895371783707500000000","properties":{"id":"0000193895371783707500000000","pnu":"1221012300103010001"},"geometry":{"type":"MultiPolygon","coordinates":[[[[126.93381,35.104409],[126.933857,35.104428],[126.933894,35.104366],[126.933848,35.104347],[126.93381,35.104409]]]]}},{"type":"Feature","id":"0000193905061784347100000000","properties":{"id":"0000193905061784347100000000","pnu":"1221012300102960000"},"geometry":{"type":"MultiPolygon","coordinates":[[[[126.933923,35.104989],[126.933999,35.104983],[126.933994,35.10494],[126.933918,35.104946],[126.933923,35.104989]]]]}},{"type":"Feature","id":"0000193922441783679500000000","properties":{"id":"0000193922441783679500000000","pnu":"1221012300103740000"},"geometry":{"type":"MultiPolygon","coordinates":[[[[126.934109,35.104358],[126.93412,35.104387],[126.934191,35.104367],[126.934178,35.104338],[126.934109,35.104358]]]]}},{"type":"Feature","id":"0000193935001783658800000000","properties":{"id":"0000193935001783658800000000","pnu":"1221012300103800002"},"geometry":{"type":"MultiPolygon","coordinates":[[[[126.934329,35.104351],[126.934324,35.104326],[126.934245,35.104337],[126.934251,35.104362],[126.934329,35.104351]]]]}},{"type":"Feature","id":"0000193956151783644300000000","properties":{"id":"0000193956151783644300000000","pnu":"1221012300103800002"},"geometry":{"type":"MultiPolygon","coordinates":[[[[126.934469,35.104369],[126.934588,35.104334],[126.93457,35.104293],[126.93445,35.104328],[126.934469,35.104369]]]]}},{"type":"Feature","id":"0000193982531783215600000000","properties":{"id":"0000193982531783215600000000","pnu":"1221012300201260002"},"geometry":{"type":"MultiPolygon","coordinates":[[[[126.934845,35.103931],[126.934787,35.103917],[126.934773,35.103959],[126.934831,35.103972],[126.934845,35.103931]]]]}},{"type":"Feature","id":"0000193998221784032200000000","properties":{"id":"0000193998221784032200000000","pnu":"1221012300103780000"},"geometry":{"type":"MultiPolygon","coordinates":[[[[126.934961,35.104709],[126.935019,35.104676],[126.935,35.104653],[126.934941,35.104686],[126.934961,35.104709]]]]}},{"type":"Feature","id":"0000193998701783516200000000","properties":{"id":"0000193998701783516200000000","pnu":"1221012300103800001"},"geometry":{"type":"MultiPolygon","coordinates":[[[[126.935036,35.104224],[126.935006,35.10418],[126.934935,35.104208],[126.934968,35.104252],[126.935036,35.104224]]]]}},{"type":"Feature","id":"0000194000181783201500000000","properties":{"id":"0000194000181783201500000000","pnu":"1221012300102780003"},"geometry":{"type":"MultiPolygon","coordinates":[[[[126.934983,35.103898],[126.934968,35.103957],[126.935022,35.103966],[126.935037,35.103907],[126.934983,35.103898]]]]}},{"type":"Feature","id":"0000194001261783818500000000","properties":{"id":"0000194001261783818500000000","pnu":"1221012300103780000"},"geometry":{"type":"MultiPolygon","coordinates":[[[[126.934985,35.104539],[126.935081,35.104501],[126.935043,35.104437],[126.934947,35.104476],[126.934985,35.104539]]]]}},{"type":"Feature","id":"0000194010481783921700000000","properties":{"id":"0000194010481783921700000000","pnu":"1221012300102180000"},"geometry":{"type":"MultiPolygon","coordinates":[[[[126.935059,35.104582],[126.935083,35.104619],[126.935171,35.104581],[126.935146,35.104544],[126.935059,35.104582]]]]}},{"type":"Feature","id":"0000194015211783798300000000","properties":{"id":"0000194015211783798300000000","pnu":"1221012300102780001"},"geometry":{"type":"MultiPolygon","coordinates":[[[[126.935213,35.104468],[126.935173,35.104432],[126.93512,35.104473],[126.935161,35.104508],[126.935213,35.104468]]]]}},{"type":"Feature","id":"0000194018131783528000000000","properties":{"id":"0000194018131783528000000000","pnu":"1221012300102780001"},"geometry":{"type":"MultiPolygon","coordinates":[[[[126.935256,35.104222],[126.935202,35.104181],[126.935147,35.104235],[126.935185,35.104272],[126.935256,35.104222]]]]}},{"type":"Feature","id":"0000194018401783605300000000","properties":{"id":"0000194018401783605300000000","pnu":"1221012300102780001"},"geometry":{"type":"MultiPolygon","coordinates":[[[[126.935172,35.104336],[126.935259,35.104296],[126.935232,35.104257],[126.935145,35.104297],[126.935172,35.104336]]]]}},{"type":"Feature","id":"0000194019051782243200000000","properties":{"id":"0000194019051782243200000000","pnu":"1221012300102780004"},"geometry":{"type":"MultiPolygon","coordinates":[[[[126.935266,35.103115],[126.93528,35.10304],[126.935144,35.103028],[126.935134,35.103076],[126.935211,35.103111],[126.935266,35.103115]]]]}},{"type":"Feature","id":"0000194021291783742600000000","properties":{"id":"0000194021291783742600000000","pnu":"1221012300102780001"},"geometry":{"type":"MultiPolygon","coordinates":[[[[126.935217,35.104379],[126.935198,35.104445],[126.935258,35.104457],[126.93527,35.104417],[126.93525,35.104413],[126.935257,35.104387],[126.935217,35.104379]]]]}},{"type":"Feature","id":"0000194028761783782000000000","properties":{"id":"0000194028761783782000000000","pnu":"1221012300102780001"},"geometry":{"type":"MultiPolygon","coordinates":[[[[126.93536,35.104441],[126.935317,35.104416],[126.935271,35.104471],[126.935314,35.104495],[126.93536,35.104441]]]]}},{"type":"Feature","id":"0000194036491783746500000000","properties":{"id":"0000194036491783746500000000","pnu":"1221012300102780001"},"geometry":{"type":"MultiPolygon","coordinates":[[[[126.935367,35.104415],[126.935408,35.104452],[126.935434,35.104432],[126.935392,35.104395],[126.935367,35.104415]]]]}},{"type":"Feature","id":"0000194060811783740000000000","properties":{"id":"0000194060811783740000000000","pnu":"1221012300102170000"},"geometry":{"type":"MultiPolygon","coordinates":[[[[126.935666,35.104398],[126.935643,35.104422],[126.935668,35.104438],[126.935691,35.104414],[126.935666,35.104398]]]]}},{"type":"Feature","id":"0000194186091787002900000000","properties":{"id":"0000194186091787002900000000","pnu":"1221012300105960002"},"geometry":{"type":"MultiPolygon","coordinates":[[[[126.937066,35.107465],[126.937112,35.107275],[126.937001,35.10726],[126.936988,35.107317],[126.937002,35.107318],[126.936988,35.107381],[126.936978,35.107381],[126.936967,35.107422],[126.936982,35.107424],[126.936976,35.107449],[126.937066,35.107465]]]]}},{"type":"Feature","id":"0000194271281780930100000000","properties":{"id":"0000194271281780930100000000","pnu":"1221012300101770000"},"geometry":{"type":"MultiPolygon","coordinates":[[[[126.937967,35.101846],[126.937959,35.101925],[126.937988,35.101927],[126.937996,35.101848],[126.937967,35.101846]]]]}},{"type":"Feature","id":"0000194319441781163000000000","properties":{"id":"0000194319441781163000000000","pnu":"1221012300101770000"},"geometry":{"type":"MultiPolygon","coordinates":[[[[126.938525,35.102069],[126.938494,35.102067],[126.938486,35.102124],[126.938517,35.102127],[126.938525,35.102069]]]]}},{"type":"Feature","id":"0000194324121781152800000000","properties":{"id":"0000194324121781152800000000","pnu":"1221012300101770000"},"geometry":{"type":"MultiPolygon","coordinates":[[[[126.938535,35.10211],[126.938573,35.102113],[126.938578,35.102066],[126.938541,35.102063],[126.938535,35.10211]]]]}},{"type":"Feature","id":"0000194329051781159100000000","properties":{"id":"0000194329051781159100000000","pnu":"1221012300101770000"},"geometry":{"type":"MultiPolygon","coordinates":[[[[126.938596,35.102068],[126.93859,35.102115],[126.938625,35.102118],[126.938632,35.102072],[126.938596,35.102068]]]]}},{"type":"Feature","id":"0000194329731781034900000000","properties":{"id":"0000194329731781034900000000","pnu":"1221012300101770000"},"geometry":{"type":"MultiPolygon","coordinates":[[[[126.938585,35.101924],[126.938565,35.102027],[126.938652,35.102038],[126.938672,35.101936],[126.938585,35.101924]]]]}},{"type":"Feature","id":"0000194336441780313500000000","properties":{"id":"0000194336441780313500000000","pnu":"1221012300101770000"},"geometry":{"type":"MultiPolygon","coordinates":[[[[126.9386,35.101387],[126.938763,35.101406],[126.938785,35.101275],[126.938622,35.101257],[126.9386,35.101387]]]]}},{"type":"Feature","id":"1966193889791784505200000000","properties":{"id":"1966193889791784505200000000","pnu":"1221012300102850000"},"geometry":{"type":"MultiPolygon","coordinates":[[[[126.933779,35.105022],[126.933746,35.105056],[126.93376,35.105071],[126.933718,35.105102],[126.933724,35.105108],[126.93371,35.105117],[126.933747,35.105148],[126.933753,35.105144],[126.933791,35.105169],[126.933805,35.10516],[126.933818,35.105171],[126.933833,35.105159],[126.933845,35.105166],[126.933875,35.105138],[126.933832,35.105106],[126.933844,35.105094],[126.933812,35.105071],[126.933825,35.105054],[126.933779,35.105022]]]]}},{"type":"Feature","id":"1969193755041776627600000000","properties":{"id":"1969193755041776627600000000","pnu":"1221012500103740000"},"geometry":{"type":"MultiPolygon","coordinates":[[[[126.932358,35.098048],[126.932332,35.097953],[126.932279,35.097963],[126.932305,35.098058],[126.932358,35.098048]]]]}},{"type":"Feature","id":"1969193809811785281000000000","properties":{"id":"1969193809811785281000000000","pnu":"1221012300103120000"},"geometry":{"type":"MultiPolygon","coordinates":[[[[126.932875,35.10586],[126.932953,35.105859],[126.932951,35.105751],[126.932873,35.105752],[126.932875,35.10586]]]]}},{"type":"Feature","id":"1969193813831785492400000000","properties":{"id":"1969193813831785492400000000","pnu":"1221012300103180000"},"geometry":{"type":"MultiPolygon","coordinates":[[[[126.932975,35.10597],[126.932917,35.105993],[126.93294,35.106024],[126.932997,35.105995],[126.932975,35.10597]]]]}},{"type":"Feature","id":"1969193816591785180000000000","properties":{"id":"1969193816591785180000000000","pnu":"1221012300103120000"},"geometry":{"type":"MultiPolygon","coordinates":[[[[126.932953,35.105735],[126.932995,35.105749],[126.933021,35.105694],[126.93298,35.10568],[126.932953,35.105735]]]]}},{"type":"Feature","id":"1969193816931785345500000000","properties":{"id":"1969193816931785345500000000","pnu":"1221012300103120000"},"geometry":{"type":"MultiPolygon","coordinates":[[[[126.932942,35.105877],[126.933022,35.105896],[126.933041,35.105853],[126.932957,35.105829],[126.932954,35.105845],[126.932954,35.10586],[126.932948,35.10586],[126.932942,35.105877]]]]}},{"type":"Feature","id":"1969193827991785222400000000","properties":{"id":"1969193827991785222400000000","pnu":"1221012300103120000"},"geometry":{"type":"MultiPolygon","coordinates":[[[[126.933098,35.105733],[126.933084,35.105752],[126.933126,35.105773],[126.933141,35.105753],[126.933098,35.105733]]]]}},{"type":"Feature","id":"1969193833051784233100000000","properties":{"id":"1969193833051784233100000000","pnu":"1221012300103040000"},"geometry":{"type":"MultiPolygon","coordinates":[[[[126.933191,35.104902],[126.933205,35.104828],[126.933146,35.10482],[126.933132,35.104895],[126.933191,35.104902]]]]}},{"type":"Feature","id":"1969193850231785477000000000","properties":{"id":"1969193850231785477000000000","pnu":"1221012300103320000"},"geometry":{"type":"MultiPolygon","coordinates":[[[[126.93334,35.106046],[126.933368,35.105993],[126.933418,35.105943],[126.933381,35.105921],[126.93333,35.105975],[126.933301,35.106031],[126.93334,35.106046]]]]}},{"type":"Feature","id":"1969193856941785536500000000","properties":{"id":"1969193856941785536500000000","pnu":"1221012300103320000"},"geometry":{"type":"MultiPolygon","coordinates":[[[[126.933339,35.106056],[126.933481,35.106096],[126.933515,35.106011],[126.933462,35.105993],[126.933457,35.105999],[126.933383,35.105982],[126.933369,35.105994],[126.933339,35.106056]]]]}},{"type":"Feature","id":"1969193891211785503200000000","properties":{"id":"1969193891211785503200000000","pnu":"1221012300103350000"},"geometry":{"type":"MultiPolygon","coordinates":[[[[126.933856,35.10595],[126.93378,35.105941],[126.933751,35.10606],[126.933834,35.106071],[126.933856,35.10595]]]]}},{"type":"Feature","id":"1969193901591785566600000000","properties":{"id":"1969193901591785566600000000","pnu":"1221012300103350000"},"geometry":{"type":"MultiPolygon","coordinates":[[[[126.933928,35.106],[126.933855,35.106092],[126.933917,35.106123],[126.933958,35.106078],[126.93397,35.106024],[126.933928,35.106]]]]}},{"type":"Feature","id":"1970193882391784835300000000","properties":{"id":"1970193882391784835300000000","pnu":"1221012300102750000"},"geometry":{"type":"MultiPolygon","coordinates":[[[[126.933636,35.10541],[126.933731,35.105454],[126.93378,35.105387],[126.933741,35.105368],[126.93373,35.105384],[126.933682,35.105359],[126.933636,35.10541]]]]}},{"type":"Feature","id":"1976193798551785056500000000","properties":{"id":"1976193798551785056500000000","pnu":"1221012300103100000"},"geometry":{"type":"MultiPolygon","coordinates":[[[[126.932731,35.105596],[126.93283,35.105637],[126.932848,35.105609],[126.932784,35.105583],[126.932745,35.105571],[126.932731,35.105596]]]]}},{"type":"Feature","id":"1976193799651784957300000000","properties":{"id":"1976193799651784957300000000","pnu":"1221012300103100000"},"geometry":{"type":"MultiPolygon","coordinates":[[[[126.932744,35.10557],[126.932828,35.105595],[126.93286,35.105452],[126.932771,35.105439],[126.932744,35.10557]]]]}},{"type":"Feature","id":"1976193845851785327000000000","properties":{"id":"1976193845851785327000000000","pnu":"1221012300103150001"},"geometry":{"type":"MultiPolygon","coordinates":[[[[126.933236,35.105854],[126.933355,35.105892],[126.93338,35.10584],[126.933261,35.105802],[126.933236,35.105854]]]]}},{"type":"Feature","id":"1977193939001784522500000000","properties":{"id":"1977193939001784522500000000","pnu":"1221012300102880000"},"geometry":{"type":"MultiPolygon","coordinates":[[[[126.934313,35.10508],[126.934276,35.105115],[126.934348,35.105165],[126.934384,35.105131],[126.934313,35.10508]]]]}},{"type":"Feature","id":"1979193841011785147000000000","properties":{"id":"1979193841011785147000000000","pnu":"1221012300103140000"},"geometry":{"type":"MultiPolygon","coordinates":[[[[126.933192,35.105721],[126.933284,35.10575],[126.933297,35.105714],[126.933288,35.10571],[126.933316,35.105642],[126.933233,35.105622],[126.933192,35.105721]]]]}},{"type":"Feature","id":"1979193848451785174100000000","properties":{"id":"1979193848451785174100000000","pnu":"1221012300103140000"},"geometry":{"type":"MultiPolygon","coordinates":[[[[126.933345,35.105682],[126.933305,35.105719],[126.933328,35.105737],[126.933368,35.1057],[126.933345,35.105682]]]]}},{"type":"Feature","id":"1979193872051785156800000000","properties":{"id":"1979193872051785156800000000","pnu":"1221012300102700001"},"geometry":{"type":"MultiPolygon","coordinates":[[[[126.933583,35.105633],[126.933533,35.105721],[126.933619,35.105754],[126.933642,35.105713],[126.933627,35.105705],[126.933651,35.105656],[126.933583,35.105633]]]]}},{"type":"Feature","id":"1979193879761785115400000000","properties":{"id":"1979193879761785115400000000","pnu":"1221012300102700001"},"geometry":{"type":"MultiPolygon","coordinates":[[[[126.93368,35.105661],[126.933681,35.105661],[126.933682,35.105661],[126.933683,35.105661],[126.933684,35.10566],[126.933684,35.10566],[126.933685,35.105659],[126.933685,35.105658],[126.933686,35.105657],[126.933686,35.105657],[126.933686,35.105656],[126.933685,35.105655],[126.933685,35.105654],[126.933684,35.105654],[126.933684,35.105653],[126.933683,35.105653],[126.933682,35.105652],[126.933681,35.105652],[126.93368,35.105652],[126.933679,35.105652],[126.933678,35.105652],[126.933677,35.105653],[126.933677,35.105653],[126.933676,35.105654],[126.933675,35.105654],[126.933675,35.105655],[126.933675,35.105656],[126.933675,35.105657],[126.933675,35.105657],[126.933675,35.105658],[126.933675,35.105659],[126.933676,35.10566],[126.933677,35.10566],[126.933677,35.105661],[126.933678,35.105661],[126.933679,35.105661],[126.93368,35.105661]]]]}},{"type":"Feature","id":"1979193927731784410500000000","properties":{"id":"1979193927731784410500000000","pnu":"1221012300102940000"},"geometry":{"type":"MultiPolygon","coordinates":[[[[126.934125,35.105],[126.934228,35.105082],[126.93429,35.105037],[126.934252,35.105003],[126.93424,35.105011],[126.934173,35.10496],[126.934125,35.105]]]]}},{"type":"Feature","id":"1979193988961783939200000000","properties":{"id":"1979193988961783939200000000","pnu":"1221012300103780000"},"geometry":{"type":"MultiPolygon","coordinates":[[[[126.934865,35.104531],[126.934812,35.104636],[126.934892,35.104663],[126.934945,35.104559],[126.934865,35.104531]]]]}},{"type":"Feature","id":"1981193854211785225400000000","properties":{"id":"1981193854211785225400000000","pnu":"1221012300103150001"},"geometry":{"type":"MultiPolygon","coordinates":[[[[126.933327,35.105746],[126.933429,35.105812],[126.933473,35.105766],[126.933371,35.1057],[126.933327,35.105746]]]]}},{"type":"Feature","id":"1982193866221784983500000000","properties":{"id":"1982193866221784983500000000","pnu":"1221012300102710000"},"geometry":{"type":"MultiPolygon","coordinates":[[[[126.933473,35.105594],[126.933558,35.105609],[126.93359,35.105481],[126.933505,35.105467],[126.933473,35.105594]]]]}},{"type":"Feature","id":"1983193803441785866800000000","properties":{"id":"1983193803441785866800000000","pnu":"1221012300103280000"},"geometry":{"type":"MultiPolygon","coordinates":[[[[126.932807,35.106263],[126.932749,35.106349],[126.932815,35.10638],[126.932823,35.106372],[126.932886,35.106397],[126.932939,35.106327],[126.932807,35.106263]]]]}},{"type":"Feature","id":"1986193839601785510600000000","properties":{"id":"1986193839601785510600000000","pnu":"1221012300103160000"},"geometry":{"type":"MultiPolygon","coordinates":[[[[126.933217,35.106091],[126.9333,35.105949],[126.933262,35.105934],[126.933179,35.106076],[126.933217,35.106091]]]]}},{"type":"Feature","id":"1986193958961783683500000000","properties":{"id":"1986193958961783683500000000","pnu":"1221012300103800002"},"geometry":{"type":"MultiPolygon","coordinates":[[[[126.934588,35.104338],[126.934499,35.104367],[126.934512,35.104395],[126.934601,35.104366],[126.934588,35.104338]]]]}},{"type":"Feature","id":"1987193826131785725600000000","properties":{"id":"1987193826131785725600000000","pnu":"1221012300103290000"},"geometry":{"type":"MultiPolygon","coordinates":[[[[126.933049,35.106168],[126.933033,35.106194],[126.933077,35.106226],[126.933129,35.106243],[126.933152,35.106211],[126.933049,35.106168]]]]}},{"type":"Feature","id":"1988193833121785295800000000","properties":{"id":"1988193833121785295800000000","pnu":"1221012300103150003"},"geometry":{"type":"MultiPolygon","coordinates":[[[[126.933096,35.105852],[126.933179,35.105875],[126.9332,35.105835],[126.933225,35.105842],[126.933249,35.105798],[126.933141,35.105763],[126.933096,35.105852]]]]}},{"type":"Feature","id":"1988193858371784356100000000","properties":{"id":"1988193858371784356100000000","pnu":"1221012300102810000"},"geometry":{"type":"MultiPolygon","coordinates":[[[[126.933514,35.104954],[126.933444,35.104915],[126.933377,35.104983],[126.933455,35.105031],[126.933484,35.105004],[126.933473,35.104996],[126.933514,35.104954]]]]}},{"type":"Feature","id":"1990193866101784273700000000","properties":{"id":"1990193866101784273700000000","pnu":"1221012300102820000"},"geometry":{"type":"MultiPolygon","coordinates":[[[[126.93354,35.104955],[126.933575,35.104909],[126.933583,35.104911],[126.933601,35.104876],[126.933536,35.104847],[126.9335,35.10486],[126.933461,35.104918],[126.93354,35.104955]]]]}},{"type":"Feature","id":"1990193885901785212700000000","properties":{"id":"1990193885901785212700000000","pnu":"1221012300102690001"},"geometry":{"type":"MultiPolygon","coordinates":[[[[126.933734,35.105665],[126.933663,35.105777],[126.933769,35.105822],[126.9338,35.105774],[126.933794,35.105772],[126.933816,35.105733],[126.933806,35.105729],[126.933823,35.105703],[126.933734,35.105665]]]]}},{"type":"Feature","id":"1990193916501784285300000000","properties":{"id":"1990193916501784285300000000","pnu":"1221012300102950000"},"geometry":{"type":"MultiPolygon","coordinates":[[[[126.934014,35.10496],[126.934061,35.104959],[126.934062,35.10495],[126.934072,35.10495],[126.934166,35.104915],[126.934163,35.104885],[126.934139,35.104882],[126.934137,35.104863],[126.934039,35.104866],[126.93404,35.104907],[126.934015,35.104906],[126.934014,35.10496]]]]}},{"type":"Feature","id":"1991193839601785819800000000","properties":{"id":"1991193839601785819800000000","pnu":"1221012300103300002"},"geometry":{"type":"MultiPolygon","coordinates":[[[[126.933148,35.106299],[126.93328,35.106352],[126.933327,35.106275],[126.933266,35.10625],[126.933259,35.10626],[126.933211,35.106241],[126.933206,35.106251],[126.933185,35.106239],[126.933148,35.106299]]]]}},{"type":"Feature","id":"1991193849421785841900000000","properties":{"id":"1991193849421785841900000000","pnu":"1221012300103300002"},"geometry":{"type":"MultiPolygon","coordinates":[[[[126.933322,35.106353],[126.9334,35.106299],[126.933369,35.106271],[126.933303,35.106317],[126.933297,35.106325],[126.933322,35.106353]]]]}},{"type":"Feature","id":"1992193815891785590400000000","properties":{"id":"1992193815891785590400000000","pnu":"1221012300103170000"},"geometry":{"type":"MultiPolygon","coordinates":[[[[126.932968,35.106013],[126.932942,35.106047],[126.932934,35.106044],[126.932885,35.106099],[126.932911,35.106113],[126.932907,35.106118],[126.932941,35.106126],[126.932947,35.106118],[126.932961,35.106129],[126.933036,35.106137],[126.933069,35.106097],[126.933048,35.106088],[126.933057,35.106081],[126.933019,35.106057],[126.933027,35.106043],[126.932968,35.106013]]]]}},{"type":"Feature","id":"1992193824451785574500000000","properties":{"id":"1992193824451785574500000000","pnu":"1221012300103170000"},"geometry":{"type":"MultiPolygon","coordinates":[[[[126.933073,35.106075],[126.933074,35.106075],[126.933075,35.106074],[126.933076,35.106074],[126.933077,35.106074],[126.933077,35.106073],[126.933078,35.106072],[126.933078,35.106072],[126.933079,35.106071],[126.933079,35.10607],[126.933079,35.106069],[126.933078,35.106069],[126.933078,35.106068],[126.933077,35.106067],[126.933077,35.106067],[126.933076,35.106066],[126.933075,35.106066],[126.933074,35.106066],[126.933073,35.106066],[126.933072,35.106066],[126.933071,35.106066],[126.93307,35.106066],[126.93307,35.106067],[126.933069,35.106067],[126.933068,35.106068],[126.933068,35.106069],[126.933068,35.106069],[126.933068,35.10607],[126.933068,35.106071],[126.933068,35.106072],[126.933068,35.106072],[126.933069,35.106073],[126.93307,35.106074],[126.93307,35.106074],[126.933071,35.106074],[126.933072,35.106075],[126.933073,35.106075]]]]}},{"type":"Feature","id":"1993193814731785984900000000","properties":{"id":"1993193814731785984900000000","pnu":"1221012300103260000"},"geometry":{"type":"MultiPolygon","coordinates":[[[[126.932961,35.106369],[126.932899,35.106485],[126.932971,35.106511],[126.933033,35.106395],[126.932961,35.106369]]]]}},{"type":"Feature","id":"1993193819171785842400000000","properties":{"id":"1993193819171785842400000000","pnu":"1221012300103270000"},"geometry":{"type":"MultiPolygon","coordinates":[[[[126.932945,35.106311],[126.933055,35.106359],[126.933085,35.106312],[126.932975,35.106264],[126.932945,35.106311]]]]}},{"type":"Feature","id":"1993193828101785796700000000","properties":{"id":"1993193828101785796700000000","pnu":"1221012300103270000"},"geometry":{"type":"MultiPolygon","coordinates":[[[[126.933113,35.106275],[126.933114,35.106275],[126.933115,35.106275],[126.933116,35.106274],[126.933117,35.106274],[126.933117,35.106273],[126.933118,35.106273],[126.933118,35.106272],[126.933118,35.106271],[126.933119,35.10627],[126.933118,35.10627],[126.933118,35.106269],[126.933118,35.106268],[126.933117,35.106268],[126.933117,35.106267],[126.933116,35.106267],[126.933115,35.106266],[126.933114,35.106266],[126.933113,35.106266],[126.933112,35.106266],[126.933111,35.106266],[126.93311,35.106267],[126.93311,35.106267],[126.933109,35.106268],[126.933108,35.106268],[126.933108,35.106269],[126.933108,35.10627],[126.933108,35.10627],[126.933108,35.106271],[126.933108,35.106272],[126.933108,35.106273],[126.933109,35.106273],[126.93311,35.106274],[126.93311,35.106274],[126.933111,35.106275],[126.933112,35.106275],[126.933113,35.106275]]]]}},{"type":"Feature","id":"1993193847031785682100000000","properties":{"id":"1993193847031785682100000000","pnu":"1221012300103300001"},"geometry":{"type":"MultiPolygon","coordinates":[[[[126.93341,35.106159],[126.933265,35.106109],[126.933231,35.106176],[126.933376,35.106226],[126.93341,35.106159]]]]}},{"type":"Feature","id":"1993193875771785473200000000","properties":{"id":"1993193875771785473200000000","pnu":"1221012300103340000"},"geometry":{"type":"MultiPolygon","coordinates":[[[[126.933702,35.10604],[126.93373,35.105972],[126.933679,35.105959],[126.933688,35.105947],[126.933628,35.10593],[126.933626,35.105935],[126.933583,35.105921],[126.933534,35.105988],[126.933702,35.10604]]]]}},{"type":"Feature","id":"1993193887341785398100000000","properties":{"id":"1993193887341785398100000000","pnu":"1221012300103340000"},"geometry":{"type":"MultiPolygon","coordinates":[[[[126.933745,35.105881],[126.933723,35.105899],[126.93376,35.105924],[126.933753,35.105928],[126.933775,35.105942],[126.933803,35.105921],[126.933745,35.105881]]]]}},{"type":"Feature","id":"1993193948901783991200000000","properties":{"id":"1993193948901783991200000000","pnu":"1221012300103750001"},"geometry":{"type":"MultiPolygon","coordinates":[[[[126.934459,35.104722],[126.93452,35.104592],[126.934444,35.104564],[126.934345,35.104681],[126.934459,35.104722]]]]}},{"type":"Feature","id":"1994193839421784951900000000","properties":{"id":"1994193839421784951900000000","pnu":"1221012300102780000"},"geometry":{"type":"MultiPolygon","coordinates":[[[[126.933238,35.105514],[126.933239,35.105513],[126.93324,35.105513],[126.933241,35.105513],[126.933241,35.105512],[126.933242,35.105512],[126.933243,35.105511],[126.933243,35.105511],[126.933243,35.10551],[126.933243,35.105509],[126.933243,35.105508],[126.933243,35.105507],[126.933243,35.105507],[126.933242,35.105506],[126.933241,35.105506],[126.933241,35.105505],[126.93324,35.105505],[126.933239,35.105505],[126.933238,35.105505],[126.933237,35.105505],[126.933236,35.105505],[126.933235,35.105505],[126.933234,35.105506],[126.933234,35.105506],[126.933233,35.105507],[126.933233,35.105507],[126.933232,35.105508],[126.933232,35.105509],[126.933232,35.10551],[126.933233,35.105511],[126.933233,35.105511],[126.933234,35.105512],[126.933234,35.105512],[126.933235,35.105513],[126.933236,35.105513],[126.933237,35.105513],[126.933238,35.105514]]]]}},{"type":"Feature","id":"1994193840921784861400000000","properties":{"id":"1994193840921784861400000000","pnu":"1221012300102780000"},"geometry":{"type":"MultiPolygon","coordinates":[[[[126.933293,35.105496],[126.933313,35.105444],[126.933296,35.105441],[126.933317,35.105377],[126.933262,35.10536],[126.933258,35.10537],[126.933225,35.10536],[126.933181,35.105467],[126.933293,35.105496]]]]}},{"type":"Feature","id":"1994193883261784682100000000","properties":{"id":"1994193883261784682100000000","pnu":"1221012300102750001"},"geometry":{"type":"MultiPolygon","coordinates":[[[[126.933648,35.105286],[126.933733,35.105329],[126.933764,35.105292],[126.933754,35.105288],[126.933781,35.105254],[126.933764,35.105245],[126.933777,35.105233],[126.933723,35.105205],[126.933716,35.105215],[126.933705,35.10521],[126.933648,35.105286]]]]}},{"type":"Feature","id":"1994193935871784199300000000","properties":{"id":"1994193935871784199300000000","pnu":"1221012300102930000"},"geometry":{"type":"MultiPolygon","coordinates":[[[[126.934374,35.104798],[126.9343,35.104759],[126.934243,35.104827],[126.934251,35.10483],[126.934218,35.104863],[126.934296,35.104905],[126.934325,35.10487],[126.934319,35.104866],[126.934374,35.104798]]]]}},{"type":"Feature","id":"1998193867201786199500000000","properties":{"id":"1998193867201786199500000000","pnu":"1221012300103390000"},"geometry":{"type":"MultiPolygon","coordinates":[[[[126.933502,35.106583],[126.933486,35.106632],[126.933519,35.106637],[126.933509,35.106674],[126.933572,35.106688],[126.933596,35.106613],[126.933558,35.106608],[126.933563,35.106594],[126.933502,35.106583]]]]}},{"type":"Feature","id":"1999193933451784835300000000","properties":{"id":"1999193933451784835300000000","pnu":"1221012300102660000"},"geometry":{"type":"MultiPolygon","coordinates":[[[[126.934244,35.105335],[126.93421,35.105378],[126.934227,35.105388],[126.934204,35.105415],[126.934217,35.105428],[126.934211,35.105436],[126.934246,35.105462],[126.934257,35.105455],[126.934281,35.105468],[126.934352,35.105398],[126.934244,35.105335]]]]}},{"type":"Feature","id":"1999193941211784728700000000","properties":{"id":"1999193941211784728700000000","pnu":"1221012300102650001"},"geometry":{"type":"MultiPolygon","coordinates":[[[[126.934457,35.105281],[126.934374,35.105229],[126.934337,35.105264],[126.934327,35.105256],[126.934307,35.105271],[126.934302,35.105268],[126.934248,35.105321],[126.934356,35.105393],[126.934406,35.105343],[126.934402,35.10534],[126.934457,35.105281]]]]}},{"type":"Feature","id":"2000193899381784886300000000","properties":{"id":"2000193899381784886300000000","pnu":"1221012300102720000"},"geometry":{"type":"MultiPolygon","coordinates":[[[[126.933804,35.105483],[126.93391,35.105528],[126.933934,35.105494],[126.933948,35.105498],[126.933959,35.105478],[126.93395,35.105472],[126.933986,35.105415],[126.933876,35.105372],[126.933804,35.105483]]]]}},{"type":"Feature","id":"2002193458671784333100000000","properties":{"id":"2002193458671784333100000000","pnu":"1221012300103950000"},"geometry":{"type":"MultiPolygon","coordinates":[[[[126.928919,35.104907],[126.928933,35.10495],[126.929023,35.104931],[126.92906,35.105046],[126.929159,35.105025],[126.92911,35.104866],[126.928919,35.104907]]]]}},{"type":"Feature","id":"2002194345611781189200000000","properties":{"id":"2002194345611781189200000000","pnu":"1221012300101770000"},"geometry":{"type":"MultiPolygon","coordinates":[[[[126.93886,35.10209],[126.938735,35.102078],[126.938725,35.102151],[126.93885,35.102162],[126.93886,35.10209]]]]}},{"type":"Feature","id":"2003193860441785929900000000","properties":{"id":"2003193860441785929900000000","pnu":"1221012300103370000"},"geometry":{"type":"MultiPolygon","coordinates":[[[[126.933416,35.106321],[126.933389,35.106368],[126.933399,35.106373],[126.933389,35.106392],[126.933417,35.106405],[126.933415,35.106407],[126.9335,35.106438],[126.933505,35.106432],[126.93355,35.106444],[126.933566,35.106405],[126.933443,35.106361],[126.933458,35.106334],[126.933416,35.106321]]]]}},{"type":"Feature","id":"2003193872441785988900000000","properties":{"id":"2003193872441785988900000000","pnu":"1221012300103370000"},"geometry":{"type":"MultiPolygon","coordinates":[[[[126.93364,35.106423],[126.933605,35.106408],[126.933589,35.106434],[126.933575,35.106428],[126.933556,35.106458],[126.933605,35.106479],[126.93364,35.106423]]]]}},{"type":"Feature","id":"2004193963391786376400000000","properties":{"id":"2004193963391786376400000000","pnu":"1221012600100010001"},"geometry":{"type":"MultiPolygon","coordinates":[[[[126.934991,35.107515],[126.934923,35.106033],[126.93428,35.106052],[126.934289,35.106205],[126.934202,35.106208],[126.934259,35.107537],[126.934991,35.107515]]]]}},{"type":"Feature","id":"2004194029891786589300000000","properties":{"id":"2004194029891786589300000000","pnu":"1221012600100010001"},"geometry":{"type":"MultiPolygon","coordinates":[[[[126.935302,35.107026],[126.93535,35.107026],[126.935349,35.106946],[126.935302,35.106946],[126.935302,35.107026]]]]}},{"type":"Feature","id":"2004194278271780966900000000","properties":{"id":"2004194278271780966900000000","pnu":"1221012300101770000"},"geometry":{"type":"MultiPolygon","coordinates":[[[[126.938128,35.101813],[126.938013,35.101802],[126.93798,35.102027],[126.938095,35.102038],[126.938128,35.101813]]]]}},{"type":"Feature","id":"2004194363821780354300000000","properties":{"id":"2004194363821780354300000000","pnu":"1221012300101770000"},"geometry":{"type":"MultiPolygon","coordinates":[[[[126.938844,35.101283],[126.938818,35.101407],[126.939141,35.101453],[126.939167,35.101329],[126.938844,35.101283]]]]}},{"type":"Feature","id":"2005193853211786042600000000","properties":{"id":"2005193853211786042600000000","pnu":"1221012300103380000"},"geometry":{"type":"MultiPolygon","coordinates":[[[[126.933308,35.106521],[126.933411,35.106561],[126.933468,35.106463],[126.933365,35.106423],[126.933308,35.106521]]]]}},{"type":"Feature","id":"2006193879761784328600000000","properties":{"id":"2006193879761784328600000000","pnu":"1221012300102840000"},"geometry":{"type":"MultiPolygon","coordinates":[[[[126.933678,35.104887],[126.933618,35.104978],[126.933684,35.105007],[126.933743,35.104916],[126.933678,35.104887]]]]}},{"type":"Feature","id":"2006193885981784401100000000","properties":{"id":"2006193885981784401100000000","pnu":"1221012300102840000"},"geometry":{"type":"MultiPolygon","coordinates":[[[[126.933801,35.104999],[126.93377,35.104971],[126.933697,35.105027],[126.933728,35.105055],[126.933801,35.104999]]]]}},{"type":"Feature","id":"2006193923841784557800000000","properties":{"id":"2006193923841784557800000000","pnu":"1221012300102870000"},"geometry":{"type":"MultiPolygon","coordinates":[[[[126.934124,35.105195],[126.934175,35.105206],[126.934204,35.105114],[126.934153,35.105103],[126.934124,35.105195]]]]}},{"type":"Feature","id":"2007193963801784145400000000","properties":{"id":"2007193963801784145400000000","pnu":"1221012300102920000"},"geometry":{"type":"MultiPolygon","coordinates":[[[[126.934517,35.104784],[126.934589,35.104834],[126.93461,35.104814],[126.934651,35.104838],[126.934694,35.104791],[126.934577,35.104718],[126.934517,35.104784]]]]}},{"type":"Feature","id":"2008193897931784106600000000","properties":{"id":"2008193897931784106600000000","pnu":"1221012300102980000"},"geometry":{"type":"MultiPolygon","coordinates":[[[[126.933819,35.104794],[126.93394,35.104793],[126.933939,35.104775],[126.933977,35.104774],[126.933988,35.104746],[126.933976,35.104719],[126.933858,35.10472],[126.933858,35.104694],[126.93379,35.104694],[126.933791,35.10476],[126.933818,35.10476],[126.933819,35.104794]]]]}},{"type":"Feature","id":"2008193904941786462300000000","properties":{"id":"2008193904941786462300000000","pnu":"1221012600100010001"},"geometry":{"type":"MultiPolygon","coordinates":[[[[126.933983,35.106736],[126.933927,35.10674],[126.93393,35.106824],[126.933918,35.106825],[126.933912,35.106842],[126.933911,35.106852],[126.933912,35.106862],[126.933914,35.106868],[126.933916,35.106876],[126.933918,35.10688],[126.93392,35.106885],[126.933933,35.106889],[126.933938,35.107015],[126.933985,35.107014],[126.933983,35.106736]]]]}},{"type":"Feature","id":"2009193824221784381900000000","properties":{"id":"2009193824221784381900000000","pnu":"1221012300102800000"},"geometry":{"type":"MultiPolygon","coordinates":[[[[126.933005,35.105028],[126.933011,35.10503],[126.933007,35.10504],[126.933099,35.10507],[126.933114,35.105037],[126.93309,35.105029],[126.933132,35.104941],[126.933131,35.104941],[126.933133,35.104936],[126.933107,35.104927],[126.933104,35.104932],[126.933065,35.104919],[126.933022,35.105008],[126.933016,35.105006],[126.933005,35.105028]]]]}},{"type":"Feature","id":"2009193929511783872000000000","properties":{"id":"2009193929511783872000000000","pnu":"1221012300103750002"},"geometry":{"type":"MultiPolygon","coordinates":[[[[126.934265,35.104522],[126.934239,35.104487],[126.934196,35.10451],[126.934187,35.104499],[126.934149,35.104518],[126.9342,35.104586],[126.934256,35.104557],[126.934257,35.104559],[126.934298,35.104567],[126.934309,35.10453],[126.934265,35.104522]]]]}},{"type":"Feature","id":"2012193827111785081000000000","properties":{"id":"2012193827111785081000000000","pnu":"1221012300103130000"},"geometry":{"type":"MultiPolygon","coordinates":[[[[126.933024,35.105651],[126.933156,35.10568],[126.933182,35.105602],[126.933103,35.105584],[126.933108,35.105571],[126.933092,35.105568],[126.933086,35.10558],[126.933049,35.105573],[126.933024,35.105651]]]]}},{"type":"Feature","id":"2013193784891785636400000000","properties":{"id":"2013193784891785636400000000","pnu":"1221012300103210000"},"geometry":{"type":"MultiPolygon","coordinates":[[[[126.932583,35.106187],[126.932627,35.106209],[126.932647,35.106177],[126.932633,35.106171],[126.932643,35.106158],[126.932667,35.106167],[126.932689,35.106131],[126.932651,35.106113],[126.93266,35.106099],[126.932689,35.10611],[126.93271,35.10608],[126.932644,35.106051],[126.932613,35.1061],[126.9326,35.106093],[126.932581,35.106127],[126.932611,35.106143],[126.932583,35.106186],[126.932585,35.106187],[126.932583,35.106187]]]]}},{"type":"Feature","id":"2013193847341786614300000000","properties":{"id":"2013193847341786614300000000","pnu":"1221012300103450000"},"geometry":{"type":"MultiPolygon","coordinates":[[[[126.933446,35.107206],[126.933593,35.106992],[126.9332,35.106809],[126.933053,35.107023],[126.933446,35.107206]]]]}},{"type":"Feature","id":"2013193973171784208100000000","properties":{"id":"2013193973171784208100000000","pnu":"1221012300102900000"},"geometry":{"type":"MultiPolygon","coordinates":[[[[126.934646,35.104858],[126.934671,35.10488],[126.934691,35.104867],[126.934697,35.104873],[126.934762,35.104825],[126.934729,35.104796],[126.934646,35.104858]]]]}}]}
