{"type":"FeatureCollection","features":[{"type":"Feature","id":"0000195144571752264000000000","properties":{"id":"0000195144571752264000000000","pnu":"1221012400101070000","purpose":"제1종 근린생활시설","floors":1,"structure":"벽돌구조"},"geometry":{"type":"MultiPolygon","coordinates":[[[[126.947549,35.075994],[126.947531,35.076105],[126.947595,35.076112],[126.947615,35.076],[126.947549,35.075994]]]]}},{"type":"Feature","id":"1978195119841752097600000000","properties":{"id":"1978195119841752097600000000","pnu":"1221012400201960000","year":1978,"purpose":"단독주택","far":5.73,"floors":1,"structure":"벽돌구조"},"geometry":{"type":"MultiPolygon","coordinates":[[[[126.947285,35.075849],[126.947241,35.075929],[126.947319,35.075959],[126.94736,35.075871],[126.947285,35.075849]]]]}},{"type":"Feature","id":"1978195157541752118900000000","properties":{"id":"1978195157541752118900000000","pnu":"1221012400201960000","purpose":"기타","structure":"벽돌구조"},"geometry":{"type":"MultiPolygon","coordinates":[[[[126.94768,35.075922],[126.947703,35.07595],[126.94775,35.075919],[126.947727,35.075894],[126.94768,35.075922]]]]}}]}
