{"type":"FeatureCollection","features":[{"type":"Feature","id":"0000194365141788441300000000","properties":{"id":"0000194365141788441300000000","pnu":"1221011900101660000","purpose":"기타"},"geometry":{"type":"MultiPolygon","coordinates":[[[[126.939031,35.108728],[126.939076,35.108703],[126.938972,35.108587],[126.938928,35.108611],[126.939031,35.108728]]]]}},{"type":"Feature","id":"0000194369601788405300000000","properties":{"id":"0000194369601788405300000000","pnu":"1221011900101660000","purpose":"기타"},"geometry":{"type":"MultiPolygon","coordinates":[[[[126.938978,35.108582],[126.939081,35.108699],[126.939122,35.108672],[126.939025,35.108552],[126.938978,35.108582]]]]}},{"type":"Feature","id":"0000194373851788374400000000","properties":{"id":"0000194373851788374400000000","pnu":"1221011900101660000","purpose":"기타"},"geometry":{"type":"MultiPolygon","coordinates":[[[[126.939127,35.10867],[126.939171,35.108645],[126.939066,35.108523],[126.939024,35.108548],[126.939127,35.10867]]]]}},{"type":"Feature","id":"0000194377191788552500000000","properties":{"id":"0000194377191788552500000000","pnu":"1221011900101660000","purpose":"기타"},"geometry":{"type":"MultiPolygon","coordinates":[[[[126.939126,35.108811],[126.939199,35.10877],[126.939135,35.108703],[126.939072,35.108747],[126.939126,35.108811]]]]}},{"type":"Feature","id":"0000194378331788342800000000","properties":{"id":"0000194378331788342800000000","pnu":"1221011900101660000","purpose":"기타"},"geometry":{"type":"MultiPolygon","coordinates":[[[[126.939178,35.108641],[126.939221,35.108618],[126.939113,35.108495],[126.939073,35.10852],[126.939178,35.108641]]]]}},{"type":"Feature","id":"0000194514731788115100000000","properties":{"id":"0000194514731788115100000000","pnu":"1221011900101660000","purpose":"기타"},"geometry":{"type":"MultiPolygon","coordinates":[[[[126.940643,35.108407],[126.940689,35.108383],[126.940642,35.108322],[126.940597,35.108345],[126.940643,35.108407]]]]}},{"type":"Feature","id":"0000194893501798614800000000","properties":{"id":"0000194893501798614800000000","pnu":"1221011900202040000","purpose":"기타"},"geometry":{"type":"MultiPolygon","coordinates":[[[[126.944775,35.117873],[126.944828,35.117863],[126.944806,35.117787],[126.944753,35.117797],[126.944775,35.117873]]]]}},{"type":"Feature","id":"0000194969581797504400000000","properties":{"id":"0000194969581797504400000000","pnu":"1221011900202020000","purpose":"기타"},"geometry":{"type":"MultiPolygon","coordinates":[[[[126.945583,35.116798],[126.945568,35.116826],[126.945669,35.116862],[126.945684,35.116833],[126.945583,35.116798]]]]}},{"type":"Feature","id":"0000195014651798488800000000","properties":{"id":"0000195014651798488800000000","pnu":"1221011900100740001","purpose":"기타"},"geometry":{"type":"MultiPolygon","coordinates":[[[[126.946102,35.117696],[126.94609,35.117725],[126.946138,35.117738],[126.94615,35.11771],[126.946102,35.117696]]]]}},{"type":"Feature","id":"1993194988771798291900000000","properties":{"id":"1993194988771798291900000000","pnu":"1221011900100740000","year":1993,"purpose":"제2종 근린생활시설","far":32.27,"floors":2,"structure":"철근콘크리트구조"},"geometry":{"type":"MultiPolygon","coordinates":[[[[126.945623,35.117599],[126.945662,35.11761],[126.945667,35.117599],[126.945811,35.117644],[126.945815,35.117635],[126.94584,35.117643],[126.945856,35.117609],[126.945885,35.117617],[126.945898,35.117592],[126.945932,35.117603],[126.945998,35.117461],[126.945844,35.117413],[126.945771,35.117566],[126.945657,35.117531],[126.945623,35.117599]]]]}},{"type":"Feature","id":"2003194389151788650800000000","properties":{"id":"2003194389151788650800000000","pnu":"1221011900101660000","year":2003,"purpose":"기타","far":0.36,"floors":1,"structure":"일반철골구조"},"geometry":{"type":"MultiPolygon","coordinates":[[[[126.939121,35.108848],[126.939219,35.108953],[126.939407,35.108844],[126.939314,35.10874],[126.939121,35.108848]]]]}}]}
