{"type":"FeatureCollection","features":[{"type":"Feature","id":"1972194736031843978000000000","properties":{"id":"1972194736031843978000000000","pnu":"1221011000100010001","purpose":"제2종 근린생활시설","floors":2,"structure":"벽돌구조"},"geometry":{"type":"MultiPolygon","coordinates":[[[[126.943034,35.158722],[126.943035,35.158722],[126.943036,35.158722],[126.943037,35.158722],[126.943038,35.158721],[126.943038,35.158721],[126.943039,35.15872],[126.943039,35.158719],[126.94304,35.158719],[126.94304,35.158718],[126.94304,35.158717],[126.943039,35.158716],[126.943039,35.158716],[126.943038,35.158715],[126.943038,35.158714],[126.943037,35.158714],[126.943036,35.158714],[126.943035,35.158713],[126.943034,35.158713],[126.943033,35.158713],[126.943032,35.158714],[126.943031,35.158714],[126.943031,35.158714],[126.94303,35.158715],[126.943029,35.158716],[126.943029,35.158716],[126.943029,35.158717],[126.943029,35.158718],[126.943029,35.158719],[126.943029,35.158719],[126.943029,35.15872],[126.94303,35.158721],[126.943031,35.158721],[126.943031,35.158722],[126.943032,35.158722],[126.943033,35.158722],[126.943034,35.158722]]]]}}]}
