{"type":"FeatureCollection","features":[{"type":"Feature","id":"0000194390601805362900000000","properties":{"id":"0000194390601805362900000000","pnu":"1221011900200200017","purpose":"기타"},"geometry":{"type":"MultiPolygon","coordinates":[[[[126.939251,35.12397],[126.939296,35.123968],[126.939288,35.12385],[126.939243,35.123852],[126.939251,35.12397]]]]}},{"type":"Feature","id":"0000194413591802585600000000","properties":{"id":"0000194413591802585600000000","pnu":"1221011900103770002","purpose":"기타"},"geometry":{"type":"MultiPolygon","coordinates":[[[[126.939499,35.121459],[126.939581,35.121433],[126.939547,35.121353],[126.939466,35.121382],[126.939499,35.121459]]]]}},{"type":"Feature","id":"0000194415371802068700000000","properties":{"id":"0000194415371802068700000000","pnu":"1221011900103740000","purpose":"기타"},"geometry":{"type":"MultiPolygon","coordinates":[[[[126.939602,35.121014],[126.939583,35.120859],[126.939485,35.120867],[126.939503,35.121022],[126.939602,35.121014]]]]}},{"type":"Feature","id":"0000194417141802788100000000","properties":{"id":"0000194417141802788100000000","pnu":"1221011900103770002","purpose":"기타"},"geometry":{"type":"MultiPolygon","coordinates":[[[[126.939587,35.121544],[126.939502,35.121595],[126.939538,35.121635],[126.939623,35.121583],[126.939587,35.121544]]]]}},{"type":"Feature","id":"0000194428021802855400000000","properties":{"id":"0000194428021802855400000000","pnu":"1221011900200200010","purpose":"기타"},"geometry":{"type":"MultiPolygon","coordinates":[[[[126.939743,35.12165],[126.939726,35.121621],[126.939677,35.121637],[126.939623,35.121643],[126.939628,35.121674],[126.939696,35.121666],[126.939743,35.12165]]]]}},{"type":"Feature","id":"0000194429711802725200000000","properties":{"id":"0000194429711802725200000000","pnu":"1221011900103770002","purpose":"기타"},"geometry":{"type":"MultiPolygon","coordinates":[[[[126.939677,35.121566],[126.939746,35.121548],[126.939722,35.121498],[126.939655,35.121518],[126.939677,35.121566]]]]}},{"type":"Feature","id":"0000194444621805396300000000","properties":{"id":"0000194444621805396300000000","pnu":"1221011900200200014","purpose":"기타"},"geometry":{"type":"MultiPolygon","coordinates":[[[[126.939901,35.123941],[126.939885,35.123915],[126.939823,35.12394],[126.939839,35.123966],[126.939901,35.123941]]]]}},{"type":"Feature","id":"0000194458841802715900000000","properties":{"id":"0000194458841802715900000000","pnu":"1221011900200200010","purpose":"기타"},"geometry":{"type":"MultiPolygon","coordinates":[[[[126.939983,35.121588],[126.940109,35.121547],[126.940082,35.121478],[126.940015,35.121494],[126.939998,35.121465],[126.939934,35.121487],[126.939983,35.121588]]]]}},{"type":"Feature","id":"0000194464111805466700000000","properties":{"id":"0000194464111805466700000000","pnu":"1221011900200200014","purpose":"기타"},"geometry":{"type":"MultiPolygon","coordinates":[[[[126.940008,35.123984],[126.940082,35.124065],[126.940141,35.12402],[126.940073,35.123946],[126.940008,35.123984]]]]}},{"type":"Feature","id":"0000194468541802597500000000","properties":{"id":"0000194468541802597500000000","pnu":"1221011900200480000","purpose":"기타"},"geometry":{"type":"MultiPolygon","coordinates":[[[[126.940096,35.121464],[126.94019,35.121419],[126.94016,35.121371],[126.94006,35.121417],[126.940096,35.121464]]]]}},{"type":"Feature","id":"0000194478471802447100000000","properties":{"id":"0000194478471802447100000000","pnu":"1221011900100990000","purpose":"기타"},"geometry":{"type":"MultiPolygon","coordinates":[[[[126.94021,35.121274],[126.940232,35.121304],[126.940261,35.12129],[126.940239,35.12126],[126.94021,35.121274]]]]}},{"type":"Feature","id":"0000194483911809029500000000","properties":{"id":"0000194483911809029500000000","pnu":"1221011900200080038","purpose":"기타"},"geometry":{"type":"MultiPolygon","coordinates":[[[[126.940287,35.127248],[126.940328,35.127228],[126.940294,35.127182],[126.940253,35.127203],[126.940287,35.127248]]]]}},{"type":"Feature","id":"0000194510961805911900000000","properties":{"id":"0000194510961805911900000000","pnu":"1221011900200170001","purpose":"기타"},"geometry":{"type":"MultiPolygon","coordinates":[[[[126.940543,35.124413],[126.940618,35.124438],[126.940636,35.124397],[126.940561,35.124374],[126.940543,35.124413]]]]}},{"type":"Feature","id":"0000194520501805942300000000","properties":{"id":"0000194520501805942300000000","pnu":"1221011900200170001","purpose":"기타"},"geometry":{"type":"MultiPolygon","coordinates":[[[[126.94063,35.124441],[126.940737,35.12447],[126.940759,35.124424],[126.940651,35.124396],[126.94063,35.124441]]]]}},{"type":"Feature","id":"0000194549921802094200000000","properties":{"id":"0000194549921802094200000000","pnu":"1221011900100990000","purpose":"기타"},"geometry":{"type":"MultiPolygon","coordinates":[[[[126.941012,35.120987],[126.941045,35.120975],[126.941027,35.120942],[126.940994,35.120954],[126.941012,35.120987]]]]}},{"type":"Feature","id":"0000194555061801925300000000","properties":{"id":"0000194555061801925300000000","pnu":"1221011900101010003","purpose":"기타"},"geometry":{"type":"MultiPolygon","coordinates":[[[[126.941099,35.120812],[126.941086,35.120795],[126.941053,35.120813],[126.941066,35.12083],[126.941099,35.120812]]]]}},{"type":"Feature","id":"0000194586111805851300000000","properties":{"id":"0000194586111805851300000000","pnu":"1221011900200180000","purpose":"기타"},"geometry":{"type":"MultiPolygon","coordinates":[[[[126.941334,35.124367],[126.941464,35.124403],[126.941492,35.124332],[126.941363,35.124301],[126.941334,35.124367]]]]}},{"type":"Feature","id":"0000194640181801843300000000","properties":{"id":"0000194640181801843300000000","pnu":"1221011900100960001","purpose":"기타"},"geometry":{"type":"MultiPolygon","coordinates":[[[[126.941971,35.120734],[126.942,35.12077],[126.942048,35.120741],[126.942023,35.120709],[126.941971,35.120734]]]]}},{"type":"Feature","id":"0000194663731801638500000000","properties":{"id":"0000194663731801638500000000","pnu":"1221011900100960001","purpose":"기타"},"geometry":{"type":"MultiPolygon","coordinates":[[[[126.942258,35.120643],[126.942362,35.120507],[126.942301,35.120476],[126.942266,35.120517],[126.942234,35.1205],[126.9422,35.120547],[126.942206,35.120551],[126.942184,35.120585],[126.942258,35.120643]]]]}},{"type":"Feature","id":"0000194668281801405100000000","properties":{"id":"0000194668281801405100000000","pnu":"1221011900100960001","purpose":"기타"},"geometry":{"type":"MultiPolygon","coordinates":[[[[126.942183,35.12041],[126.942301,35.120459],[126.942324,35.120433],[126.942359,35.120451],[126.94242,35.120354],[126.942388,35.120334],[126.942435,35.120263],[126.942322,35.12021],[126.942183,35.12041]]]]}},{"type":"Feature","id":"0000194671391801834600000000","properties":{"id":"0000194671391801834600000000","pnu":"1221011900100950000","purpose":"기타"},"geometry":{"type":"MultiPolygon","coordinates":[[[[126.942386,35.120729],[126.942367,35.120706],[126.942318,35.120734],[126.942337,35.120757],[126.942386,35.120729]]]]}},{"type":"Feature","id":"0000194676811801439300000000","properties":{"id":"0000194676811801439300000000","pnu":"1221011900100960001","purpose":"기타"},"geometry":{"type":"MultiPolygon","coordinates":[[[[126.942487,35.120275],[126.942442,35.120255],[126.94239,35.120333],[126.942422,35.120354],[126.942358,35.120456],[126.942327,35.120439],[126.942309,35.12046],[126.942373,35.120496],[126.942462,35.120363],[126.942442,35.120355],[126.942449,35.120343],[126.942487,35.120275]]]]}},{"type":"Feature","id":"0000194681351801817400000000","properties":{"id":"0000194681351801817400000000","pnu":"1221011900200510000","purpose":"기타"},"geometry":{"type":"MultiPolygon","coordinates":[[[[126.942413,35.120726],[126.94242,35.120747],[126.942511,35.120703],[126.942504,35.120685],[126.942413,35.120726]]]]}},{"type":"Feature","id":"0000194687671801748800000000","properties":{"id":"0000194687671801748800000000","pnu":"1221011900200540000","purpose":"기타"},"geometry":{"type":"MultiPolygon","coordinates":[[[[126.942369,35.120706],[126.942395,35.120733],[126.942617,35.120628],[126.942629,35.12064],[126.942682,35.120616],[126.942665,35.120576],[126.942369,35.120706]]]]}},{"type":"Feature","id":"0000194693811801767600000000","properties":{"id":"0000194693811801767600000000","pnu":"1221011900200540000","purpose":"기타"},"geometry":{"type":"MultiPolygon","coordinates":[[[[126.942573,35.120702],[126.942647,35.120668],[126.942632,35.120641],[126.942547,35.120673],[126.942573,35.120702]]]]}},{"type":"Feature","id":"0000194710321801606000000000","properties":{"id":"0000194710321801606000000000","pnu":"1221011900200540000","purpose":"기타"},"geometry":{"type":"MultiPolygon","coordinates":[[[[126.942709,35.12056],[126.942754,35.120594],[126.94285,35.120488],[126.942807,35.120457],[126.942709,35.12056]]]]}},{"type":"Feature","id":"0000194841711800347000000000","properties":{"id":"0000194841711800347000000000","pnu":"1221011900101120002","purpose":"기타"},"geometry":{"type":"MultiPolygon","coordinates":[[[[126.944232,35.119423],[126.944257,35.119385],[126.944214,35.119361],[126.944184,35.119395],[126.944232,35.119423]]]]}},{"type":"Feature","id":"0000194854291800433300000000","properties":{"id":"0000194854291800433300000000","pnu":"1221011900101120002","purpose":"기타"},"geometry":{"type":"MultiPolygon","coordinates":[[[[126.944251,35.119419],[126.944416,35.11956],[126.944467,35.119517],[126.944303,35.119379],[126.944251,35.119419]]]]}},{"type":"Feature","id":"0000194856451800269600000000","properties":{"id":"0000194856451800269600000000","pnu":"1221011900101120002","purpose":"기타"},"geometry":{"type":"MultiPolygon","coordinates":[[[[126.944296,35.119318],[126.944407,35.119385],[126.94447,35.119325],[126.944361,35.119258],[126.944296,35.119318]]]]}},{"type":"Feature","id":"0000194865651800387200000000","properties":{"id":"0000194865651800387200000000","pnu":"1221011900101120002","purpose":"기타"},"geometry":{"type":"MultiPolygon","coordinates":[[[[126.944319,35.119382],[126.944509,35.119539],[126.944566,35.119479],[126.944571,35.119486],[126.944621,35.11942],[126.944477,35.119332],[126.944409,35.119393],[126.944347,35.119359],[126.944319,35.119382]]]]}},{"type":"Feature","id":"0000194887971800320700000000","properties":{"id":"0000194887971800320700000000","pnu":"1221011900101150002","purpose":"기타"},"geometry":{"type":"MultiPolygon","coordinates":[[[[126.944699,35.119382],[126.94472,35.119393],[126.944759,35.119358],[126.944737,35.119341],[126.944699,35.119382]]]]}},{"type":"Feature","id":"0000194907721799931700000000","properties":{"id":"0000194907721799931700000000","pnu":"1221011900101160000","purpose":"기타"},"geometry":{"type":"MultiPolygon","coordinates":[[[[126.944789,35.118987],[126.944878,35.119141],[126.945102,35.119048],[126.945014,35.118893],[126.944789,35.118987]]]]}},{"type":"Feature","id":"0000194912261800786500000000","properties":{"id":"0000194912261800786500000000","pnu":"1221011900101130000","purpose":"기타"},"geometry":{"type":"MultiPolygon","coordinates":[[[[126.944955,35.119785],[126.945017,35.119816],[126.945036,35.119791],[126.944974,35.119759],[126.944955,35.119785]]]]}},{"type":"Feature","id":"0000194919621799851100000000","properties":{"id":"0000194919621799851100000000","pnu":"1221011900101160000","purpose":"기타"},"geometry":{"type":"MultiPolygon","coordinates":[[[[126.945084,35.118991],[126.945117,35.118978],[126.945073,35.118903],[126.945056,35.118909],[126.945051,35.1189],[126.945035,35.118906],[126.945084,35.118991]]]]}},{"type":"Feature","id":"0000194927301800689400000000","properties":{"id":"0000194927301800689400000000","pnu":"1221011900200890000","purpose":"기타"},"geometry":{"type":"MultiPolygon","coordinates":[[[[126.945131,35.119743],[126.945199,35.11973],[126.945192,35.119668],[126.945162,35.119673],[126.945155,35.11965],[126.945129,35.11966],[126.945131,35.119743]]]]}},{"type":"Feature","id":"0000194933481799983100000000","properties":{"id":"0000194933481799983100000000","pnu":"1221011900101180000","purpose":"기타"},"geometry":{"type":"MultiPolygon","coordinates":[[[[126.945161,35.11905],[126.945235,35.11912],[126.945295,35.119076],[126.945222,35.119008],[126.945161,35.11905]]]]}},{"type":"Feature","id":"0000194957761799598000000000","properties":{"id":"0000194957761799598000000000","pnu":"1221011900101200000","purpose":"기타"},"geometry":{"type":"MultiPolygon","coordinates":[[[[126.945496,35.118781],[126.945552,35.118755],[126.945498,35.118652],[126.945436,35.118681],[126.945496,35.118781]]]]}},{"type":"Feature","id":"0000194966691799542100000000","properties":{"id":"0000194966691799542100000000","pnu":"1221011900101200000","purpose":"기타"},"geometry":{"type":"MultiPolygon","coordinates":[[[[126.945561,35.118754],[126.945683,35.118701],[126.945613,35.118573],[126.945553,35.118589],[126.945566,35.118623],[126.945505,35.11865],[126.945561,35.118754]]]]}},{"type":"Feature","id":"0000194974421799337300000000","properties":{"id":"0000194974421799337300000000","pnu":"1221011900108540000","purpose":"기타"},"geometry":{"type":"MultiPolygon","coordinates":[[[[126.945642,35.118549],[126.945739,35.118505],[126.945734,35.118497],[126.945767,35.118485],[126.945718,35.118415],[126.945588,35.118475],[126.945642,35.118549]]]]}},{"type":"Feature","id":"0000194977201799421400000000","properties":{"id":"0000194977201799421400000000","pnu":"1221011900101200000","purpose":"기타"},"geometry":{"type":"MultiPolygon","coordinates":[[[[126.945649,35.118559],[126.945668,35.1186],[126.945766,35.11856],[126.945747,35.118513],[126.945649,35.118559]]]]}},{"type":"Feature","id":"0000194984931799490400000000","properties":{"id":"0000194984931799490400000000","pnu":"1221011900100760000","purpose":"기타"},"geometry":{"type":"MultiPolygon","coordinates":[[[[126.945732,35.118726],[126.945779,35.118706],[126.945779,35.118694],[126.945894,35.11865],[126.945824,35.118506],[126.945761,35.118529],[126.945779,35.118566],[126.945711,35.118595],[126.945724,35.118621],[126.945714,35.118629],[126.94573,35.118662],[126.945702,35.118674],[126.945732,35.118726]]]]}},{"type":"Feature","id":"0000195000401799124500000000","properties":{"id":"0000195000401799124500000000","pnu":"1221011900108540000","purpose":"기타"},"geometry":{"type":"MultiPolygon","coordinates":[[[[126.945918,35.118302],[126.945953,35.118327],[126.946007,35.118275],[126.945977,35.118254],[126.945918,35.118302]]]]}},{"type":"Feature","id":"0000195001211799311400000000","properties":{"id":"0000195001211799311400000000","pnu":"1221011900100760000","purpose":"기타"},"geometry":{"type":"MultiPolygon","coordinates":[[[[126.945825,35.11843],[126.945987,35.118561],[126.946123,35.118448],[126.946049,35.118393],[126.946011,35.118427],[126.945993,35.118413],[126.945976,35.118427],[126.945896,35.118366],[126.945825,35.11843]]]]}},{"type":"Feature","id":"0000195162911798916200000000","properties":{"id":"0000195162911798916200000000","pnu":"1221011900100820000","purpose":"기타"},"geometry":{"type":"MultiPolygon","coordinates":[[[[126.947663,35.118143],[126.947824,35.118142],[126.947826,35.118064],[126.947673,35.118063],[126.947663,35.118143]]]]}},{"type":"Feature","id":"1972194920081800680600000000","properties":{"id":"1972194920081800680600000000","pnu":"1221011900101140000","purpose":"제2종 근린생활시설","far":19.86,"floors":1,"structure":"블록구조"},"geometry":{"type":"MultiPolygon","coordinates":[[[[126.945042,35.119735],[126.945122,35.119732],[126.94512,35.119649],[126.94504,35.119654],[126.945042,35.119735]]]]}},{"type":"Feature","id":"1972194927021800796700000000","properties":{"id":"1972194927021800796700000000","pnu":"1221011900101140000","purpose":"기타","structure":"블록구조"},"geometry":{"type":"MultiPolygon","coordinates":[[[[126.945141,35.119844],[126.945194,35.11983],[126.945174,35.119751],[126.945121,35.119763],[126.945141,35.119844]]]]}},{"type":"Feature","id":"1983194879331800534800000000","properties":{"id":"1983194879331800534800000000","pnu":"1221011900101120001","purpose":"기타","structure":"벽돌구조"},"geometry":{"type":"MultiPolygon","coordinates":[[[[126.944584,35.119596],[126.94465,35.119584],[126.944703,35.11955],[126.944659,35.119518],[126.944623,35.119547],[126.94457,35.119554],[126.944584,35.119596]]]]}},{"type":"Feature","id":"1983194883351800451600000000","properties":{"id":"1983194883351800451600000000","pnu":"1221011900101120001","year":1983,"purpose":"단독주택"},"geometry":{"type":"MultiPolygon","coordinates":[[[[126.944598,35.119478],[126.944716,35.119543],[126.94476,35.11949],[126.944634,35.11943],[126.944598,35.119478]]]]}},{"type":"Feature","id":"1985194894251800540200000000","properties":{"id":"1985194894251800540200000000","pnu":"1221011900101150001","year":1985,"purpose":"단독주택","floors":1,"structure":"벽돌구조"},"geometry":{"type":"MultiPolygon","coordinates":[[[[126.944713,35.119566],[126.944828,35.119628],[126.944881,35.119563],[126.94477,35.119504],[126.944713,35.119566]]]]}},{"type":"Feature","id":"1985194907171800559100000000","properties":{"id":"1985194907171800559100000000","pnu":"1221011900101150001","purpose":"단독주택","structure":"벽돌구조"},"geometry":{"type":"MultiPolygon","coordinates":[[[[126.944884,35.119604],[126.944945,35.119631],[126.944996,35.119561],[126.944933,35.119534],[126.944884,35.119604]]]]}},{"type":"Feature","id":"1988194876871800263100000000","properties":{"id":"1988194876871800263100000000","pnu":"1221011900101150002","year":1988,"purpose":"기타"},"geometry":{"type":"MultiPolygon","coordinates":[[[[126.944491,35.119303],[126.944654,35.1194],[126.944724,35.119326],[126.944559,35.119232],[126.944491,35.119303]]]]}},{"type":"Feature","id":"1996194443581802719400000000","properties":{"id":"1996194443581802719400000000","pnu":"1221011900103770005","year":1996,"purpose":"제2종 근린생활시설","far":16.78,"floors":1,"structure":"벽돌구조"},"geometry":{"type":"MultiPolygon","coordinates":[[[[126.939796,35.121642],[126.939979,35.121583],[126.939931,35.121482],[126.939955,35.121474],[126.939925,35.121413],[126.939718,35.12148],[126.939796,35.121642]]]]}},{"type":"Feature","id":"1996194527771801555200000000","properties":{"id":"1996194527771801555200000000","pnu":"1221011900101010001","year":1996,"purpose":"기타"},"geometry":{"type":"MultiPolygon","coordinates":[[[[126.940722,35.120487],[126.940789,35.12052],[126.940832,35.120466],[126.940762,35.12044],[126.940722,35.120487]]]]}},{"type":"Feature","id":"1996194538621801299800000000","properties":{"id":"1996194538621801299800000000","pnu":"1221011900101010001","year":1996,"purpose":"기타"},"geometry":{"type":"MultiPolygon","coordinates":[[[[126.940855,35.12028],[126.940932,35.120282],[126.940934,35.120216],[126.940863,35.120214],[126.940855,35.12028]]]]}},{"type":"Feature","id":"1996194540051801492300000000","properties":{"id":"1996194540051801492300000000","pnu":"1221011900101010001","year":1996,"purpose":"기타","far":7.01,"floors":3,"structure":"철근콘크리트구조"},"geometry":{"type":"MultiPolygon","coordinates":[[[[126.940832,35.120357],[126.940867,35.120509],[126.940915,35.120501],[126.940993,35.120484],[126.940953,35.120334],[126.940832,35.120357]]]]}},{"type":"Feature","id":"1996194615751800562500000000","properties":{"id":"1996194615751800562500000000","pnu":"1221011900101010001","year":1996,"purpose":"기타"},"geometry":{"type":"MultiPolygon","coordinates":[[[[126.941669,35.1196],[126.941722,35.119645],[126.941818,35.119566],[126.94176,35.119525],[126.941669,35.1196]]]]}},{"type":"Feature","id":"1997194873101799631900000000","properties":{"id":"1997194873101799631900000000","pnu":"1221011900101230000","year":1997,"purpose":"단독주택"},"geometry":{"type":"MultiPolygon","coordinates":[[[[126.944487,35.118714],[126.944483,35.118773],[126.944646,35.11878],[126.94465,35.118721],[126.944487,35.118714]]]]}},{"type":"Feature","id":"1997194884681799641700000000","properties":{"id":"1997194884681799641700000000","pnu":"1221011900101230000","year":1997,"purpose":"제2종 근린생활시설"},"geometry":{"type":"MultiPolygon","coordinates":[[[[126.944648,35.118779],[126.94474,35.118786],[126.944727,35.118723],[126.94465,35.118732],[126.944648,35.118779]]]]}},{"type":"Feature","id":"1997194892361799640100000000","properties":{"id":"1997194892361799640100000000","pnu":"1221011900101230000","year":1997,"purpose":"기타"},"geometry":{"type":"MultiPolygon","coordinates":[[[[126.94473,35.118735],[126.944748,35.118793],[126.944832,35.118767],[126.944802,35.118718],[126.94473,35.118735]]]]}},{"type":"Feature","id":"1997194904671799574500000000","properties":{"id":"1997194904671799574500000000","pnu":"1221011900101230000","year":1997,"purpose":"단독주택","far":11.245803,"floors":1,"structure":"벽돌구조"},"geometry":{"type":"MultiPolygon","coordinates":[[[[126.944874,35.118787],[126.944996,35.118713],[126.944991,35.118707],[126.945009,35.118694],[126.944962,35.118646],[126.944974,35.11864],[126.944936,35.118604],[126.944847,35.118653],[126.94487,35.118683],[126.944821,35.118717],[126.944874,35.118787]]]]}},{"type":"Feature","id":"1997194913541799520000000000","properties":{"id":"1997194913541799520000000000","pnu":"1221011900101230000","year":1997,"purpose":"기타"},"geometry":{"type":"MultiPolygon","coordinates":[[[[126.945,35.118606],[126.944967,35.118627],[126.945016,35.118685],[126.945055,35.118664],[126.945,35.118606]]]]}},{"type":"Feature","id":"1998194955231798988900000000","properties":{"id":"1998194955231798988900000000","pnu":"1221011900101290000","purpose":"기타","structure":"강파이프구조"},"geometry":{"type":"MultiPolygon","coordinates":[[[[126.945453,35.118211],[126.945526,35.118145],[126.945507,35.118127],[126.945486,35.118146],[126.945472,35.118134],[126.945411,35.11818],[126.945453,35.118211]]]]}},{"type":"Feature","id":"1998194973251798988900000000","properties":{"id":"1998194973251798988900000000","pnu":"1221011900101290000","year":1998,"purpose":"기타","far":27.49,"floors":2,"structure":"철근콘크리트구조"},"geometry":{"type":"MultiPolygon","coordinates":[[[[126.945559,35.118141],[126.945693,35.118257],[126.945771,35.118197],[126.945641,35.118078],[126.945559,35.118141]]]]}},{"type":"Feature","id":"2000194399291807991200000000","properties":{"id":"2000194399291807991200000000","pnu":"1221011900200080038","year":2000,"purpose":"기타"},"geometry":{"type":"MultiPolygon","coordinates":[[[[126.939039,35.126233],[126.939048,35.126361],[126.939686,35.126326],[126.939676,35.126196],[126.939039,35.126233]]]]}},{"type":"Feature","id":"2002194476591801796600000000","properties":{"id":"2002194476591801796600000000","pnu":"1221011900103750001","year":2002,"purpose":"기타","far":10.66,"floors":1,"structure":"경량철골구조"},"geometry":{"type":"MultiPolygon","coordinates":[[[[126.94014,35.12069],[126.940152,35.120725],[126.940218,35.120708],[126.940226,35.120725],[126.940282,35.120707],[126.940267,35.120663],[126.94014,35.12069]]]]}},{"type":"Feature","id":"2002194484311801941400000000","properties":{"id":"2002194484311801941400000000","pnu":"1221011900103750001","year":2002,"purpose":"기타","far":8.55,"floors":1,"structure":"경량철골구조"},"geometry":{"type":"MultiPolygon","coordinates":[[[[126.940261,35.120805],[126.94028,35.120859],[126.940301,35.120853],[126.940308,35.120862],[126.940339,35.12085],[126.940314,35.120788],[126.940261,35.120805]]]]}},{"type":"Feature","id":"2004194464101801730800000000","properties":{"id":"2004194464101801730800000000","pnu":"1221011900103760000","year":2004,"purpose":"기타"},"geometry":{"type":"MultiPolygon","coordinates":[[[[126.940052,35.120661],[126.940112,35.120659],[126.94008,35.120594],[126.940053,35.120632],[126.940052,35.120661]]]]}},{"type":"Feature","id":"2004194488591801731900000000","properties":{"id":"2004194488591801731900000000","pnu":"1221011900103760000","year":2004,"purpose":"기타"},"geometry":{"type":"MultiPolygon","coordinates":[[[[126.940134,35.120676],[126.940327,35.120604],[126.940445,35.120814],[126.940472,35.120811],[126.94048,35.120829],[126.940552,35.120803],[126.940387,35.120486],[126.94009,35.120594],[126.940134,35.120676]]]]}},{"type":"Feature","id":"2009194471101801897500000000","properties":{"id":"2009194471101801897500000000","pnu":"1221011900103750000","year":2009,"purpose":"기타","far":19.97,"floors":1,"structure":"일반철골구조"},"geometry":{"type":"MultiPolygon","coordinates":[[[[126.940116,35.120742],[126.940158,35.120841],[126.940194,35.12083],[126.940157,35.120744],[126.940153,35.120745],[126.940147,35.120733],[126.940116,35.120742]]]]}},{"type":"Feature","id":"2009194520891801859800000000","properties":{"id":"2009194520891801859800000000","pnu":"1221011900101000000","year":2009,"purpose":"기타","far":39.2,"floors":2,"structure":"일반철골구조"},"geometry":{"type":"MultiPolygon","coordinates":[[[[126.940642,35.120801],[126.940779,35.120758],[126.940762,35.120705],[126.940622,35.120748],[126.940642,35.120801]]]]}},{"type":"Feature","id":"2009194536101801713800000000","properties":{"id":"2009194536101801713800000000","pnu":"1221011900101000000","year":2009,"purpose":"기타","far":39.2,"floors":2,"structure":"일반철골구조"},"geometry":{"type":"MultiPolygon","coordinates":[[[[126.940863,35.120684],[126.940926,35.120658],[126.940876,35.120561],[126.940809,35.120585],[126.940863,35.120684]]]]}},{"type":"Feature","id":"2012194940071798909500000000","properties":{"id":"2012194940071798909500000000","pnu":"1221011900101300000","year":2012,"purpose":"기타","far":42.8,"floors":3,"structure":"철근콘크리트구조"},"geometry":{"type":"MultiPolygon","coordinates":[[[[126.94543,35.118083],[126.945375,35.118009],[126.945173,35.118109],[126.945228,35.118183],[126.94543,35.118083]]]]}}]}
