{"type":"FeatureCollection","features":[{"type":"Feature","id":"0000194364721776180000000000","properties":{"id":"0000194364721776180000000000","pnu":"1221012500103320000"},"geometry":{"type":"MultiPolygon","coordinates":[[[[126.938972,35.097641],[126.939029,35.097646],[126.939039,35.09757],[126.938982,35.097565],[126.938972,35.097641]]]]}},{"type":"Feature","id":"0000194365201776089300000000","properties":{"id":"0000194365201776089300000000","pnu":"1221012500103320000"},"geometry":{"type":"MultiPolygon","coordinates":[[[[126.939045,35.097505],[126.938982,35.097499],[126.938976,35.097543],[126.93904,35.097549],[126.939045,35.097505]]]]}},{"type":"Feature","id":"0000194368981773428600000000","properties":{"id":"0000194368981773428600000000","pnu":"1221012500108570013"},"geometry":{"type":"MultiPolygon","coordinates":[[[[126.939096,35.095157],[126.939111,35.095132],[126.93901,35.095094],[126.938999,35.09512],[126.939096,35.095157]]]]}},{"type":"Feature","id":"0000194379231768958100000000","properties":{"id":"0000194379231768958100000000","pnu":"1221012500102290001"},"geometry":{"type":"MultiPolygon","coordinates":[[[[126.939122,35.09114],[126.939179,35.091156],[126.939217,35.09105],[126.939161,35.091036],[126.939122,35.09114]]]]}},{"type":"Feature","id":"0000194380791772682700000000","properties":{"id":"0000194380791772682700000000","pnu":"1221012500203220003"},"geometry":{"type":"MultiPolygon","coordinates":[[[[126.939115,35.094423],[126.939109,35.094473],[126.939254,35.094483],[126.939259,35.094434],[126.939115,35.094423]]]]}},{"type":"Feature","id":"0000194380851774946300000000","properties":{"id":"0000194380851774946300000000","pnu":"1221012500103280000"},"geometry":{"type":"MultiPolygon","coordinates":[[[[126.939156,35.096481],[126.939157,35.096507],[126.93921,35.096506],[126.939209,35.09648],[126.939156,35.096481]]]]}},{"type":"Feature","id":"0000194388951771844000000000","properties":{"id":"0000194388951771844000000000","pnu":"1221012500102800001"},"geometry":{"type":"MultiPolygon","coordinates":[[[[126.939303,35.093673],[126.939264,35.093664],[126.939246,35.093722],[126.939284,35.09373],[126.939303,35.093673]]]]}},{"type":"Feature","id":"0000194391381771784200000000","properties":{"id":"0000194391381771784200000000","pnu":"1221012500108570025"},"geometry":{"type":"MultiPolygon","coordinates":[[[[126.939278,35.093656],[126.939312,35.093669],[126.939326,35.093628],[126.939284,35.093622],[126.939278,35.093656]]]]}},{"type":"Feature","id":"0000194392371772996200000000","properties":{"id":"0000194392371772996200000000","pnu":"1221012500108570015"},"geometry":{"type":"MultiPolygon","coordinates":[[[[126.939272,35.094755],[126.939323,35.094772],[126.939349,35.094717],[126.939299,35.0947],[126.939272,35.094755]]]]}},{"type":"Feature","id":"0000194393691772666000000000","properties":{"id":"0000194393691772666000000000","pnu":"1221012500108570018"},"geometry":{"type":"MultiPolygon","coordinates":[[[[126.939279,35.094448],[126.939357,35.094468],[126.939372,35.094429],[126.939295,35.094408],[126.939279,35.094448]]]]}},{"type":"Feature","id":"0000194399371773040200000000","properties":{"id":"0000194399371773040200000000","pnu":"1221012500108570015"},"geometry":{"type":"MultiPolygon","coordinates":[[[[126.939346,35.094727],[126.939322,35.094776],[126.93938,35.094805],[126.939383,35.094801],[126.939432,35.09482],[126.939459,35.094782],[126.939346,35.094727]]]]}},{"type":"Feature","id":"0000194400971773375000000000","properties":{"id":"0000194400971773375000000000","pnu":"1221012500103070003"},"geometry":{"type":"MultiPolygon","coordinates":[[[[126.93947,35.095108],[126.939479,35.095065],[126.93934,35.095046],[126.939331,35.09509],[126.93947,35.095108]]]]}},{"type":"Feature","id":"0000194401691771696900000000","properties":{"id":"0000194401691771696900000000","pnu":"1221012500108570027"},"geometry":{"type":"MultiPolygon","coordinates":[[[[126.939406,35.093511],[126.939361,35.093597],[126.939422,35.093618],[126.939467,35.093533],[126.939406,35.093511]]]]}},{"type":"Feature","id":"0000194402001772923200000000","properties":{"id":"0000194402001772923200000000","pnu":"1221012500108570015"},"geometry":{"type":"MultiPolygon","coordinates":[[[[126.939379,35.094728],[126.939428,35.094735],[126.939454,35.094613],[126.939406,35.094606],[126.939379,35.094728]]]]}},{"type":"Feature","id":"0000194407021773155400000000","properties":{"id":"0000194407021773155400000000","pnu":"1221012500103070003"},"geometry":{"type":"MultiPolygon","coordinates":[[[[126.939429,35.094853],[126.939419,35.094874],[126.939514,35.094906],[126.939524,35.094885],[126.939429,35.094853]]]]}},{"type":"Feature","id":"0000194407031772778800000000","properties":{"id":"0000194407031772778800000000","pnu":"1221012500108570015"},"geometry":{"type":"MultiPolygon","coordinates":[[[[126.939439,35.094575],[126.939491,35.094581],[126.939505,35.094505],[126.939453,35.094499],[126.939439,35.094575]]]]}},{"type":"Feature","id":"0000194407371772669300000000","properties":{"id":"0000194407371772669300000000","pnu":"1221012500108570019"},"geometry":{"type":"MultiPolygon","coordinates":[[[[126.939524,35.094394],[126.939455,35.094385],[126.939432,35.094493],[126.93949,35.0945],[126.939524,35.094394]]]]}},{"type":"Feature","id":"0000194409091773122400000000","properties":{"id":"0000194409091773122400000000","pnu":"1221012500103070003"},"geometry":{"type":"MultiPolygon","coordinates":[[[[126.93954,35.094876],[126.93955,35.094857],[126.939448,35.094824],[126.939439,35.094843],[126.93954,35.094876]]]]}},{"type":"Feature","id":"0000194410281772488700000000","properties":{"id":"0000194410281772488700000000","pnu":"1221012500108570025"},"geometry":{"type":"MultiPolygon","coordinates":[[[[126.939534,35.094296],[126.93954,35.094271],[126.939483,35.094261],[126.939474,35.094286],[126.939534,35.094296]]]]}},{"type":"Feature","id":"0000194410471773094000000000","properties":{"id":"0000194410471773094000000000","pnu":"1221012500103070003"},"geometry":{"type":"MultiPolygon","coordinates":[[[[126.939446,35.094811],[126.939565,35.094852],[126.939573,35.094838],[126.939454,35.094796],[126.939446,35.094811]]]]}},{"type":"Feature","id":"0000194417111771435400000000","properties":{"id":"0000194417111771435400000000","pnu":"1221012500108570032"},"geometry":{"type":"MultiPolygon","coordinates":[[[[126.939527,35.093337],[126.939615,35.093369],[126.93964,35.093321],[126.939552,35.09329],[126.939527,35.093337]]]]}},{"type":"Feature","id":"0000194417161772067500000000","properties":{"id":"0000194417161772067500000000","pnu":"1221012500108570024"},"geometry":{"type":"MultiPolygon","coordinates":[[[[126.939578,35.093874],[126.939565,35.093919],[126.939589,35.093923],[126.939602,35.093879],[126.939578,35.093874]]]]}},{"type":"Feature","id":"0000194420941771975400000000","properties":{"id":"0000194420941771975400000000","pnu":"1221012500108570024"},"geometry":{"type":"MultiPolygon","coordinates":[[[[126.939624,35.093756],[126.939578,35.093861],[126.939626,35.093876],[126.939672,35.093771],[126.939624,35.093756]]]]}},{"type":"Feature","id":"0000194423441775963900000000","properties":{"id":"0000194423441775963900000000","pnu":"1221012500103320000"},"geometry":{"type":"MultiPolygon","coordinates":[[[[126.939603,35.097449],[126.939683,35.097457],[126.939696,35.097373],[126.939616,35.097365],[126.939603,35.097449]]]]}},{"type":"Feature","id":"0000194423971771354400000000","properties":{"id":"0000194423971771354400000000","pnu":"1221012500108570032"},"geometry":{"type":"MultiPolygon","coordinates":[[[[126.939683,35.093303],[126.939691,35.093213],[126.939634,35.09321],[126.939626,35.093299],[126.939683,35.093303]]]]}},{"type":"Feature","id":"0000194427201771516200000000","properties":{"id":"0000194427201771516200000000","pnu":"1221012500108570030"},"geometry":{"type":"MultiPolygon","coordinates":[[[[126.939655,35.093376],[126.939643,35.093402],[126.939733,35.093429],[126.939745,35.093402],[126.939655,35.093376]]]]}},{"type":"Feature","id":"0000194430551771303000000000","properties":{"id":"0000194430551771303000000000","pnu":"1221012500108570032"},"geometry":{"type":"MultiPolygon","coordinates":[[[[126.939765,35.093189],[126.939692,35.093196],[126.939696,35.093231],[126.93977,35.093224],[126.939765,35.093189]]]]}},{"type":"Feature","id":"0000194446601772244900000000","properties":{"id":"0000194446601772244900000000","pnu":"1221012500102990001"},"geometry":{"type":"MultiPolygon","coordinates":[[[[126.939779,35.094099],[126.940024,35.094115],[126.940034,35.094019],[126.939788,35.094003],[126.939779,35.094099]]]]}},{"type":"Feature","id":"0000194448371771435200000000","properties":{"id":"0000194448371771435200000000","pnu":"1221012500100500000"},"geometry":{"type":"MultiPolygon","coordinates":[[[[126.939901,35.09339],[126.939982,35.093373],[126.939949,35.093266],[126.93987,35.093287],[126.939901,35.09339]]]]}},{"type":"Feature","id":"0000194454801774535700000000","properties":{"id":"0000194454801774535700000000","pnu":"1221012500103190003"},"geometry":{"type":"MultiPolygon","coordinates":[[[[126.939995,35.096157],[126.940018,35.096097],[126.939994,35.096091],[126.939971,35.096151],[126.939995,35.096157]]]]}},{"type":"Feature","id":"0000194455381775269900000000","properties":{"id":"0000194455381775269900000000","pnu":"1221012500103310000"},"geometry":{"type":"MultiPolygon","coordinates":[[[[126.939971,35.096727],[126.939939,35.096824],[126.94003,35.096844],[126.940062,35.096748],[126.939971,35.096727]]]]}},{"type":"Feature","id":"0000194457621774393800000000","properties":{"id":"0000194457621774393800000000","pnu":"1221012500103190004"},"geometry":{"type":"MultiPolygon","coordinates":[[[[126.940052,35.09602],[126.940061,35.095993],[126.940003,35.095973],[126.939987,35.095998],[126.940052,35.09602]]]]}},{"type":"Feature","id":"0000194460691774308800000000","properties":{"id":"0000194460691774308800000000","pnu":"1221012500103190004"},"geometry":{"type":"MultiPolygon","coordinates":[[[[126.94008,35.095949],[126.940097,35.095905],[126.940044,35.095888],[126.940019,35.095935],[126.94008,35.095949]]]]}},{"type":"Feature","id":"0000194474441772250900000000","properties":{"id":"0000194474441772250900000000","pnu":"1221012500102990001"},"geometry":{"type":"MultiPolygon","coordinates":[[[[126.940362,35.094125],[126.940371,35.094024],[126.940061,35.094004],[126.940052,35.094105],[126.940362,35.094125]]]]}},{"type":"Feature","id":"0000194488071775613500000000","properties":{"id":"0000194488071775613500000000","pnu":"1221012500103380003"},"geometry":{"type":"MultiPolygon","coordinates":[[[[126.940373,35.097132],[126.940391,35.097067],[126.940342,35.097061],[126.940328,35.097106],[126.940339,35.097109],[126.940333,35.097128],[126.940373,35.097132]]]]}},{"type":"Feature","id":"0000194492851775624500000000","properties":{"id":"0000194492851775624500000000","pnu":"1221012500103380003"},"geometry":{"type":"MultiPolygon","coordinates":[[[[126.940447,35.097078],[126.940393,35.097068],[126.940375,35.097133],[126.94043,35.097143],[126.940447,35.097078]]]]}},{"type":"Feature","id":"0000194497011775567600000000","properties":{"id":"0000194497011775567600000000","pnu":"1221012500103380003"},"geometry":{"type":"MultiPolygon","coordinates":[[[[126.940551,35.097089],[126.940559,35.097057],[126.940363,35.097019],[126.940352,35.097051],[126.940551,35.097089]]]]}},{"type":"Feature","id":"0000194499681771172800000000","properties":{"id":"0000194499681771172800000000","pnu":"1221012500100270000"},"geometry":{"type":"MultiPolygon","coordinates":[[[[126.940772,35.093135],[126.940774,35.093066],[126.940214,35.093051],[126.940197,35.093119],[126.940772,35.093135]]]]}},{"type":"Feature","id":"0000194501481771088600000000","properties":{"id":"0000194501481771088600000000","pnu":"1221012500100270000"},"geometry":{"type":"MultiPolygon","coordinates":[[[[126.940245,35.093033],[126.940774,35.093042],[126.940778,35.093003],[126.940249,35.092991],[126.940245,35.093033]]]]}},{"type":"Feature","id":"0000194502731771012000000000","properties":{"id":"0000194502731771012000000000","pnu":"1221012500100270000"},"geometry":{"type":"MultiPolygon","coordinates":[[[[126.940775,35.092984],[126.940778,35.092923],[126.940268,35.092913],[126.940266,35.092973],[126.940775,35.092984]]]]}},{"type":"Feature","id":"0000194505751770914000000000","properties":{"id":"0000194505751770914000000000","pnu":"1221012500100270000"},"geometry":{"type":"MultiPolygon","coordinates":[[[[126.940323,35.092889],[126.940786,35.092901],[126.940787,35.092831],[126.94033,35.092817],[126.940323,35.092889]]]]}},{"type":"Feature","id":"0000194507701771261600000000","properties":{"id":"0000194507701771261600000000","pnu":"1221012500100260000"},"geometry":{"type":"MultiPolygon","coordinates":[[[[126.940189,35.093128],[126.940185,35.093195],[126.940956,35.09322],[126.940961,35.093149],[126.940189,35.093128]]]]}},{"type":"Feature","id":"0000194508851770839500000000","properties":{"id":"0000194508851770839500000000","pnu":"1221012500100270000"},"geometry":{"type":"MultiPolygon","coordinates":[[[[126.940791,35.092827],[126.940797,35.092774],[126.940392,35.092757],[126.940388,35.092813],[126.940791,35.092827]]]]}},{"type":"Feature","id":"0000194518061774896200000000","properties":{"id":"0000194518061774896200000000","pnu":"1221012500100080003"},"geometry":{"type":"MultiPolygon","coordinates":[[[[126.940542,35.096469],[126.940826,35.096494],[126.94084,35.096433],[126.940552,35.096402],[126.940542,35.096469]]]]}},{"type":"Feature","id":"0000194519311774821600000000","properties":{"id":"0000194519311774821600000000","pnu":"1221012500100080003"},"geometry":{"type":"MultiPolygon","coordinates":[[[[126.940838,35.096425],[126.940846,35.096367],[126.940566,35.096339],[126.940557,35.096397],[126.940838,35.096425]]]]}},{"type":"Feature","id":"0000194520351774753800000000","properties":{"id":"0000194520351774753800000000","pnu":"1221012500100080003"},"geometry":{"type":"MultiPolygon","coordinates":[[[[126.940567,35.096335],[126.940851,35.096364],[126.940859,35.096307],[126.940576,35.096277],[126.940567,35.096335]]]]}},{"type":"Feature","id":"0000194521561774684500000000","properties":{"id":"0000194521561774684500000000","pnu":"1221012500100080003"},"geometry":{"type":"MultiPolygon","coordinates":[[[[126.940861,35.0963],[126.940869,35.096243],[126.940592,35.096216],[126.940584,35.096273],[126.940861,35.0963]]]]}},{"type":"Feature","id":"0000194522781774617100000000","properties":{"id":"0000194522781774617100000000","pnu":"1221012500100080003"},"geometry":{"type":"MultiPolygon","coordinates":[[[[126.940593,35.09621],[126.940879,35.096239],[126.940887,35.096185],[126.940601,35.096156],[126.940593,35.09621]]]]}},{"type":"Feature","id":"0000194523941774548500000000","properties":{"id":"0000194523941774548500000000","pnu":"1221012500100080003"},"geometry":{"type":"MultiPolygon","coordinates":[[[[126.940887,35.096179],[126.940896,35.096123],[126.940618,35.096093],[126.94061,35.096149],[126.940887,35.096179]]]]}},{"type":"Feature","id":"0000194574021767242700000000","properties":{"id":"0000194574021767242700000000","pnu":"1221012500100850000"},"geometry":{"type":"MultiPolygon","coordinates":[[[[126.941366,35.089517],[126.941236,35.089544],[126.941248,35.089585],[126.941378,35.089558],[126.941366,35.089517]]]]}},{"type":"Feature","id":"0000194574171767302200000000","properties":{"id":"0000194574171767302200000000","pnu":"1221012500100850000"},"geometry":{"type":"MultiPolygon","coordinates":[[[[126.941253,35.089596],[126.941262,35.089631],[126.941364,35.089613],[126.941355,35.089578],[126.941253,35.089596]]]]}},{"type":"Feature","id":"0000194586811767055500000000","properties":{"id":"0000194586811767055500000000","pnu":"1221012500100900001"},"geometry":{"type":"MultiPolygon","coordinates":[[[[126.941523,35.089566],[126.941421,35.08919],[126.941372,35.089199],[126.941473,35.089575],[126.941523,35.089566]]]]}},{"type":"Feature","id":"0000194590621767354800000000","properties":{"id":"0000194590621767354800000000","pnu":"1221012500100850000"},"geometry":{"type":"MultiPolygon","coordinates":[[[[126.941264,35.089739],[126.941738,35.089648],[126.941714,35.089565],[126.94124,35.089656],[126.941264,35.089739]]]]}},{"type":"Feature","id":"0000194592311767038800000000","properties":{"id":"0000194592311767038800000000","pnu":"1221012500100900001"},"geometry":{"type":"MultiPolygon","coordinates":[[[[126.94148,35.089176],[126.941429,35.089185],[126.941535,35.089559],[126.941586,35.089549],[126.94148,35.089176]]]]}},{"type":"Feature","id":"0000194597851766992600000000","properties":{"id":"0000194597851766992600000000","pnu":"1221012500100900001"},"geometry":{"type":"MultiPolygon","coordinates":[[[[126.941649,35.089536],[126.941536,35.089106],[126.941488,35.089115],[126.941601,35.089545],[126.941649,35.089536]]]]}},{"type":"Feature","id":"0000194600061766746500000000","properties":{"id":"0000194600061766746500000000","pnu":"1221012500100900000"},"geometry":{"type":"MultiPolygon","coordinates":[[[[126.941621,35.089117],[126.94161,35.089082],[126.941565,35.089091],[126.941575,35.089126],[126.941621,35.089117]]]]}},{"type":"Feature","id":"0000194614041766709500000000","properties":{"id":"0000194614041766709500000000","pnu":"1221012500100900000"},"geometry":{"type":"MultiPolygon","coordinates":[[[[126.941725,35.089091],[126.941772,35.089088],[126.941767,35.08905],[126.941721,35.089053],[126.941725,35.089091]]]]}},{"type":"Feature","id":"0000194626521767006100000000","properties":{"id":"0000194626521767006100000000","pnu":"1221012500100850000"},"geometry":{"type":"MultiPolygon","coordinates":[[[[126.942017,35.089339],[126.942007,35.089297],[126.941749,35.089336],[126.941758,35.089379],[126.942017,35.089339]]]]}},{"type":"Feature","id":"0000194630021767268300000000","properties":{"id":"0000194630021767268300000000","pnu":"1221012500100850000"},"geometry":{"type":"MultiPolygon","coordinates":[[[[126.941778,35.089631],[126.942079,35.089559],[126.942064,35.089517],[126.941763,35.08959],[126.941778,35.089631]]]]}},{"type":"Feature","id":"0000194630791767065700000000","properties":{"id":"0000194630791767065700000000","pnu":"1221012500100850000"},"geometry":{"type":"MultiPolygon","coordinates":[[[[126.941838,35.089435],[126.942034,35.089404],[126.942021,35.089348],[126.941825,35.089379],[126.941838,35.089435]]]]}},{"type":"Feature","id":"0000194631661767135200000000","properties":{"id":"0000194631661767135200000000","pnu":"1221012500100850000"},"geometry":{"type":"MultiPolygon","coordinates":[[[[126.942048,35.089464],[126.942034,35.08941],[126.94183,35.089445],[126.941844,35.089499],[126.942048,35.089464]]]]}},{"type":"Feature","id":"0000194642681767037300000000","properties":{"id":"0000194642681767037300000000","pnu":"1221012500100850000"},"geometry":{"type":"MultiPolygon","coordinates":[[[[126.942018,35.089303],[126.94205,35.089438],[126.942102,35.089429],[126.94207,35.089295],[126.942018,35.089303]]]]}},{"type":"Feature","id":"0000194669861770290200000000","properties":{"id":"0000194669861770290200000000","pnu":"1221012500100420000"},"geometry":{"type":"MultiPolygon","coordinates":[[[[126.942372,35.092328],[126.942391,35.0923],[126.942342,35.092269],[126.942319,35.092296],[126.942372,35.092328]]]]}},{"type":"Feature","id":"0000194678271769999600000000","properties":{"id":"0000194678271769999600000000","pnu":"1221012500108540002"},"geometry":{"type":"MultiPolygon","coordinates":[[[[126.94243,35.092087],[126.942512,35.092024],[126.942463,35.091986],[126.942387,35.092049],[126.94243,35.092087]]]]}},{"type":"Feature","id":"0000194685261769924700000000","properties":{"id":"0000194685261769924700000000","pnu":"1221012500108540002"},"geometry":{"type":"MultiPolygon","coordinates":[[[[126.942532,35.091989],[126.942542,35.091959],[126.942523,35.09195],[126.942504,35.091975],[126.942532,35.091989]]]]}},{"type":"Feature","id":"0000194700001770002000000000","properties":{"id":"0000194700001770002000000000","pnu":"1221012400104450002"},"geometry":{"type":"MultiPolygon","coordinates":[[[[126.942692,35.09211],[126.942769,35.092064],[126.942681,35.091967],[126.942605,35.092013],[126.942692,35.09211]]]]}},{"type":"Feature","id":"0000194789391769317400000000","properties":{"id":"0000194789391769317400000000","pnu":"1221012400104430001"},"geometry":{"type":"MultiPolygon","coordinates":[[[[126.943864,35.091352],[126.943807,35.091291],[126.94347,35.091492],[126.943529,35.091553],[126.943864,35.091352]]]]}},{"type":"Feature","id":"0000194795401769402300000000","properties":{"id":"0000194795401769402300000000","pnu":"1221012400104430001"},"geometry":{"type":"MultiPolygon","coordinates":[[[[126.943597,35.091633],[126.94393,35.091432],[126.943872,35.091363],[126.943534,35.091568],[126.943597,35.091633]]]]}},{"type":"Feature","id":"0000194798901769793200000000","properties":{"id":"0000194798901769793200000000","pnu":"1221012400104440002"},"geometry":{"type":"MultiPolygon","coordinates":[[[[126.94355,35.091941],[126.9436,35.091996],[126.943985,35.091774],[126.943927,35.091707],[126.94355,35.091941]]]]}},{"type":"Feature","id":"0000194815971769065700000000","properties":{"id":"0000194815971769065700000000","pnu":"1221012400104510000"},"geometry":{"type":"MultiPolygon","coordinates":[[[[126.944049,35.091253],[126.943928,35.091111],[126.943873,35.091147],[126.943988,35.091275],[126.944049,35.091253]]]]}},{"type":"Feature","id":"0000194825131769333200000000","properties":{"id":"0000194825131769333200000000","pnu":"1221012400104520003"},"geometry":{"type":"MultiPolygon","coordinates":[[[[126.944084,35.09128],[126.944012,35.09131],[126.944033,35.091588],[126.944107,35.091566],[126.944084,35.09128]]]]}},{"type":"Feature","id":"0000194832221769303300000000","properties":{"id":"0000194832221769303300000000","pnu":"1221012400104520003"},"geometry":{"type":"MultiPolygon","coordinates":[[[[126.944186,35.091535],[126.944155,35.091249],[126.94409,35.091286],[126.944116,35.091563],[126.944186,35.091535]]]]}},{"type":"Feature","id":"0000194835281769488600000000","properties":{"id":"0000194835281769488600000000","pnu":"1221012400104520002"},"geometry":{"type":"MultiPolygon","coordinates":[[[[126.944026,35.091604],[126.944052,35.091655],[126.944316,35.091547],[126.944297,35.091499],[126.944026,35.091604]]]]}},{"type":"Feature","id":"0000194837571768807200000000","properties":{"id":"0000194837571768807200000000","pnu":"1221012400104510000"},"geometry":{"type":"MultiPolygon","coordinates":[[[[126.943925,35.091102],[126.943974,35.091149],[126.944468,35.090821],[126.944421,35.090775],[126.943925,35.091102]]]]}},{"type":"Feature","id":"0000194839581769250800000000","properties":{"id":"0000194839581769250800000000","pnu":"1221012400104520003"},"geometry":{"type":"MultiPolygon","coordinates":[[[[126.944239,35.091195],[126.944161,35.091239],[126.944196,35.09153],[126.944276,35.091483],[126.944239,35.091195]]]]}},{"type":"Feature","id":"0000194839811768974500000000","properties":{"id":"0000194839811768974500000000","pnu":"1221012400104510000"},"geometry":{"type":"MultiPolygon","coordinates":[[[[126.944019,35.091206],[126.944066,35.091255],[126.944421,35.091022],[126.944372,35.090973],[126.944019,35.091206]]]]}},{"type":"Feature","id":"0000194842041768866200000000","properties":{"id":"0000194842041768866200000000","pnu":"1221012400104510000"},"geometry":{"type":"MultiPolygon","coordinates":[[[[126.944476,35.090828],[126.943973,35.091153],[126.94402,35.091201],[126.944517,35.090877],[126.944476,35.090828]]]]}},{"type":"Feature","id":"0000194846321769164000000000","properties":{"id":"0000194846321769164000000000","pnu":"1221012400104520003"},"geometry":{"type":"MultiPolygon","coordinates":[[[[126.944271,35.091388],[126.944335,35.091373],[126.944311,35.09118],[126.94425,35.091192],[126.944271,35.091388]]]]}},{"type":"Feature","id":"0000194883521768441700000000","properties":{"id":"0000194883521768441700000000","pnu":"1221012400104640000"},"geometry":{"type":"MultiPolygon","coordinates":[[[[126.944527,35.090693],[126.944586,35.090765],[126.944759,35.090659],[126.944875,35.090529],[126.944839,35.090491],[126.944527,35.090693]]]]}},{"type":"Feature","id":"0000195010201767440300000000","properties":{"id":"0000195010201767440300000000","pnu":"1221012400104690000"},"geometry":{"type":"MultiPolygon","coordinates":[[[[126.946259,35.089662],[126.946221,35.089618],[126.945916,35.089807],[126.945951,35.089845],[126.946259,35.089662]]]]}},{"type":"Feature","id":"0000195035271767273000000000","properties":{"id":"0000195035271767273000000000","pnu":"1221012400104690000"},"geometry":{"type":"MultiPolygon","coordinates":[[[[126.946499,35.089544],[126.946448,35.089482],[126.946232,35.089618],[126.946279,35.08968],[126.946499,35.089544]]]]}},{"type":"Feature","id":"0000195247701767578800000000","properties":{"id":"0000195247701767578800000000","pnu":"1221012400102350000"},"geometry":{"type":"MultiPolygon","coordinates":[[[[126.94871,35.089887],[126.948731,35.089868],[126.948678,35.089828],[126.948658,35.089846],[126.94871,35.089887]]]]}},{"type":"Feature","id":"0000195256381766426900000000","properties":{"id":"0000195256381766426900000000","pnu":"1221012400104720004"},"geometry":{"type":"MultiPolygon","coordinates":[[[[126.948772,35.08885],[126.948796,35.088852],[126.948814,35.088795],[126.948783,35.088788],[126.948769,35.088817],[126.948776,35.088818],[126.948772,35.08885]]]]}},{"type":"Feature","id":"0000195262061766447800000000","properties":{"id":"0000195262061766447800000000","pnu":"1221012400104720004"},"geometry":{"type":"MultiPolygon","coordinates":[[[[126.948907,35.088843],[126.948889,35.08882],[126.948851,35.088807],[126.948807,35.088828],[126.948824,35.088872],[126.948907,35.088843]]]]}},{"type":"Feature","id":"0000195262451767294400000000","properties":{"id":"0000195262451767294400000000","pnu":"1221012400102400000"},"geometry":{"type":"MultiPolygon","coordinates":[[[[126.948859,35.089636],[126.948889,35.089587],[126.948851,35.089564],[126.948826,35.089621],[126.948859,35.089636]]]]}},{"type":"Feature","id":"0000195262851766526200000000","properties":{"id":"0000195262851766526200000000","pnu":"1221012400104720004"},"geometry":{"type":"MultiPolygon","coordinates":[[[[126.948884,35.088951],[126.948911,35.088917],[126.948846,35.088874],[126.948803,35.088887],[126.948884,35.088951]]]]}},{"type":"Feature","id":"0000195268501767529300000000","properties":{"id":"0000195268501767529300000000","pnu":"1221012400102360000"},"geometry":{"type":"MultiPolygon","coordinates":[[[[126.94894,35.089856],[126.948978,35.0898],[126.948903,35.089771],[126.948868,35.089823],[126.94894,35.089856]]]]}},{"type":"Feature","id":"0000195270041766414400000000","properties":{"id":"0000195270041766414400000000","pnu":"1221012400104720004"},"geometry":{"type":"MultiPolygon","coordinates":[[[[126.948812,35.088731],[126.948785,35.088782],[126.949067,35.088885],[126.949097,35.088834],[126.948812,35.088731]]]]}},{"type":"Feature","id":"1961194396881776131700000000","properties":{"id":"1961194396881776131700000000","pnu":"1221012500103320000"},"geometry":{"type":"MultiPolygon","coordinates":[[[[126.939045,35.097579],[126.939663,35.097627],[126.939672,35.097545],[126.939054,35.097498],[126.939045,35.097579]]]]}},{"type":"Feature","id":"1961194515101775064200000000","properties":{"id":"1961194515101775064200000000","pnu":"1221012500100070003"},"geometry":{"type":"MultiPolygon","coordinates":[[[[126.940564,35.096631],[126.940734,35.096643],[126.94075,35.09657],[126.940677,35.096564],[126.940675,35.096573],[126.940631,35.09657],[126.940632,35.09656],[126.940574,35.096556],[126.940564,35.096631]]]]}},{"type":"Feature","id":"1966195258191767121000000000","properties":{"id":"1966195258191767121000000000","pnu":"1221012400102420000"},"geometry":{"type":"MultiPolygon","coordinates":[[[[126.948773,35.089426],[126.94881,35.08948],[126.948847,35.089461],[126.948808,35.08941],[126.948773,35.089426]]]]}},{"type":"Feature","id":"1966195266421767149000000000","properties":{"id":"1966195266421767149000000000","pnu":"1221012400102420000"},"geometry":{"type":"MultiPolygon","coordinates":[[[[126.948824,35.089483],[126.948872,35.089522],[126.948972,35.089459],[126.948935,35.089415],[126.948824,35.089483]]]]}},{"type":"Feature","id":"1967194429461771462900000000","properties":{"id":"1967194429461771462900000000","pnu":"1221012500108570031"},"geometry":{"type":"MultiPolygon","coordinates":[[[[126.939659,35.093371],[126.939758,35.093395],[126.939779,35.093337],[126.93968,35.093313],[126.939659,35.093371]]]]}},{"type":"Feature","id":"1967194431941771368100000000","properties":{"id":"1967194431941771368100000000","pnu":"1221012500108570031"},"geometry":{"type":"MultiPolygon","coordinates":[[[[126.939774,35.09331],[126.939775,35.093226],[126.939718,35.093231],[126.939716,35.093308],[126.939774,35.09331]]]]}},{"type":"Feature","id":"1969194376451771454900000000","properties":{"id":"1969194376451771454900000000","pnu":"1221012500102790000"},"geometry":{"type":"MultiPolygon","coordinates":[[[[126.9391,35.093379],[126.939196,35.093354],[126.939171,35.093313],[126.93908,35.093339],[126.9391,35.093379]]]]}},{"type":"Feature","id":"1969194382231771889000000000","properties":{"id":"1969194382231771889000000000","pnu":"1221012500102800001"},"geometry":{"type":"MultiPolygon","coordinates":[[[[126.939138,35.09374],[126.939229,35.093782],[126.939264,35.093739],[126.939174,35.093691],[126.939138,35.09374]]]]}},{"type":"Feature","id":"1969194386601773260200000000","properties":{"id":"1969194386601773260200000000","pnu":"1221012500108570014"},"geometry":{"type":"MultiPolygon","coordinates":[[[[126.939289,35.094926],[126.939178,35.094959],[126.939206,35.095022],[126.939317,35.094988],[126.939289,35.094926]]]]}},{"type":"Feature","id":"1969194389851773067700000000","properties":{"id":"1969194389851773067700000000","pnu":"1221012500108570014"},"geometry":{"type":"MultiPolygon","coordinates":[[[[126.939267,35.094764],[126.939239,35.094812],[126.939299,35.094836],[126.939329,35.09479],[126.939267,35.094764]]]]}},{"type":"Feature","id":"1969194393561773230900000000","properties":{"id":"1969194393561773230900000000","pnu":"1221012500108570014"},"geometry":{"type":"MultiPolygon","coordinates":[[[[126.939331,35.094915],[126.939293,35.094927],[126.939316,35.09498],[126.939355,35.094968],[126.939331,35.094915]]]]}},{"type":"Feature","id":"1969194399451773116800000000","properties":{"id":"1969194399451773116800000000","pnu":"1221012500108570014"},"geometry":{"type":"MultiPolygon","coordinates":[[[[126.939383,35.094804],[126.939346,35.094867],[126.939395,35.094886],[126.93943,35.094821],[126.939383,35.094804]]]]}},{"type":"Feature","id":"1969195241721767480400000000","properties":{"id":"1969195241721767480400000000","pnu":"1221012400102340000"},"geometry":{"type":"MultiPolygon","coordinates":[[[[126.948701,35.089784],[126.948619,35.089711],[126.948558,35.089752],[126.948637,35.089826],[126.948701,35.089784]]]]}},{"type":"Feature","id":"1971194440391774575700000000","properties":{"id":"1971194440391774575700000000","pnu":"1221012500103190003"},"geometry":{"type":"MultiPolygon","coordinates":[[[[126.939746,35.096164],[126.939887,35.096215],[126.939923,35.096149],[126.939844,35.09612],[126.939839,35.096129],[126.939775,35.096111],[126.939746,35.096164]]]]}},{"type":"Feature","id":"1971194446821774419000000000","properties":{"id":"1971194446821774419000000000","pnu":"1221012500103190004"},"geometry":{"type":"MultiPolygon","coordinates":[[[[126.939821,35.096022],[126.939962,35.096076],[126.939995,35.096023],[126.93996,35.096011],[126.939962,35.096001],[126.939854,35.095961],[126.939821,35.096022]]]]}},{"type":"Feature","id":"1971194456161774453900000000","properties":{"id":"1971194456161774453900000000","pnu":"1221012500103190004"},"geometry":{"type":"MultiPolygon","coordinates":[[[[126.940015,35.096094],[126.940047,35.09602],[126.940004,35.096006],[126.939972,35.096082],[126.940015,35.096094]]]]}},{"type":"Feature","id":"1979194384161771331400000000","properties":{"id":"1979194384161771331400000000","pnu":"1221012500102820000"},"geometry":{"type":"MultiPolygon","coordinates":[[[[126.939234,35.093212],[126.9392,35.093218],[126.93921,35.093259],[126.939244,35.093253],[126.939234,35.093212]]]]}},{"type":"Feature","id":"1980194367571768840500000000","properties":{"id":"1980194367571768840500000000","pnu":"1221012500102310000"},"geometry":{"type":"MultiPolygon","coordinates":[[[[126.939004,35.091047],[126.939099,35.091038],[126.939098,35.090991],[126.939077,35.09099],[126.939071,35.090931],[126.938992,35.090932],[126.939004,35.091047]]]]}},{"type":"Feature","id":"1980194501891775884600000000","properties":{"id":"1980194501891775884600000000","pnu":"1221012500103380000"},"geometry":{"type":"MultiPolygon","coordinates":[[[[126.940531,35.097372],[126.940546,35.09732],[126.940492,35.097309],[126.940471,35.097356],[126.940531,35.097372]]]]}},{"type":"Feature","id":"1980194505531775764100000000","properties":{"id":"1980194505531775764100000000","pnu":"1221012500103380000"},"geometry":{"type":"MultiPolygon","coordinates":[[[[126.940483,35.097297],[126.940555,35.097319],[126.940615,35.097158],[126.94055,35.097145],[126.940483,35.097297]]]]}},{"type":"Feature","id":"1980194510431775600300000000","properties":{"id":"1980194510431775600300000000","pnu":"1221012500103380000"},"geometry":{"type":"MultiPolygon","coordinates":[[[[126.940605,35.097138],[126.940652,35.097047],[126.940605,35.09703],[126.940555,35.097118],[126.940605,35.097138]]]]}},{"type":"Feature","id":"1980194517671775450200000000","properties":{"id":"1980194517671775450200000000","pnu":"1221012500103380000"},"geometry":{"type":"MultiPolygon","coordinates":[[[[126.940695,35.097035],[126.940766,35.096888],[126.940677,35.096859],[126.940599,35.097008],[126.940695,35.097035]]]]}},{"type":"Feature","id":"1982194369961773979700000000","properties":{"id":"1982194369961773979700000000","pnu":"1221012500103070000"},"geometry":{"type":"MultiPolygon","coordinates":[[[[126.939038,35.0956],[126.939014,35.095629],[126.9391,35.095645],[126.939107,35.095613],[126.939038,35.0956]]]]}},{"type":"Feature","id":"1982194380871773903600000000","properties":{"id":"1982194380871773903600000000","pnu":"1221012500103070000"},"geometry":{"type":"MultiPolygon","coordinates":[[[[126.939273,35.095513],[126.939183,35.095522],[126.939181,35.095516],[126.939167,35.095516],[126.939165,35.095508],[126.939117,35.095511],[126.939119,35.095539],[126.939097,35.095542],[126.939103,35.095598],[126.93922,35.095591],[126.939221,35.095582],[126.939274,35.09558],[126.939273,35.095513]]]]}},{"type":"Feature","id":"1983194436791770957500000000","properties":{"id":"1983194436791770957500000000","pnu":"1221012500108570036"},"geometry":{"type":"MultiPolygon","coordinates":[[[[126.939775,35.092928],[126.939837,35.092897],[126.93982,35.092871],[126.939767,35.092896],[126.939775,35.092928]]]]}},{"type":"Feature","id":"1983194443361771046300000000","properties":{"id":"1983194443361771046300000000","pnu":"1221012500108570036"},"geometry":{"type":"MultiPolygon","coordinates":[[[[126.93993,35.093016],[126.939939,35.092948],[126.939894,35.092941],[126.939893,35.092951],[126.939808,35.092944],[126.939802,35.093006],[126.93993,35.093016]]]]}},{"type":"Feature","id":"1984195233061767040100000000","properties":{"id":"1984195233061767040100000000","pnu":"1221012400102310000"},"geometry":{"type":"MultiPolygon","coordinates":[[[[126.948503,35.089315],[126.948457,35.089377],[126.94856,35.089428],[126.948614,35.089362],[126.948584,35.089346],[126.948575,35.089353],[126.948503,35.089315]]]]}},{"type":"Feature","id":"1984195237461766938900000000","properties":{"id":"1984195237461766938900000000","pnu":"1221012400102310000"},"geometry":{"type":"MultiPolygon","coordinates":[[[[126.948563,35.089252],[126.948543,35.08928],[126.948602,35.08931],[126.948621,35.089278],[126.948563,35.089252]]]]}},{"type":"Feature","id":"1984195242631767018000000000","properties":{"id":"1984195242631767018000000000","pnu":"1221012400102310000"},"geometry":{"type":"MultiPolygon","coordinates":[[[[126.948641,35.089316],[126.948607,35.089378],[126.948628,35.089389],[126.948675,35.089332],[126.948641,35.089316]]]]}},{"type":"Feature","id":"1985194368571771582000000000","properties":{"id":"1985194368571771582000000000","pnu":"1221012500102790000"},"geometry":{"type":"MultiPolygon","coordinates":[[[[126.9391,35.093431],[126.938998,35.093442],[126.939004,35.093492],[126.939081,35.093483],[126.939104,35.093475],[126.9391,35.093431]]]]}},{"type":"Feature","id":"1985194395481771393900000000","properties":{"id":"1985194395481771393900000000","pnu":"1221012500102820001"},"geometry":{"type":"MultiPolygon","coordinates":[[[[126.939404,35.093241],[126.939264,35.093276],[126.939289,35.093342],[126.939428,35.093307],[126.939404,35.093241]]]]}},{"type":"Feature","id":"1985194401501771952200000000","properties":{"id":"1985194401501771952200000000","pnu":"1221012500108570023"},"geometry":{"type":"MultiPolygon","coordinates":[[[[126.939357,35.093791],[126.93943,35.093839],[126.939468,35.093803],[126.939394,35.093749],[126.939357,35.093791]]]]}},{"type":"Feature","id":"1985194403651771517500000000","properties":{"id":"1985194403651771517500000000","pnu":"1221012500102820001"},"geometry":{"type":"MultiPolygon","coordinates":[[[[126.939486,35.093356],[126.939369,35.093371],[126.939386,35.09345],[126.939486,35.09344],[126.939501,35.093412],[126.939486,35.093356]]]]}},{"type":"Feature","id":"1985194407261771756600000000","properties":{"id":"1985194407261771756600000000","pnu":"1221012500108570026"},"geometry":{"type":"MultiPolygon","coordinates":[[[[126.93944,35.093623],[126.939503,35.093648],[126.939515,35.093628],[126.939476,35.093613],[126.939486,35.093595],[126.939462,35.093585],[126.93944,35.093623]]]]}},{"type":"Feature","id":"1985194416481771769200000000","properties":{"id":"1985194416481771769200000000","pnu":"1221012500108570026"},"geometry":{"type":"MultiPolygon","coordinates":[[[[126.939631,35.093603],[126.939565,35.093579],[126.939522,35.093657],[126.939587,35.093681],[126.939631,35.093603]]]]}},{"type":"Feature","id":"1985194663661770405700000000","properties":{"id":"1985194663661770405700000000","pnu":"1221012500100420000"},"geometry":{"type":"MultiPolygon","coordinates":[[[[126.94228,35.092473],[126.942333,35.0924],[126.942325,35.092397],[126.942357,35.092349],[126.942325,35.092338],[126.942322,35.092345],[126.942297,35.092334],[126.942218,35.092442],[126.94228,35.092473]]]]}},{"type":"Feature","id":"1985195152371766561300000000","properties":{"id":"1985195152371766561300000000","pnu":"1221012400102270000"},"geometry":{"type":"MultiPolygon","coordinates":[[[[126.947635,35.088979],[126.947674,35.088979],[126.947674,35.088955],[126.947685,35.088955],[126.947685,35.08891],[126.947608,35.088909],[126.947607,35.088928],[126.947626,35.088954],[126.947635,35.088979]]]]}},{"type":"Feature","id":"1985195240221767169700000000","properties":{"id":"1985195240221767169700000000","pnu":"1221012400102320000"},"geometry":{"type":"MultiPolygon","coordinates":[[[[126.948641,35.089551],[126.948689,35.089484],[126.948623,35.089455],[126.948629,35.089444],[126.948582,35.089427],[126.94854,35.089494],[126.948641,35.089551]]]]}},{"type":"Feature","id":"1985195248601767084400000000","properties":{"id":"1985195248601767084400000000","pnu":"1221012400102320000"},"geometry":{"type":"MultiPolygon","coordinates":[[[[126.948695,35.08938],[126.948678,35.089391],[126.948719,35.089444],[126.948731,35.089439],[126.948695,35.08938]]]]}},{"type":"Feature","id":"1987195258401767631000000000","properties":{"id":"1987195258401767631000000000","pnu":"1221012400102360000"},"geometry":{"type":"MultiPolygon","coordinates":[[[[126.948747,35.089882],[126.948825,35.08996],[126.948877,35.089924],[126.948797,35.08985],[126.948747,35.089882]]]]}},{"type":"Feature","id":"1988194392241774815300000000","properties":{"id":"1988194392241774815300000000","pnu":"1221012500103280001"},"geometry":{"type":"MultiPolygon","coordinates":[[[[126.939249,35.096318],[126.939219,35.09639],[126.939367,35.096433],[126.939398,35.096361],[126.939249,35.096318]]]]}},{"type":"Feature","id":"1988194397861774670800000000","properties":{"id":"1988194397861774670800000000","pnu":"1221012500103280001"},"geometry":{"type":"MultiPolygon","coordinates":[[[[126.939412,35.096283],[126.939432,35.096239],[126.939328,35.096209],[126.939306,35.09625],[126.939412,35.096283]]]]}},{"type":"Feature","id":"1989194781401768711800000000","properties":{"id":"1989194781401768711800000000","pnu":"1221012400104850001"},"geometry":{"type":"MultiPolygon","coordinates":[[[[126.943633,35.090878],[126.943593,35.090837],[126.943525,35.090882],[126.943554,35.090908],[126.943566,35.090897],[126.943583,35.090908],[126.943633,35.090878]]]]}},{"type":"Feature","id":"1989194790971768655600000000","properties":{"id":"1989194790971768655600000000","pnu":"1221012400104850001"},"geometry":{"type":"MultiPolygon","coordinates":[[[[126.943651,35.090884],[126.943769,35.090803],[126.94374,35.090778],[126.943726,35.090787],[126.94371,35.090776],[126.943607,35.090836],[126.943651,35.090884]]]]}},{"type":"Feature","id":"1990195130391766665700000000","properties":{"id":"1990195130391766665700000000","pnu":"1221012400102240000"},"geometry":{"type":"MultiPolygon","coordinates":[[[[126.94737,35.089084],[126.947475,35.089058],[126.947444,35.088977],[126.947339,35.089019],[126.94737,35.089084]]]]}},{"type":"Feature","id":"1991195142591766569800000000","properties":{"id":"1991195142591766569800000000","pnu":"1221012400102250003"},"geometry":{"type":"MultiPolygon","coordinates":[[[[126.947589,35.088902],[126.947461,35.088939],[126.947485,35.088988],[126.947572,35.088964],[126.947576,35.088982],[126.947619,35.088967],[126.947589,35.088902]]]]}},{"type":"Feature","id":"1991195146611766667600000000","properties":{"id":"1991195146611766667600000000","pnu":"1221012400102270000"},"geometry":{"type":"MultiPolygon","coordinates":[[[[126.947519,35.08901],[126.947552,35.089092],[126.9476,35.089078],[126.947599,35.089071],[126.947651,35.089059],[126.94764,35.089008],[126.947634,35.089009],[126.94762,35.088982],[126.947519,35.08901]]]]}},{"type":"Feature","id":"1992194376801774446100000000","properties":{"id":"1992194376801774446100000000","pnu":"1221012500103210001"},"geometry":{"type":"MultiPolygon","coordinates":[[[[126.939126,35.096082],[126.939187,35.096052],[126.939164,35.096017],[126.93916,35.096019],[126.939154,35.09601],[126.939138,35.096015],[126.939134,35.096008],[126.939094,35.09603],[126.939126,35.096082]]]]}},{"type":"Feature","id":"1992194400721774506100000000","properties":{"id":"1992194400721774506100000000","pnu":"1221012500103210001"},"geometry":{"type":"MultiPolygon","coordinates":[[[[126.939323,35.096148],[126.939466,35.096163],[126.939486,35.096049],[126.939344,35.096029],[126.939336,35.096072],[126.93932,35.096072],[126.939315,35.096102],[126.939329,35.096106],[126.939323,35.096148]]]]}},{"type":"Feature","id":"1992195202011766962000000000","properties":{"id":"1992195202011766962000000000","pnu":"1221012400102290000"},"geometry":{"type":"MultiPolygon","coordinates":[[[[126.9482,35.089348],[126.948254,35.089283],[126.948239,35.089276],[126.948224,35.089282],[126.948199,35.08927],[126.948203,35.089262],[126.948188,35.089251],[126.948138,35.089312],[126.9482,35.089348]]]]}},{"type":"Feature","id":"1992195210991767015600000000","properties":{"id":"1992195210991767015600000000","pnu":"1221012400102290000"},"geometry":{"type":"MultiPolygon","coordinates":[[[[126.9482,35.089348],[126.948292,35.089414],[126.948298,35.089408],[126.948325,35.089423],[126.948377,35.089372],[126.948366,35.089364],[126.948374,35.089353],[126.94832,35.089313],[126.948328,35.0893],[126.948277,35.089269],[126.9482,35.089348]]]]}},{"type":"Feature","id":"1993194370881773761200000000","properties":{"id":"1993194370881773761200000000","pnu":"1221012500108570011"},"geometry":{"type":"MultiPolygon","coordinates":[[[[126.939206,35.095376],[126.939144,35.095342],[126.939124,35.095367],[126.939065,35.095334],[126.938994,35.095416],[126.939013,35.095429],[126.938969,35.095488],[126.939047,35.095534],[126.939156,35.095405],[126.939169,35.095413],[126.939206,35.095376]]]]}},{"type":"Feature","id":"1993194374771773311000000000","properties":{"id":"1993194374771773311000000000","pnu":"1221012500108570013"},"geometry":{"type":"MultiPolygon","coordinates":[[[[126.9392,35.095012],[126.939137,35.094961],[126.939038,35.095046],[126.939083,35.095079],[126.939141,35.095023],[126.939165,35.095039],[126.9392,35.095012]]]]}},{"type":"Feature","id":"1993194378711773587800000000","properties":{"id":"1993194378711773587800000000","pnu":"1221012500108570012"},"geometry":{"type":"MultiPolygon","coordinates":[[[[126.939235,35.095216],[126.939162,35.095212],[126.939158,35.095235],[126.93911,35.095233],[126.939107,35.095249],[126.939077,35.095249],[126.939073,35.095309],[126.939226,35.095317],[126.939235,35.095216]]]]}},{"type":"Feature","id":"1993194390201771586700000000","properties":{"id":"1993194390201771586700000000","pnu":"1221012500108570028"},"geometry":{"type":"MultiPolygon","coordinates":[[[[126.939237,35.093536],[126.939382,35.09346],[126.939331,35.093394],[126.939281,35.093418],[126.939285,35.093428],[126.939195,35.093472],[126.939237,35.093536]]]]}},{"type":"Feature","id":"1993195220371766900000000000","properties":{"id":"1993195220371766900000000000","pnu":"1221012400102300000"},"geometry":{"type":"MultiPolygon","coordinates":[[[[126.948421,35.08932],[126.948479,35.089263],[126.948466,35.089247],[126.948472,35.08924],[126.948411,35.089198],[126.948403,35.089203],[126.948361,35.089178],[126.948302,35.089228],[126.948421,35.08932]]]]}},{"type":"Feature","id":"1994194365201773255500000000","properties":{"id":"1994194365201773255500000000","pnu":"1221012500103070009"},"geometry":{"type":"MultiPolygon","coordinates":[[[[126.939005,35.095011],[126.939061,35.094954],[126.939021,35.094928],[126.938965,35.094985],[126.939005,35.095011]]]]}},{"type":"Feature","id":"1995194371251769155200000000","properties":{"id":"1995194371251769155200000000","pnu":"1221012500102300000"},"geometry":{"type":"MultiPolygon","coordinates":[[[[126.939034,35.091217],[126.938997,35.091285],[126.939121,35.091328],[126.939133,35.091312],[126.939143,35.091312],[126.939168,35.091263],[126.939034,35.091217]]]]}},{"type":"Feature","id":"1995194426831774930300000000","properties":{"id":"1995194426831774930300000000","pnu":"1221012500103290000"},"geometry":{"type":"MultiPolygon","coordinates":[[[[126.939688,35.096484],[126.939688,35.096484],[126.939689,35.096484],[126.93969,35.096483],[126.939691,35.096483],[126.939692,35.096482],[126.939692,35.096482],[126.939693,35.096481],[126.939693,35.09648],[126.939693,35.096479],[126.939693,35.096479],[126.939693,35.096478],[126.939692,35.096477],[126.939692,35.096476],[126.939691,35.096476],[126.93969,35.096475],[126.939689,35.096475],[126.939688,35.096475],[126.939688,35.096475],[126.939687,35.096475],[126.939686,35.096475],[126.939685,35.096475],[126.939684,35.096476],[126.939683,35.096476],[126.939683,35.096477],[126.939682,35.096478],[126.939682,35.096479],[126.939682,35.096479],[126.939682,35.09648],[126.939682,35.096481],[126.939683,35.096482],[126.939683,35.096482],[126.939684,35.096483],[126.939685,35.096483],[126.939686,35.096484],[126.939687,35.096484],[126.939688,35.096484]]]]}},{"type":"Feature","id":"1995194432511772029400000000","properties":{"id":"1995194432511772029400000000","pnu":"1221012500102990001"},"geometry":{"type":"MultiPolygon","coordinates":[[[[126.939674,35.094062],[126.93978,35.09407],[126.939786,35.094002],[126.939798,35.094002],[126.939831,35.093673],[126.939714,35.093663],[126.939674,35.094062]]]]}},{"type":"Feature","id":"1995194439911774965500000000","properties":{"id":"1995194439911774965500000000","pnu":"1221012500103290000"},"geometry":{"type":"MultiPolygon","coordinates":[[[[126.939728,35.096529],[126.93991,35.096563],[126.939935,35.096494],[126.939753,35.096459],[126.939728,35.096529]]]]}},{"type":"Feature","id":"1995194443641771113200000000","properties":{"id":"1995194443641771113200000000","pnu":"1221012500108570035"},"geometry":{"type":"MultiPolygon","coordinates":[[[[126.939927,35.093068],[126.939937,35.093027],[126.939808,35.093013],[126.939819,35.093049],[126.939927,35.093068]]]]}},{"type":"Feature","id":"1995194448121771202500000000","properties":{"id":"1995194448121771202500000000","pnu":"1221012500108570035"},"geometry":{"type":"MultiPolygon","coordinates":[[[[126.939966,35.093183],[126.94001,35.093081],[126.939937,35.093066],[126.939931,35.093076],[126.939879,35.093065],[126.93987,35.09308],[126.93986,35.093079],[126.939838,35.093151],[126.939966,35.093183]]]]}},{"type":"Feature","id":"1996194374001771651100000000","properties":{"id":"1996194374001771651100000000","pnu":"1221012500108570044"},"geometry":{"type":"MultiPolygon","coordinates":[[[[126.939122,35.093472],[126.939049,35.093494],[126.93905,35.093504],[126.939096,35.093565],[126.939129,35.093574],[126.939171,35.093548],[126.939122,35.093472]]]]}},{"type":"Feature","id":"1996194450891772529100000000","properties":{"id":"1996194450891772529100000000","pnu":"1221012500103000003"},"geometry":{"type":"MultiPolygon","coordinates":[[[[126.93998,35.094333],[126.939987,35.09431],[126.939926,35.094297],[126.939919,35.09432],[126.93998,35.094333]]]]}},{"type":"Feature","id":"1996194451991772643700000000","properties":{"id":"1996194451991772643700000000","pnu":"1221012500103000003"},"geometry":{"type":"MultiPolygon","coordinates":[[[[126.93989,35.094453],[126.940028,35.094473],[126.940046,35.094408],[126.940033,35.094405],[126.940034,35.094393],[126.940024,35.094391],[126.940015,35.094385],[126.940003,35.094382],[126.939995,35.094382],[126.939984,35.094383],[126.939971,35.094385],[126.939974,35.094369],[126.939909,35.094355],[126.93989,35.094453]]]]}},{"type":"Feature","id":"1996195184781766215800000000","properties":{"id":"1996195184781766215800000000","pnu":"1221012400104720001"},"geometry":{"type":"MultiPolygon","coordinates":[[[[126.947996,35.088668],[126.94805,35.088633],[126.948021,35.088599],[126.948016,35.088598],[126.947994,35.088598],[126.947989,35.088598],[126.947984,35.0886],[126.947976,35.088607],[126.947972,35.088614],[126.94797,35.08862],[126.947969,35.088623],[126.947972,35.088636],[126.947996,35.088668]]]]}},{"type":"Feature","id":"1997194455141774194200000000","properties":{"id":"1997194455141774194200000000","pnu":"1221012500103190005"},"geometry":{"type":"MultiPolygon","coordinates":[[[[126.93997,35.095744],[126.939921,35.095846],[126.940043,35.09588],[126.940072,35.095813],[126.940054,35.095807],[126.940057,35.095789],[126.940019,35.095776],[126.940027,35.095761],[126.93997,35.095744]]]]}},{"type":"Feature","id":"1997194463291774246700000000","properties":{"id":"1997194463291774246700000000","pnu":"1221012500103190005"},"geometry":{"type":"MultiPolygon","coordinates":[[[[126.940093,35.095902],[126.940123,35.095835],[126.940087,35.095825],[126.940051,35.095888],[126.940093,35.095902]]]]}},{"type":"Feature","id":"1997195215161767294700000000","properties":{"id":"1997195215161767294700000000","pnu":"1221012400102280001"},"geometry":{"type":"MultiPolygon","coordinates":[[[[126.948339,35.089675],[126.948424,35.08957],[126.94837,35.089541],[126.948361,35.089548],[126.948349,35.089544],[126.94834,35.089555],[126.948313,35.08954],[126.94826,35.089615],[126.948277,35.089628],[126.948271,35.089639],[126.948339,35.089675]]]]}},{"type":"Feature","id":"1997195222931767236200000000","properties":{"id":"1997195222931767236200000000","pnu":"1221012400102280001"},"geometry":{"type":"MultiPolygon","coordinates":[[[[126.948423,35.089553],[126.948424,35.089553],[126.948425,35.089553],[126.948426,35.089552],[126.948426,35.089552],[126.948427,35.089551],[126.948428,35.089551],[126.948428,35.08955],[126.948428,35.089549],[126.948428,35.089548],[126.948428,35.089548],[126.948428,35.089547],[126.948428,35.089546],[126.948427,35.089545],[126.948426,35.089545],[126.948426,35.089544],[126.948425,35.089544],[126.948424,35.089544],[126.948423,35.089544],[126.948422,35.089544],[126.948421,35.089544],[126.94842,35.089544],[126.948419,35.089545],[126.948419,35.089545],[126.948418,35.089546],[126.948418,35.089547],[126.948418,35.089548],[126.948417,35.089548],[126.948418,35.089549],[126.948418,35.08955],[126.948418,35.089551],[126.948419,35.089551],[126.948419,35.089552],[126.94842,35.089552],[126.948421,35.089553],[126.948422,35.089553],[126.948423,35.089553]]]]}},{"type":"Feature","id":"1997195224931767147400000000","properties":{"id":"1997195224931767147400000000","pnu":"1221012400102280002"},"geometry":{"type":"MultiPolygon","coordinates":[[[[126.948468,35.089536],[126.948531,35.089466],[126.948492,35.089437],[126.948486,35.089442],[126.948465,35.089433],[126.948469,35.089426],[126.948431,35.089408],[126.948402,35.089433],[126.948385,35.089424],[126.948355,35.089461],[126.948468,35.089536]]]]}},{"type":"Feature","id":"1997195231861767113000000000","properties":{"id":"1997195231861767113000000000","pnu":"1221012400102280002"},"geometry":{"type":"MultiPolygon","coordinates":[[[[126.948521,35.089442],[126.948522,35.089442],[126.948523,35.089442],[126.948524,35.089441],[126.948525,35.089441],[126.948525,35.08944],[126.948526,35.08944],[126.948526,35.089439],[126.948526,35.089438],[126.948527,35.089437],[126.948526,35.089437],[126.948526,35.089436],[126.948526,35.089435],[126.948525,35.089434],[126.948525,35.089434],[126.948524,35.089433],[126.948523,35.089433],[126.948522,35.089433],[126.948521,35.089433],[126.94852,35.089433],[126.948519,35.089433],[126.948518,35.089433],[126.948518,35.089434],[126.948517,35.089434],[126.948516,35.089435],[126.948516,35.089436],[126.948516,35.089437],[126.948516,35.089437],[126.948516,35.089438],[126.948516,35.089439],[126.948516,35.08944],[126.948517,35.08944],[126.948518,35.089441],[126.948518,35.089441],[126.948519,35.089442],[126.94852,35.089442],[126.948521,35.089442]]]]}},{"type":"Feature","id":"1998194413871774856900000000","properties":{"id":"1998194413871774856900000000","pnu":"1221012500103290003"},"geometry":{"type":"MultiPolygon","coordinates":[[[[126.939612,35.096369],[126.939547,35.096352],[126.93953,35.096387],[126.939507,35.096384],[126.939507,35.096389],[126.939488,35.096385],[126.939469,35.096445],[126.939584,35.09647],[126.939612,35.096369]]]]}},{"type":"Feature","id":"1998194415821771573900000000","properties":{"id":"1998194415821771573900000000","pnu":"1221012500108570030"},"geometry":{"type":"MultiPolygon","coordinates":[[[[126.939489,35.093477],[126.939578,35.093506],[126.939584,35.093498],[126.939617,35.093508],[126.939657,35.093446],[126.939601,35.093428],[126.939605,35.093419],[126.939573,35.093411],[126.939577,35.093402],[126.939532,35.093388],[126.939489,35.093477]]]]}},{"type":"Feature","id":"1998194419551770596900000000","properties":{"id":"1998194419551770596900000000","pnu":"1221012500102850002"},"geometry":{"type":"MultiPolygon","coordinates":[[[[126.939648,35.092628],[126.93968,35.092584],[126.939647,35.092565],[126.939653,35.092549],[126.939578,35.092519],[126.93954,35.092578],[126.939648,35.092628]]]]}},{"type":"Feature","id":"1998194419891772284900000000","properties":{"id":"1998194419891772284900000000","pnu":"1221012500102990001"},"geometry":{"type":"MultiPolygon","coordinates":[[[[126.939585,35.094053],[126.939576,35.094132],[126.939642,35.094137],[126.939651,35.094058],[126.939585,35.094053]]]]}},{"type":"Feature","id":"1998194423371772379900000000","properties":{"id":"1998194423371772379900000000","pnu":"1221012500102990001"},"geometry":{"type":"MultiPolygon","coordinates":[[[[126.939586,35.094148],[126.939581,35.094206],[126.939717,35.094213],[126.939721,35.094155],[126.939586,35.094148]]]]}},{"type":"Feature","id":"1998194425901770537000000000","properties":{"id":"1998194425901770537000000000","pnu":"1221012500102850002"},"geometry":{"type":"MultiPolygon","coordinates":[[[[126.939649,35.092528],[126.939701,35.092538],[126.939711,35.092511],[126.939662,35.092501],[126.939649,35.092528]]]]}},{"type":"Feature","id":"1998194443031772439800000000","properties":{"id":"1998194443031772439800000000","pnu":"1221012500102990001"},"geometry":{"type":"MultiPolygon","coordinates":[[[[126.939928,35.094273],[126.939935,35.094205],[126.939806,35.094197],[126.939799,35.094264],[126.939928,35.094273]]]]}},{"type":"Feature","id":"1998194473171772428100000000","properties":{"id":"1998194473171772428100000000","pnu":"1221012500102990001"},"geometry":{"type":"MultiPolygon","coordinates":[[[[126.940249,35.094256],[126.940256,35.094203],[126.940146,35.094193],[126.940139,35.094246],[126.940249,35.094256]]]]}},{"type":"Feature","id":"1998194740351770078100000000","properties":{"id":"1998194740351770078100000000","pnu":"1221012400104440001"},"geometry":{"type":"MultiPolygon","coordinates":[[[[126.942981,35.092111],[126.943045,35.092186],[126.943122,35.092136],[126.943151,35.092169],[126.94321,35.092178],[126.943272,35.092137],[126.943154,35.092008],[126.942981,35.092111]]]]}},{"type":"Feature","id":"2000194363821774857300000000","properties":{"id":"2000194363821774857300000000","pnu":"1221012500103280000"},"geometry":{"type":"MultiPolygon","coordinates":[[[[126.939042,35.096315],[126.93895,35.096291],[126.938881,35.096469],[126.938965,35.096493],[126.938977,35.096473],[126.939099,35.096506],[126.939132,35.096426],[126.939035,35.096401],[126.939043,35.096379],[126.939016,35.096372],[126.939042,35.096315]]]]}},{"type":"Feature","id":"2000195252671767163500000000","properties":{"id":"2000195252671767163500000000","pnu":"1221012400102410000"},"geometry":{"type":"MultiPolygon","coordinates":[[[[126.948749,35.089487],[126.94875,35.089487],[126.948751,35.089487],[126.948752,35.089487],[126.948753,35.089486],[126.948753,35.089486],[126.948754,35.089485],[126.948754,35.089485],[126.948755,35.089484],[126.948755,35.089483],[126.948755,35.089482],[126.948754,35.089481],[126.948754,35.089481],[126.948753,35.08948],[126.948753,35.08948],[126.948752,35.089479],[126.948751,35.089479],[126.94875,35.089479],[126.948749,35.089478],[126.948748,35.089479],[126.948747,35.089479],[126.948746,35.089479],[126.948746,35.08948],[126.948745,35.08948],[126.948744,35.089481],[126.948744,35.089481],[126.948744,35.089482],[126.948744,35.089483],[126.948744,35.089484],[126.948744,35.089485],[126.948744,35.089485],[126.948745,35.089486],[126.948746,35.089486],[126.948746,35.089487],[126.948747,35.089487],[126.948748,35.089487],[126.948749,35.089487]]]]}},{"type":"Feature","id":"2000195253721767239300000000","properties":{"id":"2000195253721767239300000000","pnu":"1221012400102410000"},"geometry":{"type":"MultiPolygon","coordinates":[[[[126.948783,35.089601],[126.948822,35.089536],[126.948736,35.089501],[126.9487,35.089567],[126.948783,35.089601]]]]}},{"type":"Feature","id":"2001194696011769427700000000","properties":{"id":"2001194696011769427700000000","pnu":"1221012500100510001"},"geometry":{"type":"MultiPolygon","coordinates":[[[[126.942466,35.091582],[126.942521,35.09164],[126.942827,35.091448],[126.942784,35.091401],[126.942466,35.091582]]]]}},{"type":"Feature","id":"2002195241031765973000000000","properties":{"id":"2002195241031765973000000000","pnu":"1221012400102590000"},"geometry":{"type":"MultiPolygon","coordinates":[[[[126.948664,35.088447],[126.948682,35.088407],[126.948578,35.088375],[126.94856,35.088408],[126.948664,35.088447]]]]}},{"type":"Feature","id":"2002195250281765795000000000","properties":{"id":"2002195250281765795000000000","pnu":"1221012400102590000"},"geometry":{"type":"MultiPolygon","coordinates":[[[[126.948724,35.088254],[126.948725,35.088254],[126.948726,35.088254],[126.948726,35.088253],[126.948727,35.088253],[126.948728,35.088252],[126.948729,35.088252],[126.948729,35.088251],[126.948729,35.08825],[126.948729,35.088249],[126.948729,35.088249],[126.948729,35.088248],[126.948729,35.088247],[126.948728,35.088246],[126.948727,35.088246],[126.948726,35.088245],[126.948726,35.088245],[126.948725,35.088245],[126.948724,35.088245],[126.948723,35.088245],[126.948722,35.088245],[126.948721,35.088245],[126.94872,35.088246],[126.94872,35.088246],[126.948719,35.088247],[126.948719,35.088248],[126.948718,35.088249],[126.948718,35.088249],[126.948718,35.08825],[126.948719,35.088251],[126.948719,35.088252],[126.94872,35.088252],[126.94872,35.088253],[126.948721,35.088253],[126.948722,35.088254],[126.948723,35.088254],[126.948724,35.088254]]]]}},{"type":"Feature","id":"2002195257871765902400000000","properties":{"id":"2002195257871765902400000000","pnu":"1221012400102590000"},"geometry":{"type":"MultiPolygon","coordinates":[[[[126.94873,35.088341],[126.948784,35.088407],[126.948884,35.088346],[126.948834,35.088289],[126.94873,35.088341]]]]}},{"type":"Feature","id":"2002195275341766013700000000","properties":{"id":"2002195275341766013700000000","pnu":"1221012400102590000"},"geometry":{"type":"MultiPolygon","coordinates":[[[[126.949,35.088422],[126.948968,35.088448],[126.948997,35.088472],[126.949029,35.088445],[126.949,35.088422]]]]}},{"type":"Feature","id":"2003194380711774224900000000","properties":{"id":"2003194380711774224900000000","pnu":"1221012500103230001"},"geometry":{"type":"MultiPolygon","coordinates":[[[[126.939063,35.09579],[126.9391,35.095935],[126.939193,35.095919],[126.939189,35.095903],[126.939233,35.095895],[126.93923,35.095885],[126.939261,35.095879],[126.939263,35.095886],[126.939322,35.095876],[126.939303,35.095799],[126.939253,35.095808],[126.939241,35.09576],[126.939063,35.09579]]]]}},{"type":"Feature","id":"2003194423221771080800000000","properties":{"id":"2003194423221771080800000000","pnu":"1221012500108570033"},"geometry":{"type":"MultiPolygon","coordinates":[[[[126.9397,35.092976],[126.939687,35.092918],[126.939552,35.092975],[126.939594,35.093002],[126.939602,35.093083],[126.939729,35.093075],[126.939705,35.092989],[126.9397,35.092976]]]]}},{"type":"Feature","id":"2004194751691769899500000000","properties":{"id":"2004194751691769899500000000","pnu":"1221012400104440000"},"geometry":{"type":"MultiPolygon","coordinates":[[[[126.943315,35.09194],[126.943281,35.091901],[126.943192,35.091953],[126.943226,35.091992],[126.943315,35.09194]]]]}},{"type":"Feature","id":"2004194762741770035200000000","properties":{"id":"2004194762741770035200000000","pnu":"1221012400104440000"},"geometry":{"type":"MultiPolygon","coordinates":[[[[126.943256,35.09208],[126.943333,35.09216],[126.943493,35.092056],[126.943419,35.091979],[126.943256,35.09208]]]]}},{"type":"Feature","id":"2006195197321767200800000000","properties":{"id":"2006195197321767200800000000","pnu":"1221012400102280003"},"geometry":{"type":"MultiPolygon","coordinates":[[[[126.94804,35.089526],[126.948054,35.089534],[126.948042,35.089547],[126.948047,35.089577],[126.948114,35.089602],[126.94814,35.089571],[126.948211,35.089611],[126.948278,35.089533],[126.948232,35.089505],[126.948221,35.089504],[126.948156,35.089466],[126.948155,35.089462],[126.948135,35.089451],[126.948169,35.089411],[126.948116,35.089381],[126.948077,35.089426],[126.9481,35.089439],[126.948037,35.089511],[126.948047,35.089517],[126.94804,35.089526]]]]}}]}
