{"type":"FeatureCollection","features":[{"type":"Feature","id":"0000194412381830749800000000","properties":{"id":"0000194412381830749800000000","pnu":"1221011100101640002","purpose":"기타"},"geometry":{"type":"MultiPolygon","coordinates":[[[[126.939485,35.146798],[126.939496,35.146798],[126.939497,35.146787],[126.939486,35.146787],[126.939485,35.146798]]]]}},{"type":"Feature","id":"0000194412501821584200000000","properties":{"id":"0000194412501821584200000000","pnu":"1221012200101860003","purpose":"기타"},"geometry":{"type":"MultiPolygon","coordinates":[[[[126.939478,35.138593],[126.939525,35.138591],[126.939519,35.13847],[126.939473,35.138471],[126.939478,35.138593]]]]}},{"type":"Feature","id":"0000194485211826893200000000","properties":{"id":"0000194485211826893200000000","pnu":"1221011100201160001","purpose":"기타"},"geometry":{"type":"MultiPolygon","coordinates":[[[[126.940318,35.143327],[126.940308,35.143298],[126.940268,35.143307],[126.940277,35.143336],[126.940318,35.143327]]]]}},{"type":"Feature","id":"0000194495161829872400000000","properties":{"id":"0000194495161829872400000000","pnu":"1221011100101500000","purpose":"기타"},"geometry":{"type":"MultiPolygon","coordinates":[[[[126.940462,35.146057],[126.94044,35.145938],[126.940339,35.145951],[126.940357,35.146063],[126.940462,35.146057]]]]}},{"type":"Feature","id":"0000194496001830103900000000","properties":{"id":"0000194496001830103900000000","pnu":"1221011100101510001","purpose":"기타"},"geometry":{"type":"MultiPolygon","coordinates":[[[[126.940402,35.146237],[126.940439,35.146221],[126.940417,35.146185],[126.940379,35.146201],[126.940402,35.146237]]]]}},{"type":"Feature","id":"0000194498521830574300000000","properties":{"id":"0000194498521830574300000000","pnu":"1221011100102120000","purpose":"기타"},"geometry":{"type":"MultiPolygon","coordinates":[[[[126.940443,35.146726],[126.940496,35.146639],[126.940488,35.146606],[126.94047,35.146605],[126.940467,35.14656],[126.940399,35.146559],[126.940386,35.146682],[126.940443,35.146726]]]]}},{"type":"Feature","id":"0000194506061831143800000000","properties":{"id":"0000194506061831143800000000","pnu":"1221011100101220004","purpose":"기타"},"geometry":{"type":"MultiPolygon","coordinates":[[[[126.940496,35.147193],[126.940543,35.147194],[126.940547,35.147106],[126.940488,35.147107],[126.940496,35.147193]]]]}},{"type":"Feature","id":"0000194506711829569900000000","properties":{"id":"0000194506711829569900000000","pnu":"1221011100101490002","purpose":"기타"},"geometry":{"type":"MultiPolygon","coordinates":[[[[126.940542,35.145779],[126.940577,35.145695],[126.940519,35.14568],[126.940472,35.145759],[126.940542,35.145779]]]]}},{"type":"Feature","id":"0000194507631830399300000000","properties":{"id":"0000194507631830399300000000","pnu":"1221011100101240000","purpose":"기타"},"geometry":{"type":"MultiPolygon","coordinates":[[[[126.940452,35.146527],[126.940625,35.146521],[126.94062,35.146431],[126.940454,35.146429],[126.940452,35.146527]]]]}},{"type":"Feature","id":"0000194507671831834600000000","properties":{"id":"0000194507671831834600000000","pnu":"1221011100102160000","purpose":"기타"},"geometry":{"type":"MultiPolygon","coordinates":[[[[126.940515,35.14778],[126.940532,35.14779],[126.940557,35.147762],[126.94054,35.147752],[126.940515,35.14778]]]]}},{"type":"Feature","id":"0000194508431829841900000000","properties":{"id":"0000194508431829841900000000","pnu":"1221011100101280001","purpose":"기타"},"geometry":{"type":"MultiPolygon","coordinates":[[[[126.940484,35.14596],[126.940509,35.146013],[126.940601,35.145991],[126.940592,35.145937],[126.940484,35.14596]]]]}},{"type":"Feature","id":"0000194511151829746100000000","properties":{"id":"0000194511151829746100000000","pnu":"1221011100106910106","purpose":"기타"},"geometry":{"type":"MultiPolygon","coordinates":[[[[126.940531,35.145907],[126.940625,35.145899],[126.94062,35.14587],[126.940525,35.145879],[126.940531,35.145907]]]]}},{"type":"Feature","id":"0000194511901829399300000000","properties":{"id":"0000194511901829399300000000","pnu":"1221011100201100000","purpose":"기타"},"geometry":{"type":"MultiPolygon","coordinates":[[[[126.940535,35.14562],[126.940596,35.145639],[126.940643,35.145541],[126.94057,35.145514],[126.940548,35.145547],[126.940554,35.145548],[126.940541,35.145574],[126.940535,35.14562]]]]}},{"type":"Feature","id":"0000194512341831023700000000","properties":{"id":"0000194512341831023700000000","pnu":"1221011100101220005","purpose":"기타"},"geometry":{"type":"MultiPolygon","coordinates":[[[[126.940541,35.147071],[126.940605,35.147086],[126.94063,35.147001],[126.940574,35.146998],[126.940541,35.147071]]]]}},{"type":"Feature","id":"0000194512801829492300000000","properties":{"id":"0000194512801829492300000000","pnu":"1221011100201100000","purpose":"기타"},"geometry":{"type":"MultiPolygon","coordinates":[[[[126.940625,35.145693],[126.940641,35.145667],[126.94055,35.145627],[126.940545,35.145645],[126.940625,35.145693]]]]}},{"type":"Feature","id":"0000194513271829311400000000","properties":{"id":"0000194513271829311400000000","pnu":"1221011100201110000","purpose":"기타"},"geometry":{"type":"MultiPolygon","coordinates":[[[[126.940608,35.145519],[126.940624,35.145486],[126.940592,35.145472],[126.940574,35.14551],[126.940608,35.145519]]]]}},{"type":"Feature","id":"0000194513611830520100000000","properties":{"id":"0000194513611830520100000000","pnu":"1221011100101240000","purpose":"기타"},"geometry":{"type":"MultiPolygon","coordinates":[[[[126.940645,35.146641],[126.940642,35.146533],[126.940577,35.146528],[126.940562,35.146576],[126.940552,35.146575],[126.940557,35.146632],[126.940645,35.146641]]]]}},{"type":"Feature","id":"0000194513631830948300000000","properties":{"id":"0000194513631830948300000000","pnu":"1221011100101220010","purpose":"기타"},"geometry":{"type":"MultiPolygon","coordinates":[[[[126.940579,35.146994],[126.940617,35.146996],[126.94062,35.146947],[126.940592,35.146948],[126.940579,35.146994]]]]}},{"type":"Feature","id":"0000194514031829619300000000","properties":{"id":"0000194514031829619300000000","pnu":"1221011100101490002","purpose":"기타"},"geometry":{"type":"MultiPolygon","coordinates":[[[[126.940559,35.145805],[126.940665,35.145781],[126.94065,35.145741],[126.940549,35.145771],[126.940559,35.145805]]]]}},{"type":"Feature","id":"0000194519221830371800000000","properties":{"id":"0000194519221830371800000000","pnu":"1221011100101250001","purpose":"기타"},"geometry":{"type":"MultiPolygon","coordinates":[[[[126.940635,35.146493],[126.940688,35.146494],[126.940696,35.146415],[126.940636,35.146412],[126.940635,35.146493]]]]}},{"type":"Feature","id":"0000194519911829440300000000","properties":{"id":"0000194519911829440300000000","pnu":"1221011100201100000","purpose":"기타"},"geometry":{"type":"MultiPolygon","coordinates":[[[[126.940662,35.145674],[126.940743,35.14562],[126.940673,35.14555],[126.940625,35.145581],[126.940622,35.145648],[126.940631,35.145647],[126.940662,35.145674]]]]}},{"type":"Feature","id":"0000194520971830563400000000","properties":{"id":"0000194520971830563400000000","pnu":"1221011100101220010","purpose":"기타"},"geometry":{"type":"MultiPolygon","coordinates":[[[[126.940647,35.146612],[126.940655,35.146651],[126.94072,35.146632],[126.940719,35.146605],[126.940647,35.146612]]]]}},{"type":"Feature","id":"0000194521881829927000000000","properties":{"id":"0000194521881829927000000000","pnu":"1221011100101270000","purpose":"단독주택","floors":1,"structure":"일반목구조"},"geometry":{"type":"MultiPolygon","coordinates":[[[[126.940686,35.146018],[126.940652,35.146042],[126.9407,35.146086],[126.940735,35.14606],[126.940686,35.146018]]]]}},{"type":"Feature","id":"0000194523261830209400000000","properties":{"id":"0000194523261830209400000000","pnu":"1221011100101250002","purpose":"기타"},"geometry":{"type":"MultiPolygon","coordinates":[[[[126.940644,35.146283],[126.94064,35.146322],[126.940773,35.146329],[126.940777,35.146291],[126.940644,35.146283]]]]}},{"type":"Feature","id":"0000194524041829522200000000","properties":{"id":"0000194524041829522200000000","pnu":"1221011100101340000","purpose":"기타"},"geometry":{"type":"MultiPolygon","coordinates":[[[[126.940652,35.145691],[126.940683,35.145728],[126.940778,35.145687],[126.940754,35.145643],[126.940652,35.145691]]]]}},{"type":"Feature","id":"0000194524621829624600000000","properties":{"id":"0000194524621829624600000000","pnu":"1221011100101340000","purpose":"기타"},"geometry":{"type":"MultiPolygon","coordinates":[[[[126.940694,35.145823],[126.940777,35.145786],[126.940753,35.145734],[126.940669,35.145774],[126.940694,35.145823]]]]}},{"type":"Feature","id":"0000194529671829707600000000","properties":{"id":"0000194529671829707600000000","pnu":"1221011100101340000","purpose":"기타"},"geometry":{"type":"MultiPolygon","coordinates":[[[[126.940819,35.145859],[126.940816,35.145838],[126.940782,35.145847],[126.940749,35.145836],[126.940738,35.145858],[126.940778,35.145872],[126.940819,35.145859]]]]}},{"type":"Feature","id":"0000194530021829123100000000","properties":{"id":"0000194530021829123100000000","pnu":"1221011100201110000","purpose":"기타"},"geometry":{"type":"MultiPolygon","coordinates":[[[[126.940818,35.14535],[126.940801,35.145294],[126.940748,35.145304],[126.940765,35.14536],[126.940818,35.14535]]]]}},{"type":"Feature","id":"0000194530511832033100000000","properties":{"id":"0000194530511832033100000000","pnu":"1221011100100910001","purpose":"기타"},"geometry":{"type":"MultiPolygon","coordinates":[[[[126.940777,35.14794],[126.940781,35.147962],[126.940796,35.14796],[126.940792,35.147938],[126.940777,35.14794]]]]}},{"type":"Feature","id":"0000194534251829464400000000","properties":{"id":"0000194534251829464400000000","pnu":"1221011100106910106","purpose":"기타"},"geometry":{"type":"MultiPolygon","coordinates":[[[[126.940758,35.145634],[126.940804,35.145695],[126.940839,35.145683],[126.940835,35.14567],[126.9409,35.145632],[126.940859,35.145575],[126.940758,35.145634]]]]}},{"type":"Feature","id":"0000194538801829756400000000","properties":{"id":"0000194538801829756400000000","pnu":"1221011100106910106","purpose":"기타"},"geometry":{"type":"MultiPolygon","coordinates":[[[[126.94083,35.145892],[126.940836,35.14591],[126.94087,35.145905],[126.94088,35.145923],[126.940919,35.145909],[126.940906,35.145875],[126.94083,35.145892]]]]}},{"type":"Feature","id":"0000194546401828957700000000","properties":{"id":"0000194546401828957700000000","pnu":"1221011100201120007","purpose":"기타"},"geometry":{"type":"MultiPolygon","coordinates":[[[[126.940963,35.145218],[126.941009,35.14519],[126.940963,35.145139],[126.940917,35.145166],[126.940963,35.145218]]]]}},{"type":"Feature","id":"0000194546651829050800000000","properties":{"id":"0000194546651829050800000000","pnu":"1221011100201120007","purpose":"기타"},"geometry":{"type":"MultiPolygon","coordinates":[[[[126.940994,35.145244],[126.940972,35.145233],[126.940938,35.145282],[126.940957,35.145292],[126.940994,35.145244]]]]}},{"type":"Feature","id":"0000194547771829168200000000","properties":{"id":"0000194547771829168200000000","pnu":"1221011100101350000","purpose":"기타"},"geometry":{"type":"MultiPolygon","coordinates":[[[[126.940934,35.14537],[126.940966,35.145403],[126.941022,35.145365],[126.940989,35.145333],[126.940934,35.14537]]]]}},{"type":"Feature","id":"0000194550271829372600000000","properties":{"id":"0000194550271829372600000000","pnu":"1221011100106910106","purpose":"기타"},"geometry":{"type":"MultiPolygon","coordinates":[[[[126.941036,35.145543],[126.941025,35.145531],[126.940974,35.145561],[126.940985,35.145573],[126.941036,35.145543]]]]}},{"type":"Feature","id":"0000194553881828977700000000","properties":{"id":"0000194553881828977700000000","pnu":"1221011100201120001","purpose":"기타"},"geometry":{"type":"MultiPolygon","coordinates":[[[[126.941072,35.145192],[126.941055,35.145175],[126.941018,35.1452],[126.941035,35.145217],[126.941072,35.145192]]]]}},{"type":"Feature","id":"0000194581841831434400000000","properties":{"id":"0000194581841831434400000000","pnu":"1221011100200840005","purpose":"기타"},"geometry":{"type":"MultiPolygon","coordinates":[[[[126.941345,35.147432],[126.941375,35.147418],[126.941355,35.147389],[126.941325,35.147403],[126.941345,35.147432]]]]}},{"type":"Feature","id":"0000194583761830583700000000","properties":{"id":"0000194583761830583700000000","pnu":"1221011100200870004","purpose":"기타"},"geometry":{"type":"MultiPolygon","coordinates":[[[[126.941358,35.146668],[126.941389,35.146666],[126.941386,35.14662],[126.941355,35.146621],[126.941358,35.146668]]]]}},{"type":"Feature","id":"0000194596581832073800000000","properties":{"id":"0000194596581832073800000000","pnu":"1221011100200840009","purpose":"단독주택","floors":1,"structure":"일반목구조"},"geometry":{"type":"MultiPolygon","coordinates":[[[[126.941558,35.148093],[126.941651,35.147983],[126.941462,35.14788],[126.941375,35.147994],[126.941558,35.148093]]]]}},{"type":"Feature","id":"0000194610991832007700000000","properties":{"id":"0000194610991832007700000000","pnu":"1221011100200840009","purpose":"기타"},"geometry":{"type":"MultiPolygon","coordinates":[[[[126.941673,35.147952],[126.941697,35.147927],[126.941667,35.147904],[126.941641,35.147927],[126.941673,35.147952]]]]}},{"type":"Feature","id":"0000194618291831872600000000","properties":{"id":"0000194618291831872600000000","pnu":"1221011100200840005","purpose":"기타"},"geometry":{"type":"MultiPolygon","coordinates":[[[[126.941724,35.147808],[126.941753,35.147828],[126.941776,35.147803],[126.941747,35.147784],[126.941724,35.147808]]]]}},{"type":"Feature","id":"0000194643231829442500000000","properties":{"id":"0000194643231829442500000000","pnu":"1221011100200910009","purpose":"기타"},"geometry":{"type":"MultiPolygon","coordinates":[[[[126.94198,35.145663],[126.942096,35.145603],[126.942066,35.14557],[126.941957,35.145627],[126.94198,35.145663]]]]}},{"type":"Feature","id":"0000194651981822572300000000","properties":{"id":"0000194651981822572300000000","pnu":"1221012200200410001","purpose":"기타"},"geometry":{"type":"MultiPolygon","coordinates":[[[[126.942079,35.139466],[126.942138,35.13946],[126.942136,35.139426],[126.942203,35.139418],[126.9422,35.139392],[126.942073,35.139399],[126.942079,35.139466]]]]}},{"type":"Feature","id":"0000194652121822706100000000","properties":{"id":"0000194652121822706100000000","pnu":"1221012200200360003","purpose":"기타"},"geometry":{"type":"MultiPolygon","coordinates":[[[[126.942108,35.139557],[126.942139,35.139562],[126.942146,35.13953],[126.942116,35.139526],[126.942108,35.139557]]]]}},{"type":"Feature","id":"0000194658021829375500000000","properties":{"id":"0000194658021829375500000000","pnu":"1221011100200910006","purpose":"기타"},"geometry":{"type":"MultiPolygon","coordinates":[[[[126.942183,35.145604],[126.942246,35.145536],[126.942185,35.145508],[126.942132,35.145576],[126.942183,35.145604]]]]}},{"type":"Feature","id":"0000194658561822734700000000","properties":{"id":"0000194658561822734700000000","pnu":"1221012200200360003","purpose":"기타"},"geometry":{"type":"MultiPolygon","coordinates":[[[[126.942155,35.139579],[126.942236,35.139587],[126.94224,35.13956],[126.942159,35.139552],[126.942155,35.139579]]]]}},{"type":"Feature","id":"0000194661651822602100000000","properties":{"id":"0000194661651822602100000000","pnu":"1221012200101800000","purpose":"기타"},"geometry":{"type":"MultiPolygon","coordinates":[[[[126.942208,35.139475],[126.942247,35.139477],[126.942256,35.139427],[126.942217,35.139422],[126.942208,35.139475]]]]}},{"type":"Feature","id":"0000194674831829286500000000","properties":{"id":"0000194674831829286500000000","pnu":"1221011100200940000","purpose":"기타"},"geometry":{"type":"MultiPolygon","coordinates":[[[[126.942369,35.145525],[126.942439,35.145462],[126.942372,35.145426],[126.942307,35.145488],[126.942369,35.145525]]]]}},{"type":"Feature","id":"0000194679431830915500000000","properties":{"id":"0000194679431830915500000000","pnu":"1221011100200840005","purpose":"기타"},"geometry":{"type":"MultiPolygon","coordinates":[[[[126.94244,35.146971],[126.942458,35.14695],[126.942403,35.146916],[126.942385,35.146937],[126.94244,35.146971]]]]}},{"type":"Feature","id":"0000194683491822708500000000","properties":{"id":"0000194683491822708500000000","pnu":"1221012200101800000","purpose":"기타"},"geometry":{"type":"MultiPolygon","coordinates":[[[[126.942424,35.139535],[126.942494,35.139582],[126.942518,35.139556],[126.94245,35.139511],[126.942424,35.139535]]]]}},{"type":"Feature","id":"0000194698451831978800000000","properties":{"id":"0000194698451831978800000000","pnu":"1221011100100990001","purpose":"기타"},"geometry":{"type":"MultiPolygon","coordinates":[[[[126.942608,35.147912],[126.94264,35.14792],[126.942651,35.147892],[126.942619,35.147884],[126.942608,35.147912]]]]}},{"type":"Feature","id":"0000194708041832003400000000","properties":{"id":"0000194708041832003400000000","pnu":"1221011100100990001","purpose":"기타"},"geometry":{"type":"MultiPolygon","coordinates":[[[[126.942712,35.147934],[126.942754,35.147937],[126.942757,35.147915],[126.942715,35.147911],[126.942712,35.147934]]]]}},{"type":"Feature","id":"0000194793651827857000000000","properties":{"id":"0000194793651827857000000000","pnu":"1221011100200950000","purpose":"기타"},"geometry":{"type":"MultiPolygon","coordinates":[[[[126.943661,35.144219],[126.943703,35.144214],[126.943693,35.144156],[126.94365,35.144161],[126.943661,35.144219]]]]}},{"type":"Feature","id":"0000194796591827964200000000","properties":{"id":"0000194796591827964200000000","pnu":"1221011100200950000","purpose":"기타"},"geometry":{"type":"MultiPolygon","coordinates":[[[[126.943706,35.144341],[126.943746,35.144333],[126.943712,35.144226],[126.943672,35.144235],[126.943706,35.144341]]]]}},{"type":"Feature","id":"0000194796661831489200000000","properties":{"id":"0000194796661831489200000000","pnu":"1221011100200840014","purpose":"기타"},"geometry":{"type":"MultiPolygon","coordinates":[[[[126.943744,35.147502],[126.943767,35.147436],[126.943671,35.147417],[126.94365,35.147491],[126.943744,35.147502]]]]}},{"type":"Feature","id":"0000194801691828082600000000","properties":{"id":"0000194801691828082600000000","pnu":"1221011100200940001","purpose":"기타"},"geometry":{"type":"MultiPolygon","coordinates":[[[[126.943797,35.144414],[126.943768,35.144356],[126.943733,35.144367],[126.943762,35.144426],[126.943797,35.144414]]]]}},{"type":"Feature","id":"0000194815631830301800000000","properties":{"id":"0000194815631830301800000000","pnu":"1221011100200760001","purpose":"기타"},"geometry":{"type":"MultiPolygon","coordinates":[[[[126.943949,35.146425],[126.943945,35.146352],[126.943883,35.146359],[126.943887,35.146428],[126.943949,35.146425]]]]}},{"type":"Feature","id":"0000194816461827855400000000","properties":{"id":"0000194816461827855400000000","pnu":"1221011100101450000","purpose":"기타"},"geometry":{"type":"MultiPolygon","coordinates":[[[[126.943912,35.144214],[126.943943,35.144215],[126.943946,35.144159],[126.943907,35.144159],[126.943912,35.144214]]]]}},{"type":"Feature","id":"0000194817101827130200000000","properties":{"id":"0000194817101827130200000000","pnu":"1221011100200950000","purpose":"기타"},"geometry":{"type":"MultiPolygon","coordinates":[[[[126.943898,35.143484],[126.943888,35.143575],[126.943971,35.143581],[126.943981,35.14349],[126.943898,35.143484]]]]}},{"type":"Feature","id":"0000194825341830293200000000","properties":{"id":"0000194825341830293200000000","pnu":"1221011100200760001","purpose":"기타"},"geometry":{"type":"MultiPolygon","coordinates":[[[[126.943966,35.146417],[126.944086,35.146407],[126.944083,35.14635],[126.943958,35.14636],[126.943966,35.146417]]]]}},{"type":"Feature","id":"0000195188941827835700000000","properties":{"id":"0000195188941827835700000000","pnu":"1221012100200540000","purpose":"기타"},"geometry":{"type":"MultiPolygon","coordinates":[[[[126.948006,35.144203],[126.948057,35.144182],[126.948026,35.144136],[126.94797,35.144161],[126.948006,35.144203]]]]}},{"type":"Feature","id":"0000195204091828089600000000","properties":{"id":"0000195204091828089600000000","pnu":"1221012100200540000","purpose":"기타"},"geometry":{"type":"MultiPolygon","coordinates":[[[[126.948192,35.144468],[126.948245,35.144445],[126.948258,35.144397],[126.94824,35.144348],[126.948185,35.144332],[126.948119,35.144354],[126.948095,35.144404],[126.948133,35.144451],[126.948192,35.144468]]]]}},{"type":"Feature","id":"0000195220671828111200000000","properties":{"id":"0000195220671828111200000000","pnu":"1221012100200540000","purpose":"기타"},"geometry":{"type":"MultiPolygon","coordinates":[[[[126.948359,35.14447],[126.948412,35.144449],[126.948368,35.144369],[126.948312,35.144388],[126.948359,35.14447]]]]}},{"type":"Feature","id":"1951194369621831238400000000","properties":{"id":"1951194369621831238400000000","pnu":"1221011100102000000","purpose":"단독주택"},"geometry":{"type":"MultiPolygon","coordinates":[[[[126.938986,35.147206],[126.939006,35.147282],[126.939056,35.147276],[126.939034,35.147172],[126.938986,35.147206]]]]}},{"type":"Feature","id":"1951194398101827345200000000","properties":{"id":"1951194398101827345200000000","pnu":"1221011100101700012","year":1951,"purpose":"단독주택"},"geometry":{"type":"MultiPolygon","coordinates":[[[[126.939293,35.143755],[126.939348,35.143769],[126.939377,35.143689],[126.93933,35.143678],[126.939293,35.143755]]]]}},{"type":"Feature","id":"1951194406191827636400000000","properties":{"id":"1951194406191827636400000000","pnu":"1221011100101700012","year":1951,"purpose":"단독주택"},"geometry":{"type":"MultiPolygon","coordinates":[[[[126.939372,35.144008],[126.939468,35.14402],[126.939478,35.143963],[126.939382,35.143955],[126.939372,35.144008]]]]}},{"type":"Feature","id":"1951194414341827376400000000","properties":{"id":"1951194414341827376400000000","pnu":"1221011100101700012","year":1951,"purpose":"단독주택"},"geometry":{"type":"MultiPolygon","coordinates":[[[[126.939462,35.143784],[126.939529,35.143807],[126.939559,35.143709],[126.939514,35.143696],[126.939462,35.143784]]]]}},{"type":"Feature","id":"1951194415831827476700000000","properties":{"id":"1951194415831827476700000000","pnu":"1221011100101700012","year":1951,"purpose":"단독주택"},"geometry":{"type":"MultiPolygon","coordinates":[[[[126.939497,35.143863],[126.939554,35.143871],[126.939564,35.143821],[126.93951,35.143814],[126.939497,35.143863]]]]}},{"type":"Feature","id":"1951194520411829846500000000","properties":{"id":"1951194520411829846500000000","pnu":"1221011100101280001","purpose":"단독주택"},"geometry":{"type":"MultiPolygon","coordinates":[[[[126.940623,35.145954],[126.94062,35.146006],[126.940731,35.146007],[126.940731,35.14595],[126.940623,35.145954]]]]}},{"type":"Feature","id":"1961194508411829969400000000","properties":{"id":"1961194508411829969400000000","pnu":"1221011100101270000","year":1961,"purpose":"단독주택"},"geometry":{"type":"MultiPolygon","coordinates":[[[[126.940512,35.146156],[126.94063,35.146067],[126.940577,35.146024],[126.940461,35.146113],[126.940512,35.146156]]]]}},{"type":"Feature","id":"1961194517611830063100000000","properties":{"id":"1961194517611830063100000000","pnu":"1221011100101270000","year":1961,"purpose":"단독주택"},"geometry":{"type":"MultiPolygon","coordinates":[[[[126.940554,35.146195],[126.940611,35.146248],[126.94074,35.146153],[126.940679,35.146101],[126.940554,35.146195]]]]}},{"type":"Feature","id":"1964194541481829052300000000","properties":{"id":"1964194541481829052300000000","pnu":"1221011100101350001","purpose":"단독주택","floors":1,"structure":"일반목구조"},"geometry":{"type":"MultiPolygon","coordinates":[[[[126.940893,35.145305],[126.940939,35.145294],[126.940934,35.145227],[126.940872,35.145234],[126.940893,35.145305]]]]}},{"type":"Feature","id":"1968194502951830222000000000","properties":{"id":"1968194502951830222000000000","pnu":"1221011100101260002","year":1968,"purpose":"단독주택"},"geometry":{"type":"MultiPolygon","coordinates":[[[[126.940525,35.146377],[126.940523,35.146265],[126.940437,35.146264],[126.940437,35.146312],[126.940455,35.146313],[126.940457,35.146378],[126.940525,35.146377]]]]}},{"type":"Feature","id":"1972194501441831023400000000","properties":{"id":"1972194501441831023400000000","pnu":"1221011100101230001","purpose":"단독주택"},"geometry":{"type":"MultiPolygon","coordinates":[[[[126.940444,35.147082],[126.940524,35.147038],[126.940487,35.146996],[126.940413,35.147047],[126.940444,35.147082]]]]}},{"type":"Feature","id":"1977194371061830518400000000","properties":{"id":"1977194371061830518400000000","pnu":"1221011100101710016","year":1977,"purpose":"단독주택","floors":1,"structure":"벽돌구조"},"geometry":{"type":"MultiPolygon","coordinates":[[[[126.939048,35.146656],[126.939106,35.146618],[126.939064,35.146568],[126.939074,35.14656],[126.939039,35.146515],[126.938967,35.146555],[126.939048,35.146656]]]]}},{"type":"Feature","id":"1977194378911830479800000000","properties":{"id":"1977194378911830479800000000","pnu":"1221011100101710015","year":1977,"purpose":"단독주택","floors":1,"structure":"벽돌구조"},"geometry":{"type":"MultiPolygon","coordinates":[[[[126.939124,35.146606],[126.93917,35.146584],[126.939149,35.146539],[126.939162,35.146531],[126.939139,35.146496],[126.939068,35.146525],[126.939124,35.146606]]]]}},{"type":"Feature","id":"1979194381541831632000000000","properties":{"id":"1979194381541831632000000000","pnu":"1221011100102030001","year":1979,"purpose":"제2종 근린생활시설","far":83.7,"floors":2},"geometry":{"type":"MultiPolygon","coordinates":[[[[126.93908,35.147609],[126.939203,35.147633],[126.939223,35.147563],[126.939099,35.147545],[126.93908,35.147609]]]]}},{"type":"Feature","id":"1979194383221831736700000000","properties":{"id":"1979194383221831736700000000","pnu":"1221011100102030000","year":1979,"purpose":"단독주택","far":89.02,"floors":2,"structure":"벽돌구조"},"geometry":{"type":"MultiPolygon","coordinates":[[[[126.93922,35.147724],[126.939239,35.147657],[126.939182,35.147644],[126.93918,35.147654],[126.939128,35.147648],[126.939123,35.147658],[126.939111,35.147657],[126.939106,35.147668],[126.939095,35.147669],[126.939103,35.147703],[126.93922,35.147724]]]]}},{"type":"Feature","id":"1979194388031831464800000000","properties":{"id":"1979194388031831464800000000","pnu":"1221011100102030010","year":1979,"purpose":"단독주택"},"geometry":{"type":"MultiPolygon","coordinates":[[[[126.939256,35.147492],[126.939287,35.14738],[126.939269,35.147377],[126.939265,35.147388],[126.939215,35.147377],[126.939209,35.1474],[126.939195,35.147399],[126.939187,35.147431],[126.939162,35.14743],[126.939149,35.147475],[126.939256,35.147492]]]]}},{"type":"Feature","id":"1979194394661831656000000000","properties":{"id":"1979194394661831656000000000","pnu":"1221011100102030002","year":1979,"purpose":"단독주택","floors":2,"structure":"벽돌구조"},"geometry":{"type":"MultiPolygon","coordinates":[[[[126.939214,35.147635],[126.939352,35.147661],[126.939379,35.147581],[126.939235,35.14756],[126.939214,35.147635]]]]}},{"type":"Feature","id":"1979194398421831476500000000","properties":{"id":"1979194398421831476500000000","pnu":"1221011100102030009","year":1979,"purpose":"단독주택"},"geometry":{"type":"MultiPolygon","coordinates":[[[[126.939269,35.147496],[126.939355,35.147511],[126.939373,35.147461],[126.939395,35.147463],[126.939408,35.147408],[126.93931,35.147384],[126.939269,35.147496]]]]}},{"type":"Feature","id":"1979194409401831498700000000","properties":{"id":"1979194409401831498700000000","pnu":"1221011100102030008","year":1979,"purpose":"단독주택","floors":1,"structure":"벽돌구조"},"geometry":{"type":"MultiPolygon","coordinates":[[[[126.93939,35.147519],[126.939483,35.147534],[126.939501,35.147477],[126.939519,35.147479],[126.939532,35.147423],[126.93942,35.147405],[126.93939,35.147519]]]]}},{"type":"Feature","id":"1979194419881831529700000000","properties":{"id":"1979194419881831529700000000","pnu":"1221011100102030007","year":1979,"purpose":"단독주택","floors":1,"structure":"벽돌구조"},"geometry":{"type":"MultiPolygon","coordinates":[[[[126.939604,35.147556],[126.939628,35.147465],[126.939564,35.147431],[126.939545,35.147431],[126.939518,35.147542],[126.939604,35.147556]]]]}},{"type":"Feature","id":"1980194385761831862300000000","properties":{"id":"1980194385761831862300000000","pnu":"1221011100102180027","year":1980,"purpose":"단독주택","floors":2,"structure":"벽돌구조"},"geometry":{"type":"MultiPolygon","coordinates":[[[[126.939216,35.147862],[126.939263,35.147762],[126.939213,35.147744],[126.939206,35.147753],[126.939166,35.147739],[126.939138,35.14778],[126.939178,35.147855],[126.939216,35.147862]]]]}},{"type":"Feature","id":"1980194393161831988500000000","properties":{"id":"1980194393161831988500000000","pnu":"1221011100102180026","year":1980,"purpose":"단독주택","floors":1,"structure":"벽돌구조"},"geometry":{"type":"MultiPolygon","coordinates":[[[[126.939304,35.147983],[126.939344,35.147893],[126.939309,35.147882],[126.939311,35.147871],[126.939276,35.147862],[126.939276,35.147856],[126.939239,35.147846],[126.939215,35.147891],[126.939282,35.147975],[126.939304,35.147983]]]]}},{"type":"Feature","id":"1980194394731831761100000000","properties":{"id":"1980194394731831761100000000","pnu":"1221011100102030003","year":1980,"purpose":"단독주택","floors":1,"structure":"벽돌구조"},"geometry":{"type":"MultiPolygon","coordinates":[[[[126.939226,35.147731],[126.939276,35.147743],[126.939356,35.147735],[126.939371,35.147682],[126.93925,35.147659],[126.939226,35.147731]]]]}},{"type":"Feature","id":"1980194396381831876400000000","properties":{"id":"1980194396381831876400000000","pnu":"1221011100102180028","year":1980,"purpose":"단독주택","floors":1,"structure":"벽돌구조"},"geometry":{"type":"MultiPolygon","coordinates":[[[[126.93936,35.147863],[126.939384,35.147806],[126.939358,35.1478],[126.939358,35.147785],[126.939328,35.147775],[126.939328,35.147762],[126.93928,35.147751],[126.939245,35.147824],[126.93936,35.147863]]]]}},{"type":"Feature","id":"1980194407701831762400000000","properties":{"id":"1980194407701831762400000000","pnu":"1221011100102030004","year":1980,"purpose":"단독주택","floors":2,"structure":"벽돌구조"},"geometry":{"type":"MultiPolygon","coordinates":[[[[126.939363,35.147738],[126.939403,35.147741],[126.939425,35.147729],[126.939497,35.147738],[126.939512,35.147675],[126.939446,35.147668],[126.939442,35.14768],[126.939416,35.147675],[126.939407,35.147685],[126.939378,35.147679],[126.939363,35.147738]]]]}},{"type":"Feature","id":"1980194408721831971800000000","properties":{"id":"1980194408721831971800000000","pnu":"1221011100102180030","year":1980,"purpose":"단독주택","far":98.8,"floors":2,"structure":"벽돌구조"},"geometry":{"type":"MultiPolygon","coordinates":[[[[126.939492,35.147939],[126.93952,35.147865],[126.939469,35.147856],[126.939463,35.147866],[126.939421,35.147857],[126.939412,35.147864],[126.939395,35.147863],[126.939375,35.147913],[126.939492,35.147939]]]]}},{"type":"Feature","id":"1980194409071831678900000000","properties":{"id":"1980194409071831678900000000","pnu":"1221011100102030011","year":1980,"purpose":"단독주택","floors":2,"structure":"벽돌구조"},"geometry":{"type":"MultiPolygon","coordinates":[[[[126.939395,35.14764],[126.939502,35.14766],[126.939509,35.147621],[126.939469,35.147607],[126.939464,35.147612],[126.939406,35.147602],[126.939395,35.14764]]]]}},{"type":"Feature","id":"1980194412101831861300000000","properties":{"id":"1980194412101831861300000000","pnu":"1221011100102180029","year":1980,"purpose":"단독주택","floors":1,"structure":"벽돌구조"},"geometry":{"type":"MultiPolygon","coordinates":[[[[126.939409,35.147821],[126.939528,35.147848],[126.93956,35.147754],[126.939497,35.147746],[126.939491,35.14776],[126.939454,35.147755],[126.939449,35.147763],[126.939431,35.14776],[126.939409,35.147821]]]]}},{"type":"Feature","id":"1980194416231832091700000000","properties":{"id":"1980194416231832091700000000","pnu":"1221011100102180033","year":1980,"purpose":"단독주택"},"geometry":{"type":"MultiPolygon","coordinates":[[[[126.93947,35.148041],[126.939528,35.148053],[126.939589,35.14803],[126.939601,35.147981],[126.939544,35.147968],[126.939546,35.147953],[126.9395,35.147941],[126.93947,35.148041]]]]}},{"type":"Feature","id":"1980194420151831971400000000","properties":{"id":"1980194420151831971400000000","pnu":"1221011100102180034","year":1980,"purpose":"단독주택"},"geometry":{"type":"MultiPolygon","coordinates":[[[[126.939508,35.147924],[126.939619,35.147949],[126.939641,35.147882],[126.939625,35.147879],[126.939627,35.147863],[126.9396,35.147855],[126.9396,35.147847],[126.93954,35.147836],[126.939508,35.147924]]]]}},{"type":"Feature","id":"1980194422941831848500000000","properties":{"id":"1980194422941831848500000000","pnu":"1221011100102030005","year":1980,"purpose":"단독주택","floors":1,"structure":"벽돌구조"},"geometry":{"type":"MultiPolygon","coordinates":[[[[126.939549,35.147814],[126.939658,35.147834],[126.939655,35.147752],[126.939617,35.147745],[126.939617,35.147735],[126.939567,35.147731],[126.939549,35.147814]]]]}},{"type":"Feature","id":"1980194512211830653100000000","properties":{"id":"1980194512211830653100000000","pnu":"1221011100101230005","year":1980,"purpose":"단독주택","floors":1,"structure":"벽돌구조"},"geometry":{"type":"MultiPolygon","coordinates":[[[[126.940636,35.146762],[126.940651,35.146658],[126.940554,35.146645],[126.940532,35.146698],[126.940524,35.146698],[126.940516,35.146752],[126.940636,35.146762]]]]}},{"type":"Feature","id":"1981194393441830444800000000","properties":{"id":"1981194393441830444800000000","pnu":"1221011100101690000","year":1981,"purpose":"단독주택","floors":1,"structure":"벽돌구조"},"geometry":{"type":"MultiPolygon","coordinates":[[[[126.939268,35.146585],[126.939365,35.146528],[126.939305,35.146452],[126.939198,35.146504],[126.939268,35.146585]]]]}},{"type":"Feature","id":"1981194504251831528100000000","properties":{"id":"1981194504251831528100000000","pnu":"1221011100102160009","year":1981,"purpose":"단독주택","floors":1,"structure":"벽돌구조"},"geometry":{"type":"MultiPolygon","coordinates":[[[[126.940563,35.147531],[126.94053,35.147439],[126.940421,35.147474],[126.940443,35.147518],[126.940476,35.14751],[126.940496,35.147553],[126.940563,35.147531]]]]}},{"type":"Feature","id":"1982194378111830383100000000","properties":{"id":"1982194378111830383100000000","pnu":"1221011100101700027","year":1982,"purpose":"단독주택"},"geometry":{"type":"MultiPolygon","coordinates":[[[[126.939158,35.146399],[126.939,35.146498],[126.939016,35.146513],[126.939051,35.146499],[126.939059,35.146507],[126.93909,35.146494],[126.939098,35.146502],[126.939164,35.146474],[126.939171,35.146482],[126.939209,35.146462],[126.939158,35.146399]]]]}},{"type":"Feature","id":"1982194399021830264600000000","properties":{"id":"1982194399021830264600000000","pnu":"1221011100101700029","year":1982,"purpose":"단독주택","floors":1,"structure":"벽돌구조"},"geometry":{"type":"MultiPolygon","coordinates":[[[[126.939341,35.146421],[126.939401,35.146389],[126.939392,35.146378],[126.939405,35.14637],[126.939383,35.146335],[126.939397,35.146324],[126.939366,35.146289],[126.939268,35.146344],[126.939341,35.146421]]]]}},{"type":"Feature","id":"1982194403081830381200000000","properties":{"id":"1982194403081830381200000000","pnu":"1221011100101700000","year":1982,"purpose":"단독주택","floors":1,"structure":"벽돌구조"},"geometry":{"type":"MultiPolygon","coordinates":[[[[126.93938,35.146528],[126.939441,35.146498],[126.939424,35.146477],[126.939449,35.14646],[126.939425,35.14643],[126.939434,35.146423],[126.93941,35.146392],[126.93932,35.146446],[126.93938,35.146528]]]]}},{"type":"Feature","id":"1982194508041830782900000000","properties":{"id":"1982194508041830782900000000","pnu":"1221011100101230004","year":1982,"purpose":"단독주택","floors":1,"structure":"벽돌구조"},"geometry":{"type":"MultiPolygon","coordinates":[[[[126.940447,35.146851],[126.940612,35.146865],[126.940623,35.146784],[126.940552,35.146779],[126.940549,35.146799],[126.940459,35.14679],[126.940447,35.146851]]]]}},{"type":"Feature","id":"1982194527901821233200000000","properties":{"id":"1982194527901821233200000000","pnu":"1221012200101880000","year":1982,"purpose":"단독주택","far":19.69,"floors":1,"structure":"벽돌구조"},"geometry":{"type":"MultiPolygon","coordinates":[[[[126.940836,35.138382],[126.940881,35.138343],[126.940798,35.138261],[126.940752,35.138044],[126.94069,35.138055],[126.940727,35.13828],[126.940836,35.138382]]]]}},{"type":"Feature","id":"1982194539831821413000000000","properties":{"id":"1982194539831821413000000000","pnu":"1221012200101880000","year":1982,"purpose":"단독주택","far":19.69,"floors":1,"structure":"벽돌구조"},"geometry":{"type":"MultiPolygon","coordinates":[[[[126.940856,35.138372],[126.940908,35.138409],[126.940936,35.138384],[126.940883,35.138346],[126.940856,35.138372]]]]}},{"type":"Feature","id":"1982194554511821581700000000","properties":{"id":"1982194554511821581700000000","pnu":"1221012200101880000","year":1982,"purpose":"단독주택","far":19.69,"floors":1,"structure":"벽돌구조"},"geometry":{"type":"MultiPolygon","coordinates":[[[[126.941017,35.13853],[126.94104,35.13856],[126.941096,35.138531],[126.941073,35.138499],[126.941017,35.13853]]]]}},{"type":"Feature","id":"1983194546131829897900000000","properties":{"id":"1983194546131829897900000000","pnu":"1221011100101290000","year":1983,"purpose":"단독주택","floors":1,"structure":"벽돌구조"},"geometry":{"type":"MultiPolygon","coordinates":[[[[126.940887,35.146067],[126.940964,35.146097],[126.941031,35.145986],[126.940956,35.145953],[126.940887,35.146067]]]]}},{"type":"Feature","id":"1984194389701830330900000000","properties":{"id":"1984194389701830330900000000","pnu":"1221011100101700028","year":1984,"purpose":"단독주택","floors":1,"structure":"벽돌구조"},"geometry":{"type":"MultiPolygon","coordinates":[[[[126.939254,35.146352],[126.939169,35.146399],[126.939237,35.146479],[126.939315,35.14643],[126.939278,35.146396],[126.939285,35.14639],[126.939254,35.146352]]]]}},{"type":"Feature","id":"1984194754991831917500000000","properties":{"id":"1984194754991831917500000000","pnu":"1221011100200840003","year":1984,"purpose":"단독주택","far":1.17,"floors":1,"structure":"블록구조"},"geometry":{"type":"MultiPolygon","coordinates":[[[[126.943233,35.147888],[126.943276,35.147885],[126.943267,35.147806],[126.943224,35.147809],[126.943233,35.147888]]]]}},{"type":"Feature","id":"1987194413391831238900000000","properties":{"id":"1987194413391831238900000000","pnu":"1221011100102010008","year":1987,"purpose":"단독주택","far":99.77,"floors":2,"structure":"벽돌구조"},"geometry":{"type":"MultiPolygon","coordinates":[[[[126.939513,35.147289],[126.939565,35.147214],[126.939505,35.147182],[126.939495,35.147197],[126.939487,35.147194],[126.939456,35.147226],[126.939446,35.14722],[126.93943,35.147238],[126.939513,35.147289]]]]}},{"type":"Feature","id":"1987194533871829873600000000","properties":{"id":"1987194533871829873600000000","pnu":"1221011100101280002","year":1987,"purpose":"단독주택"},"geometry":{"type":"MultiPolygon","coordinates":[[[[126.940763,35.146019],[126.94084,35.146054],[126.940886,35.145992],[126.940812,35.145952],[126.940763,35.146019]]]]}},{"type":"Feature","id":"1988194397911831001000000000","properties":{"id":"1988194397911831001000000000","pnu":"1221011100102010004","year":1988,"purpose":"공동주택","far":70.61,"floors":2,"structure":"벽돌구조"},"geometry":{"type":"MultiPolygon","coordinates":[[[[126.939282,35.147109],[126.939443,35.146996],[126.939421,35.146972],[126.939428,35.146967],[126.939391,35.146928],[126.939216,35.147044],[126.939254,35.147087],[126.939265,35.147083],[126.939282,35.147109]]]]}},{"type":"Feature","id":"1988194404921831344000000000","properties":{"id":"1988194404921831344000000000","pnu":"1221011100102010002","year":1988,"purpose":"단독주택","far":45.05,"floors":1,"structure":"벽돌구조"},"geometry":{"type":"MultiPolygon","coordinates":[[[[126.939444,35.147377],[126.939504,35.147306],[126.939425,35.147263],[126.939378,35.147303],[126.939351,35.147296],[126.939311,35.147354],[126.939349,35.147373],[126.939444,35.147377]]]]}},{"type":"Feature","id":"1990194370751830995400000000","properties":{"id":"1990194370751830995400000000","pnu":"1221011100101640004","year":1990,"purpose":"단독주택","floors":2,"structure":"벽돌구조"},"geometry":{"type":"MultiPolygon","coordinates":[[[[126.939049,35.147088],[126.939107,35.147053],[126.939075,35.147025],[126.939085,35.147016],[126.939059,35.146991],[126.939069,35.146978],[126.939038,35.14694],[126.938957,35.14699],[126.939049,35.147088]]]]}},{"type":"Feature","id":"1990194379611830919000000000","properties":{"id":"1990194379611830919000000000","pnu":"1221011100101640005","year":1990,"purpose":"단독주택","far":99.5,"floors":2,"structure":"벽돌구조"},"geometry":{"type":"MultiPolygon","coordinates":[[[[126.939152,35.147022],[126.939204,35.146983],[126.939177,35.146955],[126.939188,35.146946],[126.939156,35.146912],[126.939163,35.146901],[126.93913,35.146871],[126.93905,35.146923],[126.939152,35.147022]]]]}},{"type":"Feature","id":"1990194389121830841800000000","properties":{"id":"1990194389121830841800000000","pnu":"1221011100101640006","year":1990,"purpose":"단독주택","far":99.69,"floors":2,"structure":"벽돌구조"},"geometry":{"type":"MultiPolygon","coordinates":[[[[126.939255,35.146953],[126.939311,35.14691],[126.939279,35.146885],[126.939291,35.146875],[126.939262,35.146843],[126.939269,35.146834],[126.939229,35.146802],[126.939155,35.146853],[126.939255,35.146953]]]]}},{"type":"Feature","id":"1990194397301830769000000000","properties":{"id":"1990194397301830769000000000","pnu":"1221011100101640007","year":1990,"purpose":"단독주택","floors":2,"structure":"벽돌구조"},"geometry":{"type":"MultiPolygon","coordinates":[[[[126.939343,35.146886],[126.939403,35.146845],[126.939376,35.146823],[126.939387,35.146815],[126.939352,35.146781],[126.939359,35.146772],[126.939327,35.146736],[126.939296,35.146758],[126.93929,35.14675],[126.939244,35.146786],[126.939343,35.146886]]]]}},{"type":"Feature","id":"1990194505291831696300000000","properties":{"id":"1990194505291831696300000000","pnu":"1221011100102160000","year":1990,"purpose":"단독주택","far":49,"floors":1,"structure":"벽돌구조"},"geometry":{"type":"MultiPolygon","coordinates":[[[[126.940513,35.147746],[126.940588,35.147703],[126.940574,35.147685],[126.940586,35.147676],[126.940574,35.147646],[126.940582,35.147639],[126.94056,35.147606],[126.940568,35.1476],[126.940537,35.147553],[126.940408,35.147614],[126.940441,35.147665],[126.940448,35.147662],[126.940513,35.147746]]]]}},{"type":"Feature","id":"1991194378291831219000000000","properties":{"id":"1991194378291831219000000000","pnu":"1221011100102010000","year":1991,"purpose":"제2종 근린생활시설","far":84.23,"floors":2,"structure":"벽돌구조"},"geometry":{"type":"MultiPolygon","coordinates":[[[[126.939125,35.147302],[126.939203,35.147211],[126.939088,35.147134],[126.939042,35.147171],[126.939058,35.147191],[126.939056,35.147202],[126.939069,35.147208],[126.939062,35.147219],[126.93907,35.147226],[126.939061,35.147238],[126.939084,35.14726],[126.939074,35.14727],[126.939125,35.147302]]]]}},{"type":"Feature","id":"1991194384841831136900000000","properties":{"id":"1991194384841831136900000000","pnu":"1221011100102010011","year":1991,"purpose":"단독주택","far":100.5,"floors":2,"structure":"벽돌구조"},"geometry":{"type":"MultiPolygon","coordinates":[[[[126.939211,35.147204],[126.939279,35.147138],[126.939235,35.14711],[126.939216,35.147125],[126.939159,35.147083],[126.939095,35.147128],[126.939211,35.147204]]]]}},{"type":"Feature","id":"1994194804491830795400000000","properties":{"id":"1994194804491830795400000000","pnu":"1221011100101210001","purpose":"기타"},"geometry":{"type":"MultiPolygon","coordinates":[[[[126.943725,35.146838],[126.943748,35.146888],[126.943868,35.146827],[126.943839,35.146787],[126.943725,35.146838]]]]}},{"type":"Feature","id":"1994194810401830903400000000","properties":{"id":"1994194810401830903400000000","pnu":"1221011100101210001","year":1994,"purpose":"제2종 근린생활시설","far":50.0918,"floors":4,"structure":"철근콘크리트구조"},"geometry":{"type":"MultiPolygon","coordinates":[[[[126.943829,35.147042],[126.943877,35.147025],[126.943886,35.147009],[126.943924,35.147016],[126.943955,35.1469],[126.943898,35.146826],[126.943781,35.146881],[126.943785,35.146887],[126.943743,35.146912],[126.943829,35.147042]]]]}},{"type":"Feature","id":"1995194373211831932500000000","properties":{"id":"1995194373211831932500000000","pnu":"1221011100102200003","year":1995,"purpose":"단독주택","far":98.93,"floors":2,"structure":"벽돌구조"},"geometry":{"type":"MultiPolygon","coordinates":[[[[126.939043,35.147924],[126.9391,35.147914],[126.939098,35.147903],[126.939131,35.147882],[126.939089,35.147796],[126.939042,35.147814],[126.939036,35.147803],[126.938983,35.147823],[126.939043,35.147924]]]]}},{"type":"Feature","id":"1995194417741830689700000000","properties":{"id":"1995194417741830689700000000","pnu":"1221011100101640002","year":1996,"purpose":"단독주택","far":148.52,"floors":3,"structure":"철근콘크리트구조"},"geometry":{"type":"MultiPolygon","coordinates":[[[[126.939528,35.146802],[126.939623,35.146755],[126.939572,35.146677],[126.939477,35.14672],[126.939528,35.146802]]]]}},{"type":"Feature","id":"2000194493671829465700000000","properties":{"id":"2000194493671829465700000000","pnu":"1221011100101490000","year":2000,"purpose":"단독주택","far":39.39,"floors":1,"structure":"벽돌구조"},"geometry":{"type":"MultiPolygon","coordinates":[[[[126.940305,35.145692],[126.940475,35.145673],[126.940477,35.145627],[126.940467,35.145627],[126.940464,35.145582],[126.940305,35.14559],[126.940304,35.145627],[126.940295,35.145626],[126.940297,35.145676],[126.940305,35.145692]]]]}},{"type":"Feature","id":"2002194406721830641100000000","properties":{"id":"2002194406721830641100000000","pnu":"1221011100101640008","year":2002,"purpose":"단독주택","far":74.08,"floors":2,"structure":"철근콘크리트구조"},"geometry":{"type":"MultiPolygon","coordinates":[[[[126.939414,35.14679],[126.93947,35.146754],[126.939444,35.146724],[126.939533,35.146657],[126.939478,35.146604],[126.939375,35.146675],[126.939369,35.14667],[126.939324,35.1467],[126.939414,35.14679]]]]}},{"type":"Feature","id":"2002194498441831303400000000","properties":{"id":"2002194498441831303400000000","pnu":"1221011100102160007","year":2002,"purpose":"단독주택"},"geometry":{"type":"MultiPolygon","coordinates":[[[[126.940397,35.147339],[126.940483,35.147314],[126.940474,35.147282],[126.940481,35.14728],[126.940467,35.147247],[126.940423,35.147261],[126.940417,35.147257],[126.940393,35.147264],[126.940397,35.147339]]]]}},{"type":"Feature","id":"2002194505061830900400000000","properties":{"id":"2002194505061830900400000000","pnu":"1221011100101230003","year":2002,"purpose":"단독주택","far":61.41,"floors":2,"structure":"벽돌구조"},"geometry":{"type":"MultiPolygon","coordinates":[[[[126.940437,35.146971],[126.940545,35.146989],[126.940556,35.146944],[126.940568,35.146944],[126.940577,35.146882],[126.940499,35.146871],[126.940491,35.146889],[126.940454,35.146885],[126.940437,35.146971]]]]}},{"type":"Feature","id":"2004194525171831721000000000","properties":{"id":"2004194525171831721000000000","pnu":"1221011100101220002","year":2004,"purpose":"단독주택","far":86.06,"floors":4,"structure":"철근콘크리트구조"},"geometry":{"type":"MultiPolygon","coordinates":[[[[126.940876,35.147691],[126.940657,35.147562],[126.940594,35.147635],[126.940616,35.147648],[126.940597,35.147669],[126.940666,35.147709],[126.940675,35.147698],[126.940803,35.147774],[126.940876,35.147691]]]]}},{"type":"Feature","id":"2005194385311830698800000000","properties":{"id":"2005194385311830698800000000","pnu":"1221011100101680005","year":2005,"purpose":"단독주택","far":139.92,"floors":3,"structure":"철근콘크리트구조"},"geometry":{"type":"MultiPolygon","coordinates":[[[[126.939299,35.146728],[126.939237,35.146664],[126.93917,35.146707],[126.939189,35.146727],[126.939171,35.146739],[126.939153,35.14672],[126.939087,35.146763],[126.93915,35.146828],[126.939299,35.146728]]]]}},{"type":"Feature","id":"2005194404641832071500000000","properties":{"id":"2005194404641832071500000000","pnu":"1221011100102180031","year":2005,"purpose":"제2종 근린생활시설","far":144.31,"floors":3,"structure":"일반철골구조"},"geometry":{"type":"MultiPolygon","coordinates":[[[[126.939339,35.148003],[126.939449,35.148029],[126.939472,35.147965],[126.939361,35.147938],[126.939339,35.148003]]]]}},{"type":"Feature","id":"2006194372781830792100000000","properties":{"id":"2006194372781830792100000000","pnu":"1221011100101680007","year":2006,"purpose":"단독주택","far":148.34,"floors":3,"structure":"철근콘크리트구조"},"geometry":{"type":"MultiPolygon","coordinates":[[[[126.939052,35.146895],[126.939134,35.146839],[126.939061,35.146766],[126.938978,35.146822],[126.939052,35.146895]]]]}},{"type":"Feature","id":"2006194419821831359400000000","properties":{"id":"2006194419821831359400000000","pnu":"1221011100102020000","year":2006,"purpose":"단독주택","far":157.14,"floors":4,"structure":"철근콘크리트구조"},"geometry":{"type":"MultiPolygon","coordinates":[[[[126.939573,35.147237],[126.939475,35.147368],[126.939547,35.147406],[126.939541,35.147413],[126.939598,35.147443],[126.939644,35.147383],[126.93962,35.147371],[126.939639,35.147346],[126.939624,35.147338],[126.939644,35.147312],[126.939618,35.147298],[126.939632,35.14728],[126.939628,35.147265],[126.939573,35.147237]]]]}},{"type":"Feature","id":"2007194415591830892400000000","properties":{"id":"2007194415591830892400000000","pnu":"1221011100102010006","year":2007,"purpose":"단독주택","far":159.63,"floors":4,"structure":"철근콘크리트구조"},"geometry":{"type":"MultiPolygon","coordinates":[[[[126.93941,35.146912],[126.939463,35.146986],[126.939469,35.146986],[126.939492,35.147016],[126.939541,35.146999],[126.939539,35.146986],[126.939585,35.146968],[126.939586,35.146955],[126.939619,35.146941],[126.939607,35.146906],[126.939624,35.1469],[126.939589,35.146824],[126.93941,35.146912]]]]}},{"type":"Feature","id":"2008194372231831448300000000","properties":{"id":"2008194372231831448300000000","pnu":"1221011100102030012","year":2008,"purpose":"기타","far":30.345588,"floors":1,"structure":"블록구조"},"geometry":{"type":"MultiPolygon","coordinates":[[[[126.939072,35.147379],[126.939013,35.147385],[126.939029,35.147457],[126.939092,35.147467],[126.939087,35.147442],[126.939074,35.147444],[126.939065,35.147404],[126.939077,35.147403],[126.939072,35.147379]]]]}},{"type":"Feature","id":"2008194703351831908700000000","properties":{"id":"2008194703351831908700000000","pnu":"1221011100100990001","year":2008,"purpose":"제1종 근린생활시설"},"geometry":{"type":"MultiPolygon","coordinates":[[[[126.942704,35.147856],[126.942711,35.14783],[126.942662,35.147822],[126.942656,35.147848],[126.942704,35.147856]]]]}}]}
