{"type":"FeatureCollection","features":[{"type":"Feature","id":"0000194422451782140800000000","properties":{"id":"0000194422451782140800000000","pnu":"1221012300101890000","purpose":"기타"},"geometry":{"type":"MultiPolygon","coordinates":[[[[126.939691,35.103142],[126.939782,35.103119],[126.939717,35.102936],[126.939535,35.102822],[126.939469,35.102931],[126.939629,35.103037],[126.939691,35.103142]]]]}},{"type":"Feature","id":"0000194422471781949600000000","properties":{"id":"0000194422471781949600000000","pnu":"1221012300101890000","purpose":"기타"},"geometry":{"type":"MultiPolygon","coordinates":[[[[126.939679,35.102905],[126.93972,35.102779],[126.939601,35.102717],[126.939539,35.102813],[126.939679,35.102905]]]]}},{"type":"Feature","id":"0000194428001781178400000000","properties":{"id":"0000194428001781178400000000","pnu":"1221012300101840000","purpose":"기타"},"geometry":{"type":"MultiPolygon","coordinates":[[[[126.939625,35.102162],[126.939693,35.10218],[126.939807,35.102094],[126.939644,35.102039],[126.939625,35.102162]]]]}},{"type":"Feature","id":"0000194435451781759700000000","properties":{"id":"0000194435451781759700000000","pnu":"1221012300101870000","purpose":"기타"},"geometry":{"type":"MultiPolygon","coordinates":[[[[126.93961,35.102695],[126.939938,35.102696],[126.939934,35.102574],[126.939629,35.102572],[126.93961,35.102695]]]]}},{"type":"Feature","id":"0000194436331781623200000000","properties":{"id":"0000194436331781623200000000","pnu":"1221012300101870000","purpose":"기타"},"geometry":{"type":"MultiPolygon","coordinates":[[[[126.939935,35.102566],[126.939931,35.102457],[126.939652,35.102456],[126.939632,35.102566],[126.939935,35.102566]]]]}},{"type":"Feature","id":"0000194437191781483900000000","properties":{"id":"0000194437191781483900000000","pnu":"1221012300101870000","purpose":"기타"},"geometry":{"type":"MultiPolygon","coordinates":[[[[126.939658,35.102446],[126.93993,35.102446],[126.939926,35.102327],[126.939676,35.102324],[126.939658,35.102446]]]]}},{"type":"Feature","id":"0000194469771781818900000000","properties":{"id":"0000194469771781818900000000","pnu":"1221012300101860002","purpose":"단독주택","floors":1,"structure":"철근콘크리트구조"},"geometry":{"type":"MultiPolygon","coordinates":[[[[126.940049,35.102719],[126.940263,35.102707],[126.940259,35.102659],[126.940045,35.10267],[126.940049,35.102719]]]]}},{"type":"Feature","id":"0000194492761781712500000000","properties":{"id":"0000194492761781712500000000","pnu":"1221012300101860002","purpose":"단독주택","floors":1,"structure":"철근콘크리트구조"},"geometry":{"type":"MultiPolygon","coordinates":[[[[126.940372,35.102655],[126.940463,35.102619],[126.940408,35.102527],[126.940359,35.102547],[126.940398,35.102613],[126.940357,35.10263],[126.940372,35.102655]]]]}},{"type":"Feature","id":"0000194512271780896000000000","properties":{"id":"0000194512271780896000000000","pnu":"1221012300105910000","purpose":"기타"},"geometry":{"type":"MultiPolygon","coordinates":[[[[126.940605,35.101886],[126.940656,35.101865],[126.940634,35.101828],[126.940587,35.10185],[126.940605,35.101886]]]]}},{"type":"Feature","id":"0000194537431781514500000000","properties":{"id":"0000194537431781514500000000","pnu":"1221012300101130001","purpose":"기타"},"geometry":{"type":"MultiPolygon","coordinates":[[[[126.940941,35.102411],[126.940917,35.102383],[126.940853,35.102417],[126.940875,35.102448],[126.940941,35.102411]]]]}},{"type":"Feature","id":"0000194541001782124300000000","properties":{"id":"0000194541001782124300000000","pnu":"1221012300200140000","purpose":"기타"},"geometry":{"type":"MultiPolygon","coordinates":[[[[126.940942,35.103005],[126.940983,35.102972],[126.940928,35.102926],[126.940887,35.102954],[126.940942,35.103005]]]]}},{"type":"Feature","id":"0000194552281782096800000000","properties":{"id":"0000194552281782096800000000","pnu":"1221012300200140000","purpose":"기타"},"geometry":{"type":"MultiPolygon","coordinates":[[[[126.941008,35.102973],[126.941121,35.102953],[126.941105,35.102905],[126.940998,35.102927],[126.941008,35.102973]]]]}},{"type":"Feature","id":"0000194562771781906500000000","properties":{"id":"0000194562771781906500000000","pnu":"1221012300101220000","purpose":"기타"},"geometry":{"type":"MultiPolygon","coordinates":[[[[126.941147,35.102812],[126.941208,35.10281],[126.941203,35.102723],[126.941137,35.10273],[126.941147,35.102812]]]]}},{"type":"Feature","id":"0000194565101781358500000000","properties":{"id":"0000194565101781358500000000","pnu":"1221012300101170000","purpose":"기타"},"geometry":{"type":"MultiPolygon","coordinates":[[[[126.941242,35.102295],[126.941199,35.102236],[126.941158,35.102253],[126.941201,35.102313],[126.941242,35.102295]]]]}},{"type":"Feature","id":"0000194566531781793300000000","properties":{"id":"0000194566531781793300000000","pnu":"1221012300101210000","purpose":"기타"},"geometry":{"type":"MultiPolygon","coordinates":[[[[126.94129,35.102677],[126.941276,35.102623],[126.94114,35.102652],[126.941159,35.102712],[126.94129,35.102677]]]]}},{"type":"Feature","id":"0000194569831781438800000000","properties":{"id":"0000194569831781438800000000","pnu":"1221012300101190000","purpose":"기타"},"geometry":{"type":"MultiPolygon","coordinates":[[[[126.941299,35.102375],[126.941248,35.102298],[126.941204,35.10232],[126.941255,35.102394],[126.941299,35.102375]]]]}},{"type":"Feature","id":"0000194572531782022100000000","properties":{"id":"0000194572531782022100000000","pnu":"1221012300101220000","purpose":"기타"},"geometry":{"type":"MultiPolygon","coordinates":[[[[126.941224,35.102919],[126.941366,35.102881],[126.941344,35.10283],[126.941258,35.102848],[126.941253,35.102841],[126.941199,35.102861],[126.941224,35.102919]]]]}},{"type":"Feature","id":"0000194575311781871500000000","properties":{"id":"0000194575311781871500000000","pnu":"1221012300101220000","purpose":"기타"},"geometry":{"type":"MultiPolygon","coordinates":[[[[126.941246,35.102718],[126.94126,35.10277],[126.941372,35.102761],[126.941363,35.1027],[126.941246,35.102718]]]]}},{"type":"Feature","id":"0000194590711781345100000000","properties":{"id":"0000194590711781345100000000","pnu":"1221012300101300002","purpose":"기타"},"geometry":{"type":"MultiPolygon","coordinates":[[[[126.941514,35.102298],[126.94151,35.102226],[126.941447,35.102226],[126.941452,35.1023],[126.941514,35.102298]]]]}},{"type":"Feature","id":"0000194591311781425800000000","properties":{"id":"0000194591311781425800000000","pnu":"1221012300101300001","purpose":"기타"},"geometry":{"type":"MultiPolygon","coordinates":[[[[126.941436,35.102327],[126.941477,35.102376],[126.941537,35.102333],[126.941504,35.1023],[126.941436,35.102327]]]]}},{"type":"Feature","id":"0000194593561781610400000000","properties":{"id":"0000194593561781610400000000","pnu":"1221012300101280000","purpose":"기타"},"geometry":{"type":"MultiPolygon","coordinates":[[[[126.941492,35.102528],[126.941543,35.102517],[126.94153,35.102474],[126.941481,35.102486],[126.941492,35.102528]]]]}},{"type":"Feature","id":"0000194615371781035800000000","properties":{"id":"0000194615371781035800000000","pnu":"1221012300101320002","purpose":"기타"},"geometry":{"type":"MultiPolygon","coordinates":[[[[126.941765,35.102026],[126.941801,35.101987],[126.941742,35.101942],[126.941699,35.101978],[126.941765,35.102026]]]]}},{"type":"Feature","id":"0000194615571781729700000000","properties":{"id":"0000194615571781729700000000","pnu":"1221012300101270001","purpose":"기타"},"geometry":{"type":"MultiPolygon","coordinates":[[[[126.941746,35.102659],[126.941788,35.102648],[126.941769,35.102562],[126.941712,35.102577],[126.941746,35.102659]]]]}},{"type":"Feature","id":"0000194625641782230900000000","properties":{"id":"0000194625641782230900000000","pnu":"1221012300101100000","purpose":"기타"},"geometry":{"type":"MultiPolygon","coordinates":[[[[126.941919,35.103104],[126.941933,35.103056],[126.941806,35.103021],[126.941787,35.103059],[126.941919,35.103104]]]]}},{"type":"Feature","id":"0000194642281782507600000000","properties":{"id":"0000194642281782507600000000","pnu":"1221012300101070000","purpose":"기타"},"geometry":{"type":"MultiPolygon","coordinates":[[[[126.94201,35.103268],[126.941987,35.103328],[126.942079,35.103353],[126.942105,35.103293],[126.94201,35.103268]]]]}},{"type":"Feature","id":"0000194658481781076800000000","properties":{"id":"0000194658481781076800000000","pnu":"1221012300101390000","purpose":"기타"},"geometry":{"type":"MultiPolygon","coordinates":[[[[126.942171,35.102027],[126.942203,35.102059],[126.942275,35.102016],[126.942249,35.101982],[126.942171,35.102027]]]]}},{"type":"Feature","id":"0000194667721780965700000000","properties":{"id":"0000194667721780965700000000","pnu":"1221012300101390000","purpose":"기타"},"geometry":{"type":"MultiPolygon","coordinates":[[[[126.942328,35.101951],[126.942362,35.101918],[126.942325,35.10189],[126.942288,35.101924],[126.942328,35.101951]]]]}},{"type":"Feature","id":"0000194954741779739900000000","properties":{"id":"0000194954741779739900000000","pnu":"1221012300101430000","purpose":"기타"},"geometry":{"type":"MultiPolygon","coordinates":[[[[126.945448,35.100767],[126.945406,35.100824],[126.945498,35.100869],[126.945543,35.100809],[126.945448,35.100767]]]]}},{"type":"Feature","id":"0000195021081779198900000000","properties":{"id":"0000195021081779198900000000","pnu":"1221012300100640000","purpose":"기타"},"geometry":{"type":"MultiPolygon","coordinates":[[[[126.946117,35.100324],[126.946126,35.100362],[126.946287,35.100336],[126.946278,35.100298],[126.946117,35.100324]]]]}},{"type":"Feature","id":"1964194589981781517600000000","properties":{"id":"1964194589981781517600000000","pnu":"1221012300101300000","purpose":"단독주택","floors":1,"structure":"일반목구조"},"geometry":{"type":"MultiPolygon","coordinates":[[[[126.941463,35.102454],[126.941498,35.102442],[126.941494,35.102429],[126.94151,35.102421],[126.941493,35.10238],[126.941428,35.102411],[126.941463,35.102454]]]]}},{"type":"Feature","id":"1964194598831781479900000000","properties":{"id":"1964194598831781479900000000","pnu":"1221012300101300000","purpose":"단독주택","floors":1,"structure":"일반목구조"},"geometry":{"type":"MultiPolygon","coordinates":[[[[126.941544,35.102334],[126.941533,35.102429],[126.941596,35.102431],[126.941607,35.102341],[126.941544,35.102334]]]]}},{"type":"Feature","id":"1964194608091781773500000000","properties":{"id":"1964194608091781773500000000","pnu":"1221012300101270001","purpose":"단독주택"},"geometry":{"type":"MultiPolygon","coordinates":[[[[126.941686,35.102701],[126.94173,35.102653],[126.941709,35.102641],[126.941716,35.102631],[126.941662,35.102596],[126.941607,35.102651],[126.941686,35.102701]]]]}},{"type":"Feature","id":"1964194610221781388500000000","properties":{"id":"1964194610221781388500000000","pnu":"1221012300101290000","purpose":"단독주택"},"geometry":{"type":"MultiPolygon","coordinates":[[[[126.941589,35.102314],[126.941605,35.102337],[126.941636,35.10233],[126.941642,35.102337],[126.941718,35.102312],[126.941779,35.102315],[126.941787,35.102274],[126.941715,35.102268],[126.941589,35.102314]]]]}},{"type":"Feature","id":"1964194614441781461900000000","properties":{"id":"1964194614441781461900000000","pnu":"1221012300101290000","purpose":"기타"},"geometry":{"type":"MultiPolygon","coordinates":[[[[126.941704,35.102412],[126.94176,35.102417],[126.941778,35.102323],[126.941721,35.10232],[126.941704,35.102412]]]]}},{"type":"Feature","id":"1969194544821781866200000000","properties":{"id":"1969194544821781866200000000","pnu":"1221012300101130002","purpose":"기타","structure":"기타조적구조"},"geometry":{"type":"MultiPolygon","coordinates":[[[[126.940922,35.102713],[126.940921,35.102755],[126.941032,35.102754],[126.941027,35.102704],[126.940922,35.102713]]]]}},{"type":"Feature","id":"1969194550561781739100000000","properties":{"id":"1969194550561781739100000000","pnu":"1221012300101130002","purpose":"단독주택","floors":1,"structure":"일반목구조"},"geometry":{"type":"MultiPolygon","coordinates":[[[[126.941138,35.10263],[126.941132,35.102585],[126.940928,35.102611],[126.940928,35.102641],[126.941004,35.102634],[126.941005,35.102645],[126.941138,35.10263]]]]}},{"type":"Feature","id":"1969194551601781272400000000","properties":{"id":"1969194551601781272400000000","pnu":"1221012300101160001","purpose":"단독주택","floors":1,"structure":"일반목구조"},"geometry":{"type":"MultiPolygon","coordinates":[[[[126.941013,35.102249],[126.941125,35.102203],[126.941093,35.102144],[126.940977,35.102191],[126.941013,35.102249]]]]}},{"type":"Feature","id":"1969194552261781171400000000","properties":{"id":"1969194552261781171400000000","pnu":"1221012300101160001","purpose":"기타","structure":"일반목구조"},"geometry":{"type":"MultiPolygon","coordinates":[[[[126.941059,35.10211],[126.94106,35.10211],[126.941061,35.10211],[126.941062,35.102109],[126.941062,35.102109],[126.941063,35.102108],[126.941064,35.102108],[126.941064,35.102107],[126.941064,35.102106],[126.941064,35.102106],[126.941064,35.102105],[126.941064,35.102104],[126.941064,35.102103],[126.941063,35.102103],[126.941063,35.102102],[126.941062,35.102102],[126.941061,35.102101],[126.94106,35.102101],[126.941059,35.102101],[126.941058,35.102101],[126.941057,35.102101],[126.941056,35.102102],[126.941055,35.102102],[126.941055,35.102103],[126.941054,35.102103],[126.941054,35.102104],[126.941054,35.102105],[126.941053,35.102106],[126.941054,35.102106],[126.941054,35.102107],[126.941054,35.102108],[126.941055,35.102108],[126.941055,35.102109],[126.941056,35.102109],[126.941057,35.10211],[126.941058,35.10211],[126.941059,35.10211]]]]}},{"type":"Feature","id":"1969194554691781847400000000","properties":{"id":"1969194554691781847400000000","pnu":"1221012300101130002","purpose":"단독주택","floors":1,"structure":"일반목구조"},"geometry":{"type":"MultiPolygon","coordinates":[[[[126.941032,35.102698],[126.941038,35.102746],[126.941135,35.102735],[126.941134,35.102681],[126.941032,35.102698]]]]}},{"type":"Feature","id":"1969194611331781145800000000","properties":{"id":"1969194611331781145800000000","pnu":"1221012300101320002","year":1969,"purpose":"단독주택"},"geometry":{"type":"MultiPolygon","coordinates":[[[[126.94164,35.102118],[126.941692,35.102147],[126.941774,35.102051],[126.94172,35.102018],[126.94164,35.102118]]]]}},{"type":"Feature","id":"1969194621541781127300000000","properties":{"id":"1969194621541781127300000000","pnu":"1221012300101320002","year":1969,"purpose":"단독주택"},"geometry":{"type":"MultiPolygon","coordinates":[[[[126.941824,35.102102],[126.941857,35.102076],[126.941813,35.102033],[126.941781,35.102051],[126.941824,35.102102]]]]}},{"type":"Feature","id":"1969194622091781228400000000","properties":{"id":"1969194622091781228400000000","pnu":"1221012300101320002","year":1969,"purpose":"단독주택"},"geometry":{"type":"MultiPolygon","coordinates":[[[[126.941782,35.102203],[126.941894,35.102157],[126.941861,35.102108],[126.941755,35.102165],[126.941782,35.102203]]]]}},{"type":"Feature","id":"1969194671941782405700000000","properties":{"id":"1969194671941782405700000000","pnu":"1221012300101070001","purpose":"기타","far":42.25,"floors":1,"structure":"기타조적구조"},"geometry":{"type":"MultiPolygon","coordinates":[[[[126.942302,35.103213],[126.942334,35.103262],[126.942439,35.103219],[126.942416,35.103179],[126.942302,35.103213]]]]}},{"type":"Feature","id":"1975194927971779448600000000","properties":{"id":"1975194927971779448600000000","pnu":"1221012300101440000","year":1975,"purpose":"기타"},"geometry":{"type":"MultiPolygon","coordinates":[[[[126.945082,35.100559],[126.945119,35.100626],[126.94528,35.100546],[126.945246,35.100485],[126.945082,35.100559]]]]}},{"type":"Feature","id":"1976194543331781465100000000","properties":{"id":"1976194543331781465100000000","pnu":"1221012300101130001","year":1976,"purpose":"단독주택","floors":1,"structure":"블록구조"},"geometry":{"type":"MultiPolygon","coordinates":[[[[126.941009,35.102382],[126.940979,35.102331],[126.940909,35.102363],[126.940947,35.102408],[126.941009,35.102382]]]]}},{"type":"Feature","id":"1977194562181781492700000000","properties":{"id":"1977194562181781492700000000","pnu":"1221012300101190000","year":1977,"purpose":"단독주택"},"geometry":{"type":"MultiPolygon","coordinates":[[[[126.941233,35.102412],[126.941212,35.102352],[126.9411,35.102382],[126.941121,35.102436],[126.941233,35.102412]]]]}},{"type":"Feature","id":"1977194601631781713200000000","properties":{"id":"1977194601631781713200000000","pnu":"1221012300101280001","year":1977,"purpose":"단독주택"},"geometry":{"type":"MultiPolygon","coordinates":[[[[126.941598,35.102641],[126.941651,35.102569],[126.941598,35.102549],[126.941552,35.10262],[126.941598,35.102641]]]]}},{"type":"Feature","id":"1978194519891781886200000000","properties":{"id":"1978194519891781886200000000","pnu":"1221012300101150001","year":1978,"purpose":"단독주택"},"geometry":{"type":"MultiPolygon","coordinates":[[[[126.940736,35.102783],[126.94072,35.102708],[126.940671,35.102714],[126.940688,35.102793],[126.940736,35.102783]]]]}},{"type":"Feature","id":"1978194528571781817700000000","properties":{"id":"1978194528571781817700000000","pnu":"1221012300101150001","year":1978,"purpose":"단독주택"},"geometry":{"type":"MultiPolygon","coordinates":[[[[126.940757,35.102742],[126.940878,35.102705],[126.940849,35.102639],[126.940787,35.102656],[126.94078,35.102646],[126.940721,35.102664],[126.940757,35.102742]]]]}},{"type":"Feature","id":"1979194643031781092900000000","properties":{"id":"1979194643031781092900000000","pnu":"1221012300101340000","year":1979,"purpose":"단독주택","far":18.15,"floors":1,"structure":"벽돌구조"},"geometry":{"type":"MultiPolygon","coordinates":[[[[126.942027,35.102094],[126.942132,35.102045],[126.942075,35.101977],[126.941982,35.102023],[126.942027,35.102094]]]]}},{"type":"Feature","id":"1979194914901779498100000000","properties":{"id":"1979194914901779498100000000","pnu":"1221012300101440000","year":1979,"purpose":"기타"},"geometry":{"type":"MultiPolygon","coordinates":[[[[126.944971,35.100584],[126.944988,35.100639],[126.945109,35.100616],[126.945077,35.100557],[126.944971,35.100584]]]]}},{"type":"Feature","id":"1983194726001782355100000000","properties":{"id":"1983194726001782355100000000","pnu":"1221012300101020000","year":1983,"purpose":"단독주택","far":2.31,"floors":1,"structure":"블록구조"},"geometry":{"type":"MultiPolygon","coordinates":[[[[126.942973,35.10323],[126.943032,35.103159],[126.94295,35.103122],[126.942896,35.103178],[126.942973,35.10323]]]]}},{"type":"Feature","id":"1984194547991781629700000000","properties":{"id":"1984194547991781629700000000","pnu":"1221012300101130001","year":1984,"purpose":"단독주택","floors":1,"structure":"벽돌구조"},"geometry":{"type":"MultiPolygon","coordinates":[[[[126.940945,35.102575],[126.941089,35.102552],[126.941066,35.102456],[126.941014,35.102465],[126.941013,35.102474],[126.940959,35.102482],[126.94096,35.102497],[126.940933,35.1025],[126.940945,35.102575]]]]}},{"type":"Feature","id":"1984194620561781832000000000","properties":{"id":"1984194620561781832000000000","pnu":"1221012300101270000","year":1984,"purpose":"단독주택","far":9.64,"floors":1,"structure":"벽돌구조"},"geometry":{"type":"MultiPolygon","coordinates":[[[[126.941875,35.102734],[126.941814,35.102639],[126.94174,35.102676],[126.941763,35.102719],[126.941775,35.102716],[126.94181,35.102763],[126.941875,35.102734]]]]}},{"type":"Feature","id":"1984194946011779393400000000","properties":{"id":"1984194946011779393400000000","pnu":"1221012300101460000","year":1984,"purpose":"기타","far":1.74,"floors":1,"structure":"블록구조"},"geometry":{"type":"MultiPolygon","coordinates":[[[[126.945308,35.100493],[126.945331,35.100552],[126.945448,35.100519],[126.945428,35.100457],[126.945308,35.100493]]]]}},{"type":"Feature","id":"1985194689061782489600000000","properties":{"id":"1985194689061782489600000000","pnu":"1221012300101050000","purpose":"기타","structure":"블록구조"},"geometry":{"type":"MultiPolygon","coordinates":[[[[126.942581,35.10333],[126.94261,35.10329],[126.942535,35.103256],[126.94251,35.103304],[126.942581,35.10333]]]]}},{"type":"Feature","id":"1985194691711782574500000000","properties":{"id":"1985194691711782574500000000","pnu":"1221012300101050000","year":1985,"purpose":"단독주택","far":20.44,"floors":1,"structure":"벽돌구조"},"geometry":{"type":"MultiPolygon","coordinates":[[[[126.942509,35.103328],[126.942507,35.103406],[126.942664,35.103416],[126.942669,35.103335],[126.942509,35.103328]]]]}},{"type":"Feature","id":"1986194519061781456400000000","properties":{"id":"1986194519061781456400000000","pnu":"1221012300101160000","year":1986,"purpose":"단독주택","far":45.85,"floors":1,"structure":"벽돌구조"},"geometry":{"type":"MultiPolygon","coordinates":[[[[126.940631,35.102409],[126.940761,35.102383],[126.94076,35.102368],[126.94077,35.102367],[126.940756,35.102323],[126.940686,35.102331],[126.940683,35.102323],[126.940634,35.102333],[126.940637,35.102376],[126.940628,35.102378],[126.940631,35.102409]]]]}},{"type":"Feature","id":"1986194557561781392300000000","properties":{"id":"1986194557561781392300000000","pnu":"1221012300101170000","year":1986,"purpose":"단독주택","far":41.34,"floors":1,"structure":"벽돌구조"},"geometry":{"type":"MultiPolygon","coordinates":[[[[126.941101,35.102364],[126.94119,35.102311],[126.941143,35.102253],[126.941094,35.10227],[126.941085,35.102263],[126.941047,35.102295],[126.941101,35.102364]]]]}},{"type":"Feature","id":"1987194585581781460100000000","properties":{"id":"1987194585581781460100000000","pnu":"1221012300101300001","year":1987,"purpose":"단독주택","floors":1,"structure":"벽돌구조"},"geometry":{"type":"MultiPolygon","coordinates":[[[[126.941425,35.102407],[126.941463,35.102386],[126.941424,35.102327],[126.941385,35.102342],[126.941425,35.102407]]]]}},{"type":"Feature","id":"1988194554501781987500000000","properties":{"id":"1988194554501781987500000000","pnu":"1221012300101130000","year":1988,"purpose":"단독주택","far":42.09,"floors":1,"structure":"벽돌구조"},"geometry":{"type":"MultiPolygon","coordinates":[[[[126.941015,35.102888],[126.941151,35.102872],[126.941133,35.102785],[126.94108,35.102788],[126.941079,35.10281],[126.941033,35.102816],[126.941032,35.102831],[126.941009,35.102832],[126.941015,35.102888]]]]}},{"type":"Feature","id":"1988194580151781765400000000","properties":{"id":"1988194580151781765400000000","pnu":"1221012300101210001","year":1988,"purpose":"단독주택","far":42.88,"floors":1,"structure":"벽돌구조"},"geometry":{"type":"MultiPolygon","coordinates":[[[[126.941325,35.102691],[126.941365,35.102679],[126.941366,35.102684],[126.941438,35.102662],[126.941436,35.102657],[126.941443,35.102654],[126.941412,35.102595],[126.941341,35.102613],[126.941337,35.102601],[126.941285,35.102615],[126.941325,35.102691]]]]}},{"type":"Feature","id":"1988194594741781666700000000","properties":{"id":"1988194594741781666700000000","pnu":"1221012300101280000","purpose":"단독주택","floors":1,"structure":"일반목구조"},"geometry":{"type":"MultiPolygon","coordinates":[[[[126.94151,35.102582],[126.941553,35.102571],[126.941542,35.102525],[126.941495,35.102532],[126.94151,35.102582]]]]}},{"type":"Feature","id":"1988194608341781622000000000","properties":{"id":"1988194608341781622000000000","pnu":"1221012300101280000","year":1988,"purpose":"단독주택","far":17.05,"floors":1,"structure":"벽돌구조"},"geometry":{"type":"MultiPolygon","coordinates":[[[[126.941593,35.102539],[126.941639,35.102552],[126.941638,35.102559],[126.941686,35.102565],[126.94169,35.102554],[126.941718,35.102557],[126.941735,35.102493],[126.941726,35.102489],[126.941731,35.102463],[126.941675,35.102451],[126.941669,35.102466],[126.941653,35.102465],[126.941639,35.102504],[126.94161,35.1025],[126.941593,35.102539]]]]}},{"type":"Feature","id":"1988194763551782859800000000","properties":{"id":"1988194763551782859800000000","pnu":"1221012300100980002","purpose":"단독주택","floors":1,"structure":"기타조적구조"},"geometry":{"type":"MultiPolygon","coordinates":[[[[126.943336,35.103685],[126.943457,35.10363],[126.943414,35.103576],[126.943298,35.103619],[126.943336,35.103685]]]]}},{"type":"Feature","id":"1990194528261782048000000000","properties":{"id":"1990194528261782048000000000","pnu":"1221012300101140001","year":1990,"purpose":"단독주택","far":27.69,"floors":1,"structure":"벽돌구조"},"geometry":{"type":"MultiPolygon","coordinates":[[[[126.940881,35.102914],[126.940848,35.10285],[126.940836,35.102854],[126.940826,35.102843],[126.940777,35.102858],[126.940773,35.102849],[126.940714,35.102866],[126.940755,35.102957],[126.940881,35.102914]]]]}},{"type":"Feature","id":"1990194540581782018600000000","properties":{"id":"1990194540581782018600000000","pnu":"1221012300101140001","purpose":"기타","structure":"벽돌구조"},"geometry":{"type":"MultiPolygon","coordinates":[[[[126.940924,35.102915],[126.940987,35.102892],[126.940918,35.10282],[126.940882,35.102835],[126.940924,35.102915]]]]}},{"type":"Feature","id":"1990194624641782064400000000","properties":{"id":"1990194624641782064400000000","pnu":"1221012300101250001","purpose":"기타","structure":"벽돌구조"},"geometry":{"type":"MultiPolygon","coordinates":[[[[126.941831,35.102878],[126.941807,35.102911],[126.941873,35.102942],[126.9419,35.102914],[126.941831,35.102878]]]]}},{"type":"Feature","id":"1990194628121782158700000000","properties":{"id":"1990194628121782158700000000","pnu":"1221012300101250001","year":1990,"purpose":"단독주택","far":55.18,"floors":1,"structure":"벽돌구조"},"geometry":{"type":"MultiPolygon","coordinates":[[[[126.941825,35.103025],[126.941936,35.103049],[126.941958,35.102972],[126.941895,35.102957],[126.941896,35.102947],[126.941847,35.102942],[126.941825,35.103025]]]]}},{"type":"Feature","id":"1992194432561781061700000000","properties":{"id":"1992194432561781061700000000","pnu":"1221012300101840000","year":1992,"purpose":"제2종 근린생활시설","far":63.09,"floors":2,"structure":"철근콘크리트구조"},"geometry":{"type":"MultiPolygon","coordinates":[[[[126.939659,35.102005],[126.939768,35.102077],[126.939802,35.102077],[126.939855,35.102018],[126.939678,35.10192],[126.939668,35.101936],[126.939659,35.102005]]]]}},{"type":"Feature","id":"1992194627131781898000000000","properties":{"id":"1992194627131781898000000000","pnu":"1221012300101260000","purpose":"기타","structure":"벽돌구조"},"geometry":{"type":"MultiPolygon","coordinates":[[[[126.94186,35.102798],[126.941933,35.102741],[126.941909,35.102724],[126.941826,35.102774],[126.94186,35.102798]]]]}},{"type":"Feature","id":"1992194634791781946900000000","properties":{"id":"1992194634791781946900000000","pnu":"1221012300101260000","year":1992,"purpose":"단독주택","floors":1,"structure":"벽돌구조"},"geometry":{"type":"MultiPolygon","coordinates":[[[[126.942052,35.102836],[126.941949,35.102734],[126.941875,35.10279],[126.941908,35.102821],[126.941918,35.102818],[126.941956,35.10285],[126.941968,35.102846],[126.94199,35.102873],[126.942052,35.102836]]]]}},{"type":"Feature","id":"1993194442711781338200000000","properties":{"id":"1993194442711781338200000000","pnu":"1221012300101870001","year":1993,"purpose":"단독주택"},"geometry":{"type":"MultiPolygon","coordinates":[[[[126.939936,35.102284],[126.939926,35.10223],[126.939901,35.102231],[126.939899,35.102216],[126.939845,35.102221],[126.939843,35.102208],[126.939829,35.102208],[126.939787,35.102242],[126.93979,35.102294],[126.939936,35.102284]]]]}},{"type":"Feature","id":"1993194587301782004500000000","properties":{"id":"1993194587301782004500000000","pnu":"1221012300101230000","year":1993,"purpose":"단독주택","far":50.27,"floors":2,"structure":"벽돌구조"},"geometry":{"type":"MultiPolygon","coordinates":[[[[126.941384,35.102895],[126.941501,35.102898],[126.941507,35.102826],[126.941446,35.102822],[126.941446,35.102813],[126.941388,35.10281],[126.941384,35.102895]]]]}},{"type":"Feature","id":"1993194588711781880300000000","properties":{"id":"1993194588711781880300000000","pnu":"1221012300101230000","purpose":"단독주택","floors":1,"structure":"일반목구조"},"geometry":{"type":"MultiPolygon","coordinates":[[[[126.94143,35.102785],[126.94149,35.102784],[126.941489,35.102705],[126.941425,35.102706],[126.94143,35.102785]]]]}},{"type":"Feature","id":"1993194594331781244400000000","properties":{"id":"1993194594331781244400000000","pnu":"1221012300101310000","year":1993,"purpose":"단독주택"},"geometry":{"type":"MultiPolygon","coordinates":[[[[126.94145,35.1022],[126.941512,35.102215],[126.941583,35.102148],[126.941543,35.102122],[126.94145,35.1022]]]]}},{"type":"Feature","id":"1993194604481781326700000000","properties":{"id":"1993194604481781326700000000","pnu":"1221012300101310000","year":1993,"purpose":"단독주택","far":30.15,"floors":1,"structure":"벽돌구조"},"geometry":{"type":"MultiPolygon","coordinates":[[[[126.941719,35.102265],[126.941689,35.102205],[126.941677,35.102207],[126.941666,35.102194],[126.941618,35.10221],[126.941613,35.102202],[126.941547,35.102218],[126.94159,35.102303],[126.941719,35.102265]]]]}},{"type":"Feature","id":"1993194774851782791700000000","properties":{"id":"1993194774851782791700000000","pnu":"1221012300100980002","year":1993,"purpose":"단독주택","far":19.6,"floors":1,"structure":"벽돌구조"},"geometry":{"type":"MultiPolygon","coordinates":[[[[126.94346,35.103603],[126.943545,35.103595],[126.943539,35.103531],[126.943454,35.10354],[126.94346,35.103603]]]]}},{"type":"Feature","id":"1994194600521781904800000000","properties":{"id":"1994194600521781904800000000","pnu":"1221012300101240000","purpose":"단독주택","structure":"벽돌구조"},"geometry":{"type":"MultiPolygon","coordinates":[[[[126.941622,35.102816],[126.941653,35.102776],[126.94155,35.102719],[126.941522,35.102753],[126.941622,35.102816]]]]}},{"type":"Feature","id":"1994194605531782011100000000","properties":{"id":"1994194605531782011100000000","pnu":"1221012300101240000","year":1994,"purpose":"단독주택","far":37,"floors":1,"structure":"벽돌구조"},"geometry":{"type":"MultiPolygon","coordinates":[[[[126.941535,35.102881],[126.941705,35.102923],[126.941743,35.102835],[126.941665,35.102817],[126.941659,35.102825],[126.941592,35.102811],[126.941584,35.102822],[126.941565,35.102818],[126.941535,35.102881]]]]}},{"type":"Feature","id":"1995194574141781606400000000","properties":{"id":"1995194574141781606400000000","pnu":"1221012300101200000","year":1995,"purpose":"단독주택","far":30.4,"floors":1,"structure":"벽돌구조"},"geometry":{"type":"MultiPolygon","coordinates":[[[[126.941377,35.102535],[126.941337,35.102446],[126.941302,35.102455],[126.941287,35.102434],[126.94122,35.10246],[126.941242,35.102509],[126.941253,35.102507],[126.941275,35.102561],[126.941315,35.102561],[126.941315,35.102549],[126.941377,35.102535]]]]}},{"type":"Feature","id":"1996194626821781051700000000","properties":{"id":"1996194626821781051700000000","pnu":"1221012300101330000","purpose":"기타","structure":"벽돌구조"},"geometry":{"type":"MultiPolygon","coordinates":[[[[126.941877,35.102003],[126.941878,35.102003],[126.941879,35.102002],[126.94188,35.102002],[126.94188,35.102002],[126.941881,35.102001],[126.941882,35.102],[126.941882,35.102],[126.941882,35.101999],[126.941882,35.101998],[126.941882,35.101997],[126.941882,35.101997],[126.941882,35.101996],[126.941881,35.101995],[126.94188,35.101995],[126.94188,35.101994],[126.941879,35.101994],[126.941878,35.101994],[126.941877,35.101994],[126.941876,35.101994],[126.941875,35.101994],[126.941874,35.101994],[126.941873,35.101995],[126.941873,35.101995],[126.941872,35.101996],[126.941872,35.101997],[126.941871,35.101997],[126.941871,35.101998],[126.941871,35.101999],[126.941872,35.102],[126.941872,35.102],[126.941873,35.102001],[126.941873,35.102002],[126.941874,35.102002],[126.941875,35.102002],[126.941876,35.102003],[126.941877,35.102003]]]]}},{"type":"Feature","id":"1996194633901781160500000000","properties":{"id":"1996194633901781160500000000","pnu":"1221012300101330000","year":1996,"purpose":"단독주택","far":40.62,"floors":1,"structure":"벽돌구조"},"geometry":{"type":"MultiPolygon","coordinates":[[[[126.94203,35.102123],[126.941967,35.102026],[126.941878,35.102072],[126.941942,35.102165],[126.94203,35.102123]]]]}},{"type":"Feature","id":"2000194644711782274200000000","properties":{"id":"2000194644711782274200000000","pnu":"1221012300101090000","year":2000,"purpose":"단독주택","far":29.8,"floors":1,"structure":"벽돌구조"},"geometry":{"type":"MultiPolygon","coordinates":[[[[126.942001,35.103155],[126.942156,35.103141],[126.942144,35.103046],[126.941989,35.103058],[126.942001,35.103155]]]]}},{"type":"Feature","id":"2001194392461778877700000000","properties":{"id":"2001194392461778877700000000","pnu":"1221012300101590003","year":2001,"purpose":"기타"},"geometry":{"type":"MultiPolygon","coordinates":[[[[126.939292,35.100001],[126.939278,35.100078],[126.939322,35.100083],[126.939337,35.100001],[126.939337,35.099996],[126.939294,35.099991],[126.939292,35.100001]]]]}},{"type":"Feature","id":"2001194400851778890000000000","properties":{"id":"2001194400851778890000000000","pnu":"1221012300101590003","year":2001,"purpose":"기타"},"geometry":{"type":"MultiPolygon","coordinates":[[[[126.93942,35.100092],[126.93943,35.100009],[126.93938,35.100005],[126.93937,35.100088],[126.93942,35.100092]]]]}},{"type":"Feature","id":"2003194443571780925000000000","properties":{"id":"2003194443571780925000000000","pnu":"1221012300101850003","year":2003,"purpose":"기타","far":41.76,"floors":1,"structure":"일반철골구조"},"geometry":{"type":"MultiPolygon","coordinates":[[[[126.939724,35.101842],[126.939888,35.101967],[126.939929,35.101997],[126.939994,35.101981],[126.940033,35.101945],[126.939778,35.101752],[126.939737,35.101787],[126.939724,35.101842]]]]}},{"type":"Feature","id":"2005194628931782363200000000","properties":{"id":"2005194628931782363200000000","pnu":"1221012300101100000","year":2005,"purpose":"단독주택","far":17.78,"floors":1,"structure":"철근콘크리트구조"},"geometry":{"type":"MultiPolygon","coordinates":[[[[126.941857,35.103133],[126.941833,35.103191],[126.941937,35.103226],[126.941969,35.103172],[126.941857,35.103133]]]]}},{"type":"Feature","id":"2006194515941781196300000000","properties":{"id":"2006194515941781196300000000","pnu":"1221012300101160002","year":2006,"purpose":"제1종 근린생활시설","far":49.14,"floors":2,"structure":"벽돌구조"},"geometry":{"type":"MultiPolygon","coordinates":[[[[126.940661,35.102132],[126.940662,35.102132],[126.940663,35.102132],[126.940663,35.102132],[126.940664,35.102131],[126.940665,35.102131],[126.940665,35.10213],[126.940666,35.102129],[126.940666,35.102129],[126.940666,35.102128],[126.940666,35.102127],[126.940666,35.102126],[126.940665,35.102126],[126.940665,35.102125],[126.940664,35.102124],[126.940663,35.102124],[126.940663,35.102124],[126.940662,35.102123],[126.940661,35.102123],[126.94066,35.102123],[126.940659,35.102124],[126.940658,35.102124],[126.940657,35.102124],[126.940656,35.102125],[126.940656,35.102126],[126.940656,35.102126],[126.940655,35.102127],[126.940655,35.102128],[126.940655,35.102129],[126.940656,35.102129],[126.940656,35.10213],[126.940656,35.102131],[126.940657,35.102131],[126.940658,35.102132],[126.940659,35.102132],[126.94066,35.102132],[126.940661,35.102132]]]]}},{"type":"Feature","id":"2009194550191781434600000000","properties":{"id":"2009194550191781434600000000","pnu":"1221012300101180000","year":2009,"purpose":"기타","far":32.95,"floors":1,"structure":"경량철골구조"},"geometry":{"type":"MultiPolygon","coordinates":[[[[126.940982,35.102327],[126.94101,35.102378],[126.941097,35.102362],[126.941049,35.102302],[126.940982,35.102327]]]]}},{"type":"Feature","id":"road:2911012300101590000000008:30669","properties":{"id":"road:2911012300101590000000008:30669","pnu":"1221012300106380000","purpose":"공동주택","year":2016},"geometry":{"type":"MultiPolygon","coordinates":[[[[126.938904,35.100303],[126.938926,35.100306],[126.938924,35.100318],[126.938987,35.100325],[126.938989,35.100314],[126.939007,35.100316],[126.939003,35.100342],[126.939103,35.100352],[126.939107,35.100326],[126.939119,35.100327],[126.939117,35.100337],[126.939188,35.100344],[126.93919,35.100331],[126.93921,35.100333],[126.939222,35.100252],[126.939128,35.100242],[126.939128,35.100244],[126.939007,35.100234],[126.939008,35.100229],[126.938914,35.100221],[126.938904,35.100303]]]]}},{"type":"Feature","id":"road:2911012300101590000000010:30671","properties":{"id":"road:2911012300101590000000010:30671","pnu":"1221012300106380000","purpose":"공동주택","year":2016},"geometry":{"type":"MultiPolygon","coordinates":[[[[126.939027,35.099564],[126.939141,35.099576],[126.939147,35.099532],[126.939309,35.099548],[126.939308,35.099559],[126.939358,35.099564],[126.93937,35.099481],[126.939043,35.099448],[126.939027,35.099564]]]]}},{"type":"Feature","id":"road:2911012300101590000000011:30672","properties":{"id":"road:2911012300101590000000011:30672","pnu":"1221012300106380000","purpose":"공동주택","year":2016},"geometry":{"type":"MultiPolygon","coordinates":[[[[126.939294,35.099325],[126.939364,35.099331],[126.939372,35.099274],[126.939301,35.099268],[126.939294,35.099325]]]]}},{"type":"Feature","id":"road:2911012300101590000000012:30673","properties":{"id":"road:2911012300101590000000012:30673","pnu":"1221012300106380000","purpose":"공동주택","year":2016},"geometry":{"type":"MultiPolygon","coordinates":[[[[126.938773,35.099151],[126.938843,35.099158],[126.938844,35.099149],[126.938856,35.09915],[126.938851,35.099177],[126.938951,35.099188],[126.938956,35.09916],[126.938969,35.099161],[126.938967,35.09917],[126.939036,35.099177],[126.939038,35.099165],[126.939076,35.099169],[126.939074,35.099181],[126.939144,35.099188],[126.939145,35.099179],[126.939157,35.09918],[126.939153,35.099207],[126.939252,35.099217],[126.939257,35.099189],[126.939268,35.09919],[126.939267,35.099199],[126.939336,35.099207],[126.939338,35.099195],[126.93936,35.099197],[126.939372,35.099115],[126.939355,35.099113],[126.939355,35.099116],[126.939282,35.099108],[126.939281,35.099111],[126.93916,35.099098],[126.939161,35.099094],[126.93898,35.099078],[126.93898,35.09908],[126.938855,35.099068],[126.938855,35.099066],[126.938782,35.099059],[126.938766,35.099057],[126.938754,35.099137],[126.938774,35.099139],[126.938773,35.099151]]]]}},{"type":"Feature","id":"road:2911012300101590000000013:30674","properties":{"id":"road:2911012300101590000000013:30674","pnu":"1221012300106380000","purpose":"공동주택","year":2016},"geometry":{"type":"MultiPolygon","coordinates":[[[[126.938856,35.098582],[126.938926,35.098589],[126.938928,35.09858],[126.938939,35.098582],[126.938934,35.098609],[126.939035,35.098619],[126.939039,35.098591],[126.939052,35.098592],[126.93905,35.098601],[126.93912,35.098609],[126.939122,35.098596],[126.939159,35.0986],[126.939157,35.098612],[126.939227,35.09862],[126.939228,35.09861],[126.93924,35.098611],[126.939236,35.098638],[126.939336,35.098648],[126.93934,35.09862],[126.939352,35.098621],[126.93935,35.098631],[126.93942,35.098638],[126.939421,35.098626],[126.939443,35.098628],[126.939455,35.098547],[126.939438,35.098545],[126.939438,35.098547],[126.939365,35.098539],[126.939364,35.098542],[126.939243,35.098529],[126.939244,35.098525],[126.939063,35.098509],[126.939063,35.098511],[126.938938,35.098499],[126.938938,35.098497],[126.938865,35.09849],[126.938849,35.098489],[126.938837,35.098569],[126.938857,35.098571],[126.938856,35.098582]]]]}},{"type":"Feature","id":"road:2911012300101590000000024:30685","properties":{"id":"road:2911012300101590000000024:30685","pnu":"1221012300106380000","purpose":"공동주택","year":2016},"geometry":{"type":"MultiPolygon","coordinates":[[[[126.93928,35.098423],[126.939276,35.098441],[126.939308,35.098444],[126.93931,35.098427],[126.939421,35.098437],[126.939445,35.098266],[126.939337,35.098255],[126.93934,35.098237],[126.939307,35.098234],[126.939305,35.098251],[126.939225,35.098243],[126.939201,35.098416],[126.93928,35.098423]]]]}}]}
