{"type":"FeatureCollection","features":[{"type":"Feature","id":"0000194423221760176900000000","properties":{"id":"0000194423221760176900000000","pnu":"1221012500101700001","purpose":"기타"},"geometry":{"type":"MultiPolygon","coordinates":[[[[126.939671,35.083157],[126.939651,35.083156],[126.939645,35.083205],[126.939665,35.083207],[126.939671,35.083157]]]]}},{"type":"Feature","id":"0000194489241755512900000000","properties":{"id":"0000194489241755512900000000","pnu":"1221012500101270000","purpose":"기타"},"geometry":{"type":"MultiPolygon","coordinates":[[[[126.940375,35.079006],[126.940412,35.078998],[126.940395,35.078949],[126.940358,35.078957],[126.940375,35.079006]]]]}},{"type":"Feature","id":"2000194409241760673200000000","properties":{"id":"2000194409241760673200000000","pnu":"1221012500101700001","year":2000,"purpose":"기타","far":4.87,"floors":1,"structure":"조적구조"},"geometry":{"type":"MultiPolygon","coordinates":[[[[126.939487,35.08354],[126.93944,35.083666],[126.939473,35.083677],[126.939465,35.08371],[126.939522,35.083725],[126.939545,35.083665],[126.939532,35.083662],[126.939568,35.083557],[126.939487,35.08354]]]]}},{"type":"Feature","id":"2000194421421760415300000000","properties":{"id":"2000194421421760415300000000","pnu":"1221012500101700001","year":2000,"purpose":"기타","far":4.87,"floors":1,"structure":"조적구조"},"geometry":{"type":"MultiPolygon","coordinates":[[[[126.939606,35.083376],[126.939601,35.08341],[126.939668,35.083418],[126.939674,35.08338],[126.939606,35.083376]]]]}},{"type":"Feature","id":"2000194430911760170400000000","properties":{"id":"2000194430911760170400000000","pnu":"1221012500101700001","year":2000,"purpose":"기타","far":4.87,"floors":1,"structure":"조적구조"},"geometry":{"type":"MultiPolygon","coordinates":[[[[126.939705,35.083205],[126.939772,35.083209],[126.93978,35.083147],[126.939713,35.083141],[126.939705,35.083205]]]]}}]}
