{"type":"FeatureCollection","features":[{"type":"Feature","id":"0000195725261763677900000000","properties":{"id":"0000195725261763677900000000","pnu":"1221012400100500001","purpose":"기타"},"geometry":{"type":"MultiPolygon","coordinates":[[[[126.953935,35.086408],[126.953976,35.086375],[126.953952,35.086355],[126.953992,35.086323],[126.953942,35.08628],[126.953892,35.086319],[126.953905,35.08633],[126.953873,35.086355],[126.953935,35.086408]]]]}},{"type":"Feature","id":"0000195728501756561300000000","properties":{"id":"0000195728501756561300000000","pnu":"1221012400104820000","purpose":"기타"},"geometry":{"type":"MultiPolygon","coordinates":[[[[126.953925,35.079932],[126.953958,35.079966],[126.954021,35.079925],[126.953988,35.079891],[126.953925,35.079932]]]]}},{"type":"Feature","id":"0000195730971763821100000000","properties":{"id":"0000195730971763821100000000","pnu":"1221012400201530002","purpose":"기타"},"geometry":{"type":"MultiPolygon","coordinates":[[[[126.953961,35.086442],[126.953998,35.086514],[126.954031,35.086502],[126.953994,35.086431],[126.953961,35.086442]]]]}},{"type":"Feature","id":"0000195844911756276000000000","properties":{"id":"0000195844911756276000000000","pnu":"1221012400100850000","purpose":"기타"},"geometry":{"type":"MultiPolygon","coordinates":[[[[126.955197,35.079653],[126.955208,35.079705],[126.955299,35.079694],[126.95529,35.079637],[126.955197,35.079653]]]]}},{"type":"Feature","id":"1995195298931765403000000000","properties":{"id":"1995195298931765403000000000","pnu":"1221012400102630001","purpose":"기타","structure":"철근콘크리트구조"},"geometry":{"type":"MultiPolygon","coordinates":[[[[126.949258,35.087901],[126.949258,35.087901],[126.949259,35.0879],[126.94926,35.0879],[126.949261,35.0879],[126.949262,35.087899],[126.949262,35.087899],[126.949263,35.087898],[126.949263,35.087897],[126.949263,35.087896],[126.949263,35.087895],[126.949263,35.087895],[126.949262,35.087894],[126.949262,35.087893],[126.949261,35.087893],[126.94926,35.087892],[126.949259,35.087892],[126.949258,35.087892],[126.949258,35.087892],[126.949257,35.087892],[126.949256,35.087892],[126.949255,35.087892],[126.949254,35.087893],[126.949253,35.087893],[126.949253,35.087894],[126.949252,35.087895],[126.949252,35.087895],[126.949252,35.087896],[126.949252,35.087897],[126.949252,35.087898],[126.949253,35.087898],[126.949253,35.087899],[126.949254,35.0879],[126.949255,35.0879],[126.949256,35.0879],[126.949257,35.087901],[126.949258,35.087901]]]]}},{"type":"Feature","id":"1995195313531765454900000000","properties":{"id":"1995195313531765454900000000","pnu":"1221012400102630001","year":1995,"purpose":"기타","far":15.6,"floors":1,"structure":"벽돌구조"},"geometry":{"type":"MultiPolygon","coordinates":[[[[126.949307,35.087975],[126.949374,35.088035],[126.94953,35.087905],[126.949462,35.087853],[126.949307,35.087975]]]]}},{"type":"Feature","id":"2005195687341757007700000000","properties":{"id":"2005195687341757007700000000","pnu":"1221012400104820000","year":2005,"purpose":"제1종 근린생활시설"},"geometry":{"type":"MultiPolygon","coordinates":[[[[126.953468,35.080328],[126.953512,35.080369],[126.953555,35.080355],[126.953575,35.080311],[126.953542,35.080313],[126.95351,35.08029],[126.953468,35.080328]]]]}}]}
