{"type":"FeatureCollection","features":[{"type":"Feature","id":"0000195286951833610100000000","properties":{"id":"0000195286951833610100000000","pnu":"1221011100200560001","purpose":"기타"},"geometry":{"type":"MultiPolygon","coordinates":[[[[126.949165,35.149346],[126.949004,35.149383],[126.949014,35.149404],[126.949169,35.149367],[126.949165,35.149346]]]]}},{"type":"Feature","id":"0000195289421833658000000000","properties":{"id":"0000195289421833658000000000","pnu":"1221011100200560001","purpose":"기타"},"geometry":{"type":"MultiPolygon","coordinates":[[[[126.949198,35.149435],[126.949174,35.149368],[126.94903,35.149402],[126.949053,35.149469],[126.949198,35.149435]]]]}},{"type":"Feature","id":"0000195361951833176600000000","properties":{"id":"0000195361951833176600000000","pnu":"1221011100200560005","purpose":"기타"},"geometry":{"type":"MultiPolygon","coordinates":[[[[126.949885,35.149029],[126.949969,35.148986],[126.949936,35.148941],[126.949851,35.148984],[126.949885,35.149029]]]]}},{"type":"Feature","id":"0000195455661833454400000000","properties":{"id":"0000195455661833454400000000","pnu":"1221011100200600005","purpose":"기타"},"geometry":{"type":"MultiPolygon","coordinates":[[[[126.950956,35.149295],[126.95101,35.149254],[126.950921,35.149176],[126.950867,35.149217],[126.950956,35.149295]]]]}},{"type":"Feature","id":"0000195472021833394800000000","properties":{"id":"0000195472021833394800000000","pnu":"1221011100200600005","purpose":"기타"},"geometry":{"type":"MultiPolygon","coordinates":[[[[126.95113,35.149207],[126.951148,35.149169],[126.951106,35.149158],[126.951087,35.149194],[126.95113,35.149207]]]]}},{"type":"Feature","id":"0000195479731833388200000000","properties":{"id":"0000195479731833388200000000","pnu":"1221011100200600005","purpose":"기타"},"geometry":{"type":"MultiPolygon","coordinates":[[[[126.951199,35.149224],[126.951255,35.14919],[126.951212,35.14913],[126.951147,35.149161],[126.951199,35.149224]]]]}},{"type":"Feature","id":"0000195490631833481700000000","properties":{"id":"0000195490631833481700000000","pnu":"1221011100200600001","purpose":"기타"},"geometry":{"type":"MultiPolygon","coordinates":[[[[126.951328,35.14933],[126.951389,35.14929],[126.951314,35.149193],[126.951256,35.149227],[126.951328,35.14933]]]]}},{"type":"Feature","id":"0000195507141833858800000000","properties":{"id":"0000195507141833858800000000","pnu":"1221011100200600001","purpose":"기타"},"geometry":{"type":"MultiPolygon","coordinates":[[[[126.951483,35.149642],[126.951545,35.149622],[126.951522,35.149559],[126.951462,35.149577],[126.951483,35.149642]]]]}},{"type":"Feature","id":"1980195305751833136700000000","properties":{"id":"1980195305751833136700000000","pnu":"1221011100100010000","year":1980,"purpose":"제1종 근린생활시설"},"geometry":{"type":"MultiPolygon","coordinates":[[[[126.949278,35.149004],[126.949325,35.148996],[126.949355,35.148965],[126.949351,35.148923],[126.949316,35.148896],[126.949264,35.148901],[126.949228,35.148934],[126.949237,35.148973],[126.949278,35.149004]]]]}},{"type":"Feature","id":"1980195325231833120600000000","properties":{"id":"1980195325231833120600000000","pnu":"1221011100100010000","year":1980,"purpose":"제1종 근린생활시설"},"geometry":{"type":"MultiPolygon","coordinates":[[[[126.949484,35.148986],[126.949526,35.148985],[126.949569,35.148958],[126.949571,35.148914],[126.949531,35.148887],[126.949487,35.148881],[126.949448,35.148908],[126.949443,35.148951],[126.949484,35.148986]]]]}},{"type":"Feature","id":"1980195371921833202500000000","properties":{"id":"1980195371921833202500000000","pnu":"1221011100100010007","year":1980,"purpose":"제2종 근린생활시설","far":19.95,"floors":1,"structure":"일반철골구조"},"geometry":{"type":"MultiPolygon","coordinates":[[[[126.95,35.149041],[126.950064,35.149033],[126.950057,35.148975],[126.95,35.148981],[126.949973,35.148984],[126.949985,35.149043],[126.95,35.149041]]]]}},{"type":"Feature","id":"1981195470321833519500000000","properties":{"id":"1981195470321833519500000000","pnu":"1221011100100010006","year":1981,"purpose":"제2종 근린생활시설","floors":2,"structure":"철근콘크리트구조"},"geometry":{"type":"MultiPolygon","coordinates":[[[[126.951103,35.149232],[126.951021,35.149274],[126.951044,35.14931],[126.951073,35.149302],[126.95112,35.149359],[126.95117,35.149336],[126.951103,35.149232]]]]}},{"type":"Feature","id":"1983195299991833820700000000","properties":{"id":"1983195299991833820700000000","pnu":"1221011100200560001","year":1983,"purpose":"제2종 근린생활시설","floors":2,"structure":"철근콘크리트구조"},"geometry":{"type":"MultiPolygon","coordinates":[[[[126.949313,35.149559],[126.949292,35.149518],[126.949145,35.149571],[126.949174,35.149613],[126.949313,35.149559]]]]}},{"type":"Feature","id":"1983195309071833557200000000","properties":{"id":"1983195309071833557200000000","pnu":"1221011100200560001","year":1983,"purpose":"제2종 근린생활시설","floors":3,"structure":"벽돌구조"},"geometry":{"type":"MultiPolygon","coordinates":[[[[126.949426,35.149269],[126.949215,35.14932],[126.949242,35.14939],[126.949446,35.14933],[126.949426,35.149269]]]]}},{"type":"Feature","id":"1985195322761833650800000000","properties":{"id":"1985195322761833650800000000","pnu":"1221011100200560001","year":1985,"purpose":"제2종 근린생활시설","floors":1,"structure":"벽돌구조"},"geometry":{"type":"MultiPolygon","coordinates":[[[[126.949372,35.149405],[126.949422,35.149483],[126.949588,35.149417],[126.94954,35.149342],[126.949372,35.149405]]]]}},{"type":"Feature","id":"1985195483401834573700000000","properties":{"id":"1985195483401834573700000000","pnu":"1221011100200560001","year":1985,"purpose":"제2종 근린생활시설","floors":1,"structure":"벽돌구조"},"geometry":{"type":"MultiPolygon","coordinates":[[[[126.951268,35.150344],[126.951324,35.150169],[126.951219,35.150146],[126.951158,35.150317],[126.951268,35.150344]]]]}},{"type":"Feature","id":"1985195498661834575700000000","properties":{"id":"1985195498661834575700000000","pnu":"1221011100200560001","year":1985,"purpose":"제2종 근린생활시설","floors":1,"structure":"벽돌구조"},"geometry":{"type":"MultiPolygon","coordinates":[[[[126.951411,35.150348],[126.951496,35.150183],[126.95141,35.150148],[126.951323,35.150305],[126.951411,35.150348]]]]}},{"type":"Feature","id":"1993195485321832510000000000","properties":{"id":"1993195485321832510000000000","pnu":"1221011100200600001","year":1993,"purpose":"제2종 근린생활시설","far":0.56,"floors":2,"structure":"일반철골구조"},"geometry":{"type":"MultiPolygon","coordinates":[[[[126.951251,35.149049],[126.951734,35.148928],[126.951277,35.147721],[126.950796,35.147838],[126.951251,35.149049]]]]}},{"type":"Feature","id":"1996195493631833732300000000","properties":{"id":"1996195493631833732300000000","pnu":"1221011100100010006","year":1996,"purpose":"기타"},"geometry":{"type":"MultiPolygon","coordinates":[[[[126.951228,35.149448],[126.95129,35.149564],[126.951308,35.14956],[126.951329,35.149587],[126.951465,35.149529],[126.951459,35.149506],[126.95147,35.1495],[126.951408,35.149387],[126.951228,35.149448]]]]}}]}
