{"type":"FeatureCollection","features":[{"type":"Feature","id":"0000195834121751452400000000","properties":{"id":"0000195834121751452400000000","pnu":"1221012400201880001","purpose":"기타"},"geometry":{"type":"MultiPolygon","coordinates":[[[[126.955155,35.075296],[126.95512,35.075293],[126.955099,35.075311],[126.955096,35.075333],[126.955113,35.075352],[126.955142,35.075355],[126.955168,35.075341],[126.95517,35.075314],[126.955155,35.075296]]]]}},{"type":"Feature","id":"0000195961671753342000000000","properties":{"id":"0000195961671753342000000000","pnu":"1221012400201850000","purpose":"기타"},"geometry":{"type":"MultiPolygon","coordinates":[[[[126.956562,35.077048],[126.956527,35.076996],[126.9565,35.077008],[126.956535,35.07706],[126.956562,35.077048]]]]}}]}
