{"type":"FeatureCollection","features":[{"type":"Feature","id":"0000195276051766529700000000","properties":{"id":"0000195276051766529700000000","pnu":"1221012400104720004"},"geometry":{"type":"MultiPolygon","coordinates":[[[[126.948953,35.088918],[126.949003,35.08895],[126.949061,35.088908],[126.949004,35.088873],[126.948953,35.088918]]]]}},{"type":"Feature","id":"0000195280141766561300000000","properties":{"id":"0000195280141766561300000000","pnu":"1221012400104720004"},"geometry":{"type":"MultiPolygon","coordinates":[[[[126.949144,35.088873],[126.949097,35.088851],[126.949079,35.088877],[126.949094,35.088882],[126.949059,35.088962],[126.948924,35.088933],[126.948909,35.088959],[126.949041,35.088994],[126.949056,35.088997],[126.949061,35.088997],[126.949072,35.088995],[126.949083,35.088993],[126.949097,35.088977],[126.949144,35.088873]]]]}},{"type":"Feature","id":"0000195284351768120300000000","properties":{"id":"0000195284351768120300000000","pnu":"1221012400104110004"},"geometry":{"type":"MultiPolygon","coordinates":[[[[126.949125,35.090384],[126.94914,35.090345],[126.949112,35.090333],[126.949116,35.090313],[126.949082,35.090302],[126.94905,35.090361],[126.949125,35.090384]]]]}},{"type":"Feature","id":"0000195284881768010500000000","properties":{"id":"0000195284881768010500000000","pnu":"1221012400104110004"},"geometry":{"type":"MultiPolygon","coordinates":[[[[126.949149,35.090275],[126.94916,35.090231],[126.949049,35.090221],[126.949044,35.09026],[126.949149,35.090275]]]]}},{"type":"Feature","id":"0000195288091767685800000000","properties":{"id":"0000195288091767685800000000","pnu":"1221012400102460000"},"geometry":{"type":"MultiPolygon","coordinates":[[[[126.949208,35.089975],[126.949198,35.089922],[126.949065,35.089935],[126.949075,35.089984],[126.949208,35.089975]]]]}},{"type":"Feature","id":"0000195298391767983800000000","properties":{"id":"0000195298391767983800000000","pnu":"1221012400200510007"},"geometry":{"type":"MultiPolygon","coordinates":[[[[126.949194,35.090265],[126.949265,35.090282],[126.949306,35.090182],[126.949236,35.090161],[126.949194,35.090265]]]]}},{"type":"Feature","id":"0000195304361768097500000000","properties":{"id":"0000195304361768097500000000","pnu":"1221012400200510005"},"geometry":{"type":"MultiPolygon","coordinates":[[[[126.949266,35.090347],[126.949317,35.090369],[126.949364,35.090303],[126.949316,35.09028],[126.949266,35.090347]]]]}},{"type":"Feature","id":"0000195307631767886500000000","properties":{"id":"0000195307631767886500000000","pnu":"1221012400102470005"},"geometry":{"type":"MultiPolygon","coordinates":[[[[126.949335,35.090176],[126.949406,35.090136],[126.949367,35.090093],[126.949297,35.090134],[126.949335,35.090176]]]]}},{"type":"Feature","id":"0000195308711768010100000000","properties":{"id":"0000195308711768010100000000","pnu":"1221012400200510006"},"geometry":{"type":"MultiPolygon","coordinates":[[[[126.949305,35.090267],[126.949366,35.090292],[126.949419,35.090226],[126.949367,35.090199],[126.949305,35.090267]]]]}},{"type":"Feature","id":"0000195312581767947400000000","properties":{"id":"0000195312581767947400000000","pnu":"1221012400200510006"},"geometry":{"type":"MultiPolygon","coordinates":[[[[126.949371,35.090187],[126.949418,35.090215],[126.949439,35.090189],[126.949393,35.090167],[126.949371,35.090187]]]]}},{"type":"Feature","id":"0000195376651766763400000000","properties":{"id":"0000195376651766763400000000","pnu":"1221012400102720000"},"geometry":{"type":"MultiPolygon","coordinates":[[[[126.950057,35.089103],[126.950056,35.089143],[126.950163,35.089143],[126.950161,35.089104],[126.950057,35.089103]]]]}},{"type":"Feature","id":"0000195395121767458300000000","properties":{"id":"0000195395121767458300000000","pnu":"1221012400102530002"},"geometry":{"type":"MultiPolygon","coordinates":[[[[126.950253,35.089684],[126.950217,35.089749],[126.950367,35.089813],[126.950409,35.089753],[126.950253,35.089684]]]]}},{"type":"Feature","id":"0000195499981767395500000000","properties":{"id":"0000195499981767395500000000","pnu":"1221012400102740000"},"geometry":{"type":"MultiPolygon","coordinates":[[[[126.951475,35.089747],[126.951518,35.089729],[126.951473,35.089669],[126.95147,35.089653],[126.951414,35.089638],[126.951424,35.089692],[126.951475,35.089747]]]]}},{"type":"Feature","id":"0000195504541767349500000000","properties":{"id":"0000195504541767349500000000","pnu":"1221012400102740000"},"geometry":{"type":"MultiPolygon","coordinates":[[[[126.951463,35.089624],[126.951455,35.089648],[126.951558,35.089679],[126.951567,35.089655],[126.951463,35.089624]]]]}},{"type":"Feature","id":"0000195508801767175200000000","properties":{"id":"0000195508801767175200000000","pnu":"1221012400102740000"},"geometry":{"type":"MultiPolygon","coordinates":[[[[126.951621,35.089553],[126.95165,35.089483],[126.951497,35.089435],[126.951467,35.089508],[126.951621,35.089553]]]]}},{"type":"Feature","id":"0000195510331768019100000000","properties":{"id":"0000195510331768019100000000","pnu":"1221012400104750001"},"geometry":{"type":"MultiPolygon","coordinates":[[[[126.951573,35.090302],[126.95163,35.090231],[126.951572,35.090209],[126.95152,35.090281],[126.951573,35.090302]]]]}},{"type":"Feature","id":"0000195510611767493400000000","properties":{"id":"0000195510611767493400000000","pnu":"1221012400102740000"},"geometry":{"type":"MultiPolygon","coordinates":[[[[126.951611,35.089837],[126.951652,35.089782],[126.951546,35.089726],[126.951503,35.089783],[126.951611,35.089837]]]]}},{"type":"Feature","id":"0000195517031768369800000000","properties":{"id":"0000195517031768369800000000","pnu":"1221012400104100026"},"geometry":{"type":"MultiPolygon","coordinates":[[[[126.951625,35.090587],[126.951651,35.090595],[126.95167,35.090556],[126.951644,35.090548],[126.951625,35.090587]]]]}},{"type":"Feature","id":"0000195520021768487400000000","properties":{"id":"0000195520021768487400000000","pnu":"1221012400200510010"},"geometry":{"type":"MultiPolygon","coordinates":[[[[126.951694,35.09073],[126.951743,35.090676],[126.951663,35.090625],[126.951619,35.090677],[126.951694,35.09073]]]]}},{"type":"Feature","id":"0000195527041768020100000000","properties":{"id":"0000195527041768020100000000","pnu":"1221012400104720011"},"geometry":{"type":"MultiPolygon","coordinates":[[[[126.951762,35.09027],[126.951775,35.090247],[126.951749,35.090245],[126.951743,35.090265],[126.951762,35.09027]]]]}},{"type":"Feature","id":"0000195533951768141800000000","properties":{"id":"0000195533951768141800000000","pnu":"1221012400104100012"},"geometry":{"type":"MultiPolygon","coordinates":[[[[126.951792,35.090327],[126.951771,35.090369],[126.95187,35.090407],[126.951895,35.090359],[126.951792,35.090327]]]]}},{"type":"Feature","id":"0000195548651768556400000000","properties":{"id":"0000195548651768556400000000","pnu":"1221012400104100000"},"geometry":{"type":"MultiPolygon","coordinates":[[[[126.951981,35.090718],[126.951971,35.090756],[126.952007,35.090762],[126.952017,35.090724],[126.951981,35.090718]]]]}},{"type":"Feature","id":"0000195571941768113900000000","properties":{"id":"0000195571941768113900000000","pnu":"1221012400104100001"},"geometry":{"type":"MultiPolygon","coordinates":[[[[126.952167,35.090308],[126.952157,35.090346],[126.952336,35.090372],[126.952348,35.09034],[126.952167,35.090308]]]]}},{"type":"Feature","id":"0000195598541768593000000000","properties":{"id":"0000195598541768593000000000","pnu":"1221012400104100000"},"geometry":{"type":"MultiPolygon","coordinates":[[[[126.952511,35.090758],[126.952508,35.090783],[126.952572,35.090788],[126.952575,35.090763],[126.952511,35.090758]]]]}},{"type":"Feature","id":"0000195613991766730100000000","properties":{"id":"0000195613991766730100000000","pnu":"1221012400102800000"},"geometry":{"type":"MultiPolygon","coordinates":[[[[126.952725,35.089127],[126.952754,35.089091],[126.9527,35.08906],[126.952669,35.089098],[126.952725,35.089127]]]]}},{"type":"Feature","id":"0000195625711776593400000000","properties":{"id":"0000195625711776593400000000","pnu":"1221012300100500000"},"geometry":{"type":"MultiPolygon","coordinates":[[[[126.952811,35.098016],[126.95288,35.097983],[126.952859,35.097953],[126.952789,35.097986],[126.952811,35.098016]]]]}},{"type":"Feature","id":"0000195646001768995000000000","properties":{"id":"0000195646001768995000000000","pnu":"1221012400104100004"},"geometry":{"type":"MultiPolygon","coordinates":[[[[126.953031,35.091075],[126.952987,35.091129],[126.953093,35.091196],[126.953137,35.091144],[126.953031,35.091075]]]]}},{"type":"Feature","id":"0000195675621768881400000000","properties":{"id":"0000195675621768881400000000","pnu":"1221012400104100027"},"geometry":{"type":"MultiPolygon","coordinates":[[[[126.953299,35.091122],[126.953398,35.091146],[126.953475,35.090947],[126.953373,35.090921],[126.953299,35.091122]]]]}},{"type":"Feature","id":"0000195682321768778600000000","properties":{"id":"0000195682321768778600000000","pnu":"1221012400104100027"},"geometry":{"type":"MultiPolygon","coordinates":[[[[126.953374,35.090919],[126.953477,35.090944],[126.953461,35.090999],[126.953491,35.091006],[126.953522,35.090931],[126.953388,35.090892],[126.953374,35.090919]]]]}},{"type":"Feature","id":"0000195771521769118700000000","properties":{"id":"0000195771521769118700000000","pnu":"1221012400103990000"},"geometry":{"type":"MultiPolygon","coordinates":[[[[126.954396,35.0912],[126.954367,35.091252],[126.954481,35.091295],[126.954508,35.091244],[126.954396,35.0912]]]]}},{"type":"Feature","id":"0000195786171769102000000000","properties":{"id":"0000195786171769102000000000","pnu":"1221012400103970000"},"geometry":{"type":"MultiPolygon","coordinates":[[[[126.954518,35.091283],[126.954623,35.091297],[126.954642,35.091237],[126.954679,35.091241],[126.954691,35.091187],[126.954623,35.091178],[126.954619,35.091184],[126.954558,35.091181],[126.954555,35.09119],[126.954541,35.09119],[126.954518,35.091283]]]]}},{"type":"Feature","id":"0000195839671769172000000000","properties":{"id":"0000195839671769172000000000","pnu":"1221012400103870001"},"geometry":{"type":"MultiPolygon","coordinates":[[[[126.955133,35.091295],[126.955141,35.091318],[126.955236,35.091298],[126.955231,35.091273],[126.955133,35.091295]]]]}},{"type":"Feature","id":"0000195841881769268300000000","properties":{"id":"0000195841881769268300000000","pnu":"1221012400103900000"},"geometry":{"type":"MultiPolygon","coordinates":[[[[126.955184,35.091337],[126.955154,35.091376],[126.955229,35.091426],[126.955269,35.091393],[126.955184,35.091337]]]]}},{"type":"Feature","id":"0000195925851769092900000000","properties":{"id":"0000195925851769092900000000","pnu":"1221012400104730009"},"geometry":{"type":"MultiPolygon","coordinates":[[[[126.956147,35.091245],[126.956157,35.091213],[126.956113,35.091204],[126.956105,35.091239],[126.956147,35.091245]]]]}},{"type":"Feature","id":"0000195936051769667200000000","properties":{"id":"0000195936051769667200000000","pnu":"1221012400103650000"},"geometry":{"type":"MultiPolygon","coordinates":[[[[126.956279,35.091769],[126.956287,35.091732],[126.956207,35.091714],[126.956199,35.091756],[126.956279,35.091769]]]]}},{"type":"Feature","id":"0000195947131769407500000000","properties":{"id":"0000195947131769407500000000","pnu":"1221012400103570000"},"geometry":{"type":"MultiPolygon","coordinates":[[[[126.956372,35.091544],[126.956413,35.091505],[126.956361,35.09147],[126.956312,35.091517],[126.956372,35.091544]]]]}},{"type":"Feature","id":"0000195951281769919700000000","properties":{"id":"0000195951281769919700000000","pnu":"1221012400103670000"},"geometry":{"type":"MultiPolygon","coordinates":[[[[126.956459,35.092002],[126.956472,35.091957],[126.956355,35.091941],[126.956344,35.091981],[126.956459,35.092002]]]]}},{"type":"Feature","id":"0000195953911769475500000000","properties":{"id":"0000195953911769475500000000","pnu":"1221012400103560000"},"geometry":{"type":"MultiPolygon","coordinates":[[[[126.95648,35.091601],[126.956487,35.09158],[126.956398,35.09154],[126.956386,35.091559],[126.95648,35.091601]]]]}},{"type":"Feature","id":"0000195966551768185600000000","properties":{"id":"0000195966551768185600000000","pnu":"1221012400100150000"},"geometry":{"type":"MultiPolygon","coordinates":[[[[126.956548,35.090378],[126.956531,35.090401],[126.956607,35.090437],[126.956623,35.090414],[126.956548,35.090378]]]]}},{"type":"Feature","id":"0000195966831767899900000000","properties":{"id":"0000195966831767899900000000","pnu":"1221012400100150000"},"geometry":{"type":"MultiPolygon","coordinates":[[[[126.956546,35.090181],[126.956567,35.090191],[126.956615,35.090119],[126.956594,35.090109],[126.956546,35.090181]]]]}},{"type":"Feature","id":"0000195968591767787000000000","properties":{"id":"0000195968591767787000000000","pnu":"1221012400100150000"},"geometry":{"type":"MultiPolygon","coordinates":[[[[126.956622,35.090069],[126.956633,35.090052],[126.956577,35.090028],[126.956566,35.090044],[126.956622,35.090069]]]]}},{"type":"Feature","id":"0000195983981768785600000000","properties":{"id":"0000195983981768785600000000","pnu":"1221012400100150000"},"geometry":{"type":"MultiPolygon","coordinates":[[[[126.956767,35.09085],[126.956685,35.090984],[126.956687,35.090996],[126.956688,35.091004],[126.956692,35.091011],[126.956698,35.091021],[126.956719,35.091034],[126.956731,35.091035],[126.956739,35.091035],[126.956768,35.091016],[126.956775,35.091007],[126.956797,35.091017],[126.956853,35.090929],[126.956829,35.090918],[126.956843,35.090884],[126.956767,35.09085]]]]}},{"type":"Feature","id":"0000195989501768281100000000","properties":{"id":"0000195989501768281100000000","pnu":"1221012400100150000"},"geometry":{"type":"MultiPolygon","coordinates":[[[[126.956685,35.090525],[126.956871,35.090612],[126.956969,35.090458],[126.95679,35.090377],[126.956685,35.090525]]]]}},{"type":"Feature","id":"0000196003001767995200000000","properties":{"id":"0000196003001767995200000000","pnu":"1221012400100150000"},"geometry":{"type":"MultiPolygon","coordinates":[[[[126.956948,35.090255],[126.956971,35.090267],[126.957004,35.090221],[126.956995,35.090216],[126.956999,35.09021],[126.956985,35.090203],[126.956948,35.090255]]]]}},{"type":"Feature","id":"0000196015781769333000000000","properties":{"id":"0000196015781769333000000000","pnu":"1221012400100140003"},"geometry":{"type":"MultiPolygon","coordinates":[[[[126.957158,35.09148],[126.957176,35.091449],[126.957075,35.091404],[126.957056,35.091433],[126.957158,35.09148]]]]}},{"type":"Feature","id":"0000196046021768135500000000","properties":{"id":"0000196046021768135500000000","pnu":"1221012400100150000"},"geometry":{"type":"MultiPolygon","coordinates":[[[[126.957466,35.090405],[126.957501,35.090351],[126.95743,35.090322],[126.957396,35.090371],[126.957466,35.090405]]]]}},{"type":"Feature","id":"0000196081931767477800000000","properties":{"id":"0000196081931767477800000000","pnu":"1221012400201070001"},"geometry":{"type":"MultiPolygon","coordinates":[[[[126.957803,35.089782],[126.95785,35.089803],[126.957887,35.089761],[126.957829,35.089737],[126.957803,35.089782]]]]}},{"type":"Feature","id":"0000196114541767569100000000","properties":{"id":"0000196114541767569100000000","pnu":"1221012400100280000"},"geometry":{"type":"MultiPolygon","coordinates":[[[[126.958103,35.0898],[126.958083,35.089868],[126.95817,35.089887],[126.958181,35.089865],[126.958211,35.08987],[126.958208,35.089892],[126.958298,35.089904],[126.958321,35.089839],[126.958103,35.0898]]]]}},{"type":"Feature","id":"0000196143391769540500000000","properties":{"id":"0000196143391769540500000000","pnu":"1221012000106100000"},"geometry":{"type":"MultiPolygon","coordinates":[[[[126.958307,35.091795],[126.958442,35.091858],[126.958499,35.091786],[126.958512,35.091788],[126.958673,35.091554],[126.95866,35.091544],[126.958715,35.091458],[126.958576,35.091396],[126.958307,35.091795]]]]}},{"type":"Feature","id":"0000196159911768257100000000","properties":{"id":"0000196159911768257100000000","pnu":"1221012000105650000"},"geometry":{"type":"MultiPolygon","coordinates":[[[[126.958843,35.090601],[126.958913,35.090515],[126.95854,35.090344],[126.958485,35.090427],[126.958843,35.090601]]]]}},{"type":"Feature","id":"0000196178531768876500000000","properties":{"id":"0000196178531768876500000000","pnu":"1221012000105910000"},"geometry":{"type":"MultiPolygon","coordinates":[[[[126.958842,35.091179],[126.959027,35.090914],[126.958959,35.090885],[126.958777,35.091147],[126.958842,35.091179]]]]}},{"type":"Feature","id":"1964195541251768547500000000","properties":{"id":"1964195541251768547500000000","pnu":"1221012400200510011"},"geometry":{"type":"MultiPolygon","coordinates":[[[[126.95186,35.090716],[126.951922,35.090773],[126.951966,35.090744],[126.951904,35.090692],[126.95186,35.090716]]]]}},{"type":"Feature","id":"1964195817761769048100000000","properties":{"id":"1964195817761769048100000000","pnu":"1221012400103890000"},"geometry":{"type":"MultiPolygon","coordinates":[[[[126.954936,35.091156],[126.95492,35.091205],[126.954954,35.091212],[126.95497,35.091163],[126.954936,35.091156]]]]}},{"type":"Feature","id":"1964195819251769187400000000","properties":{"id":"1964195819251769187400000000","pnu":"1221012400103890000"},"geometry":{"type":"MultiPolygon","coordinates":[[[[126.954921,35.091263],[126.954896,35.091299],[126.954998,35.091358],[126.955027,35.091317],[126.954921,35.091263]]]]}},{"type":"Feature","id":"1964195961931769956300000000","properties":{"id":"1964195961931769956300000000","pnu":"1221012400103700000"},"geometry":{"type":"MultiPolygon","coordinates":[[[[126.956464,35.092014],[126.956558,35.092044],[126.956592,35.091995],[126.956488,35.091962],[126.956464,35.092014]]]]}},{"type":"Feature","id":"1964195962891769873600000000","properties":{"id":"1964195962891769873600000000","pnu":"1221012400103700000"},"geometry":{"type":"MultiPolygon","coordinates":[[[[126.956571,35.091963],[126.956589,35.091929],[126.956507,35.091893],[126.956484,35.091932],[126.956571,35.091963]]]]}},{"type":"Feature","id":"1969195316481767796300000000","properties":{"id":"1969195316481767796300000000","pnu":"1221012400102470005"},"geometry":{"type":"MultiPolygon","coordinates":[[[[126.949429,35.090081],[126.949486,35.090053],[126.949463,35.090027],[126.949415,35.090052],[126.949429,35.090081]]]]}},{"type":"Feature","id":"1969195529661768050900000000","properties":{"id":"1969195529661768050900000000","pnu":"1221012400104100012"},"geometry":{"type":"MultiPolygon","coordinates":[[[[126.951779,35.090327],[126.951834,35.090258],[126.951783,35.090247],[126.951743,35.090306],[126.951779,35.090327]]]]}},{"type":"Feature","id":"1969195743711769204900000000","properties":{"id":"1969195743711769204900000000","pnu":"1221012400104020000"},"geometry":{"type":"MultiPolygon","coordinates":[[[[126.954111,35.091367],[126.954179,35.0913],[126.954149,35.091286],[126.95409,35.09135],[126.954111,35.091367]]]]}},{"type":"Feature","id":"1969195748741769283200000000","properties":{"id":"1969195748741769283200000000","pnu":"1221012400104020000"},"geometry":{"type":"MultiPolygon","coordinates":[[[[126.954141,35.091351],[126.954119,35.091401],[126.954237,35.091438],[126.954259,35.091395],[126.954141,35.091351]]]]}},{"type":"Feature","id":"1969195752001769103600000000","properties":{"id":"1969195752001769103600000000","pnu":"1221012400104040001"},"geometry":{"type":"MultiPolygon","coordinates":[[[[126.95417,35.091196],[126.954156,35.091255],[126.954275,35.091272],[126.954295,35.091215],[126.95417,35.091196]]]]}},{"type":"Feature","id":"1969195766621769002800000000","properties":{"id":"1969195766621769002800000000","pnu":"1221012400103990000"},"geometry":{"type":"MultiPolygon","coordinates":[[[[126.954346,35.09118],[126.954388,35.091192],[126.954425,35.091105],[126.954378,35.091097],[126.954346,35.09118]]]]}},{"type":"Feature","id":"1969195778541769220100000000","properties":{"id":"1969195778541769220100000000","pnu":"1221012400103920000"},"geometry":{"type":"MultiPolygon","coordinates":[[[[126.954518,35.091373],[126.954545,35.091312],[126.954509,35.091305],[126.954487,35.091369],[126.954518,35.091373]]]]}},{"type":"Feature","id":"1969195783131769304100000000","properties":{"id":"1969195783131769304100000000","pnu":"1221012400103920000"},"geometry":{"type":"MultiPolygon","coordinates":[[[[126.954508,35.09138],[126.954499,35.091435],[126.954617,35.091449],[126.954636,35.091397],[126.954508,35.09138]]]]}},{"type":"Feature","id":"1969195946471770068400000000","properties":{"id":"1969195946471770068400000000","pnu":"1221012400103670000"},"geometry":{"type":"MultiPolygon","coordinates":[[[[126.956296,35.092057],[126.956283,35.092116],[126.956411,35.092151],[126.956433,35.092094],[126.956296,35.092057]]]]}},{"type":"Feature","id":"1969195950281769620200000000","properties":{"id":"1969195950281769620200000000","pnu":"1221012400103550000"},"geometry":{"type":"MultiPolygon","coordinates":[[[[126.956436,35.091741],[126.956454,35.091683],[126.956361,35.091659],[126.956342,35.091719],[126.956436,35.091741]]]]}},{"type":"Feature","id":"1973195754291768923200000000","properties":{"id":"1973195754291768923200000000","pnu":"1221012400104050001"},"geometry":{"type":"MultiPolygon","coordinates":[[[[126.954196,35.091086],[126.954294,35.091099],[126.954301,35.091055],[126.954202,35.091046],[126.954196,35.091086]]]]}},{"type":"Feature","id":"1977195922221769424800000000","properties":{"id":"1977195922221769424800000000","pnu":"1221012400103630000"},"geometry":{"type":"MultiPolygon","coordinates":[[[[126.956123,35.09156],[126.956149,35.09152],[126.956061,35.091488],[126.95603,35.091528],[126.956123,35.09156]]]]}},{"type":"Feature","id":"1977195924801769529900000000","properties":{"id":"1977195924801769529900000000","pnu":"1221012400103630000"},"geometry":{"type":"MultiPolygon","coordinates":[[[[126.956037,35.091624],[126.956176,35.091668],[126.956203,35.09162],[126.956112,35.091588],[126.956114,35.091579],[126.95607,35.091566],[126.956037,35.091624]]]]}},{"type":"Feature","id":"1980195278081767239000000000","properties":{"id":"1980195278081767239000000000","pnu":"1221012400102430000"},"geometry":{"type":"MultiPolygon","coordinates":[[[[126.948956,35.089569],[126.948977,35.089597],[126.949098,35.089538],[126.949072,35.089504],[126.948956,35.089569]]]]}},{"type":"Feature","id":"1980195557231768304300000000","properties":{"id":"1980195557231768304300000000","pnu":"1221012400104100009"},"geometry":{"type":"MultiPolygon","coordinates":[[[[126.952115,35.09047],[126.95202,35.090525],[126.95207,35.090551],[126.952149,35.090509],[126.952115,35.09047]]]]}},{"type":"Feature","id":"1984195745961769006400000000","properties":{"id":"1984195745961769006400000000","pnu":"1221012400104040000"},"geometry":{"type":"MultiPolygon","coordinates":[[[[126.954188,35.091162],[126.954187,35.091129],[126.954124,35.091133],[126.954129,35.091162],[126.954188,35.091162]]]]}},{"type":"Feature","id":"1984195960511770128600000000","properties":{"id":"1984195960511770128600000000","pnu":"1221012400103690000"},"geometry":{"type":"MultiPolygon","coordinates":[[[[126.956425,35.092195],[126.956477,35.092203],[126.956477,35.092198],[126.956553,35.092205],[126.956553,35.092201],[126.956592,35.092202],[126.9566,35.09214],[126.956584,35.092139],[126.956583,35.092126],[126.956506,35.092121],[126.956507,35.092108],[126.956446,35.092101],[126.956425,35.092195]]]]}},{"type":"Feature","id":"1984195971081769963100000000","properties":{"id":"1984195971081769963100000000","pnu":"1221012400103690000"},"geometry":{"type":"MultiPolygon","coordinates":[[[[126.956566,35.092042],[126.956609,35.092065],[126.956686,35.091977],[126.956642,35.091955],[126.956566,35.092042]]]]}},{"type":"Feature","id":"1985195736881769129700000000","properties":{"id":"1985195736881769129700000000","pnu":"1221012400104030000"},"geometry":{"type":"MultiPolygon","coordinates":[[[[126.954021,35.091223],[126.954001,35.09127],[126.954095,35.091291],[126.954116,35.091246],[126.954021,35.091223]]]]}},{"type":"Feature","id":"1986195923971769802900000000","properties":{"id":"1986195923971769802900000000","pnu":"1221012400103650000"},"geometry":{"type":"MultiPolygon","coordinates":[[[[126.956096,35.091927],[126.956171,35.091823],[126.95612,35.091805],[126.95605,35.091905],[126.956096,35.091927]]]]}},{"type":"Feature","id":"1986195930481769900600000000","properties":{"id":"1986195930481769900600000000","pnu":"1221012400103650000"},"geometry":{"type":"MultiPolygon","coordinates":[[[[126.956284,35.091918],[126.956121,35.091896],[126.95609,35.091936],[126.956078,35.091994],[126.956163,35.092005],[126.956166,35.091991],[126.956268,35.092004],[126.956284,35.091918]]]]}},{"type":"Feature","id":"1990195969231769823300000000","properties":{"id":"1990195969231769823300000000","pnu":"1221012400103710000"},"geometry":{"type":"MultiPolygon","coordinates":[[[[126.956521,35.091889],[126.956643,35.091939],[126.956685,35.091865],[126.956632,35.091846],[126.956628,35.091854],[126.956582,35.091839],[126.956572,35.09185],[126.956549,35.091843],[126.956521,35.091889]]]]}},{"type":"Feature","id":"1991195293481767404200000000","properties":{"id":"1991195293481767404200000000","pnu":"1221012400102440000"},"geometry":{"type":"MultiPolygon","coordinates":[[[[126.949139,35.089716],[126.949234,35.08974],[126.949256,35.089686],[126.949159,35.089659],[126.949139,35.089716]]]]}},{"type":"Feature","id":"1991195924641769312200000000","properties":{"id":"1991195924641769312200000000","pnu":"1221012400103590000"},"geometry":{"type":"MultiPolygon","coordinates":[[[[126.956106,35.091467],[126.956133,35.091426],[126.956155,35.091429],[126.956169,35.091397],[126.956119,35.091383],[126.956065,35.091452],[126.956106,35.091467]]]]}},{"type":"Feature","id":"1991195931861769375700000000","properties":{"id":"1991195931861769375700000000","pnu":"1221012400103590000"},"geometry":{"type":"MultiPolygon","coordinates":[[[[126.956117,35.091488],[126.956242,35.091539],[126.956271,35.09149],[126.956251,35.09148],[126.956257,35.09147],[126.956209,35.091443],[126.956212,35.091436],[126.956164,35.09142],[126.956117,35.091488]]]]}},{"type":"Feature","id":"1991195999361770185000000000","properties":{"id":"1991195999361770185000000000","pnu":"1221012400103750000"},"geometry":{"type":"MultiPolygon","coordinates":[[[[126.956851,35.092238],[126.957,35.092251],[126.957006,35.092168],[126.956953,35.092162],[126.956945,35.092183],[126.956878,35.09218],[126.956862,35.092188],[126.956851,35.092238]]]]}},{"type":"Feature","id":"1991196000101770083400000000","properties":{"id":"1991196000101770083400000000","pnu":"1221012400103750000"},"geometry":{"type":"MultiPolygon","coordinates":[[[[126.956907,35.092133],[126.956939,35.092146],[126.956985,35.09211],[126.956941,35.092089],[126.956907,35.092133]]]]}},{"type":"Feature","id":"1992195733021769252100000000","properties":{"id":"1992195733021769252100000000","pnu":"1221012400104030000"},"geometry":{"type":"MultiPolygon","coordinates":[[[[126.954044,35.091426],[126.954081,35.091368],[126.954074,35.091364],[126.954078,35.091354],[126.954032,35.091338],[126.954039,35.091323],[126.953995,35.091307],[126.953946,35.091382],[126.954044,35.091426]]]]}},{"type":"Feature","id":"1992195734001769169600000000","properties":{"id":"1992195734001769169600000000","pnu":"1221012400104030000"},"geometry":{"type":"MultiPolygon","coordinates":[[[[126.954008,35.091276],[126.954001,35.091292],[126.954044,35.091309],[126.954054,35.091297],[126.954008,35.091276]]]]}},{"type":"Feature","id":"1992195737231769034900000000","properties":{"id":"1992195737231769034900000000","pnu":"1221012400104030000"},"geometry":{"type":"MultiPolygon","coordinates":[[[[126.954052,35.091215],[126.954067,35.091181],[126.954112,35.091143],[126.954096,35.091131],[126.954038,35.091163],[126.954025,35.091209],[126.954052,35.091215]]]]}},{"type":"Feature","id":"1992195809811769308400000000","properties":{"id":"1992195809811769308400000000","pnu":"1221012400103910001"},"geometry":{"type":"MultiPolygon","coordinates":[[[[126.954792,35.091456],[126.954936,35.091461],[126.954934,35.091398],[126.95492,35.091399],[126.954919,35.091388],[126.954855,35.091384],[126.954854,35.09137],[126.95479,35.091371],[126.954785,35.091442],[126.954792,35.091441],[126.954792,35.091456]]]]}},{"type":"Feature","id":"1992195815641769234700000000","properties":{"id":"1992195815641769234700000000","pnu":"1221012400103910001"},"geometry":{"type":"MultiPolygon","coordinates":[[[[126.954948,35.091386],[126.95497,35.091361],[126.954899,35.091318],[126.954874,35.091347],[126.954948,35.091386]]]]}},{"type":"Feature","id":"1993195941481769569800000000","properties":{"id":"1993195941481769569800000000","pnu":"1221012400103580000"},"geometry":{"type":"MultiPolygon","coordinates":[[[[126.956358,35.091604],[126.956274,35.091594],[126.956256,35.091667],[126.95625,35.091667],[126.956243,35.091702],[126.956331,35.091716],[126.956358,35.091604]]]]}},{"type":"Feature","id":"1993195944231769461500000000","properties":{"id":"1993195944231769461500000000","pnu":"1221012400103580000"},"geometry":{"type":"MultiPolygon","coordinates":[[[[126.956356,35.091582],[126.956368,35.091565],[126.956306,35.091533],[126.956295,35.091549],[126.956356,35.091582]]]]}},{"type":"Feature","id":"1993195980511769762500000000","properties":{"id":"1993195980511769762500000000","pnu":"1221012400103720000"},"geometry":{"type":"MultiPolygon","coordinates":[[[[126.956737,35.091875],[126.956782,35.091846],[126.956765,35.091799],[126.956728,35.091793],[126.956676,35.091806],[126.956667,35.091822],[126.956737,35.091875]]]]}},{"type":"Feature","id":"1994195912681769599900000000","properties":{"id":"1994195912681769599900000000","pnu":"1221012400103640000"},"geometry":{"type":"MultiPolygon","coordinates":[[[[126.955996,35.091729],[126.956044,35.091659],[126.955991,35.091638],[126.955919,35.091695],[126.955996,35.091729]]]]}},{"type":"Feature","id":"1994195917201769732700000000","properties":{"id":"1994195917201769732700000000","pnu":"1221012400103640000"},"geometry":{"type":"MultiPolygon","coordinates":[[[[126.956068,35.091864],[126.95611,35.091772],[126.956042,35.09175],[126.956036,35.091759],[126.955993,35.091747],[126.955963,35.091814],[126.955977,35.091819],[126.955969,35.091832],[126.956068,35.091864]]]]}},{"type":"Feature","id":"1995195797281769302400000000","properties":{"id":"1995195797281769302400000000","pnu":"1221012400103930000"},"geometry":{"type":"MultiPolygon","coordinates":[[[[126.954659,35.091436],[126.954772,35.091448],[126.95478,35.091391],[126.954671,35.091378],[126.954659,35.091436]]]]}},{"type":"Feature","id":"1997195946521769823000000000","properties":{"id":"1997195946521769823000000000","pnu":"1221012400103660000"},"geometry":{"type":"MultiPolygon","coordinates":[[[[126.956355,35.091938],[126.956399,35.091941],[126.956428,35.091897],[126.956409,35.091896],[126.956413,35.09184],[126.956296,35.091834],[126.956287,35.091891],[126.956355,35.091938]]]]}},{"type":"Feature","id":"1997195955921769772200000000","properties":{"id":"1997195955921769772200000000","pnu":"1221012400103660000"},"geometry":{"type":"MultiPolygon","coordinates":[[[[126.956469,35.091881],[126.956489,35.0918],[126.956451,35.091794],[126.956431,35.091875],[126.956469,35.091881]]]]}},{"type":"Feature","id":"2000195291131767468900000000","properties":{"id":"2000195291131767468900000000","pnu":"1221012400102450000"},"geometry":{"type":"MultiPolygon","coordinates":[[[[126.949171,35.089763],[126.949172,35.089763],[126.949173,35.089763],[126.949173,35.089762],[126.949174,35.089762],[126.949175,35.089761],[126.949176,35.089761],[126.949176,35.08976],[126.949176,35.089759],[126.949176,35.089758],[126.949176,35.089758],[126.949176,35.089757],[126.949176,35.089756],[126.949175,35.089756],[126.949174,35.089755],[126.949173,35.089755],[126.949173,35.089754],[126.949172,35.089754],[126.949171,35.089754],[126.94917,35.089754],[126.949169,35.089754],[126.949168,35.089755],[126.949167,35.089755],[126.949167,35.089756],[126.949166,35.089756],[126.949166,35.089757],[126.949165,35.089758],[126.949165,35.089758],[126.949165,35.089759],[126.949166,35.08976],[126.949166,35.089761],[126.949167,35.089761],[126.949167,35.089762],[126.949168,35.089762],[126.949169,35.089763],[126.94917,35.089763],[126.949171,35.089763]]]]}},{"type":"Feature","id":"2000195295341767567000000000","properties":{"id":"2000195295341767567000000000","pnu":"1221012400102450000"},"geometry":{"type":"MultiPolygon","coordinates":[[[[126.949174,35.089779],[126.949132,35.089857],[126.949144,35.089861],[126.949141,35.089869],[126.949183,35.089884],[126.94918,35.08989],[126.94926,35.089912],[126.949294,35.089853],[126.949285,35.089849],[126.949302,35.089825],[126.949174,35.089779]]]]}},{"type":"Feature","id":"2000195300661767651800000000","properties":{"id":"2000195300661767651800000000","pnu":"1221012400102450000"},"geometry":{"type":"MultiPolygon","coordinates":[[[[126.949275,35.089928],[126.949276,35.089928],[126.949277,35.089928],[126.949278,35.089927],[126.949279,35.089927],[126.949279,35.089926],[126.94928,35.089926],[126.94928,35.089925],[126.949281,35.089924],[126.949281,35.089923],[126.949281,35.089923],[126.94928,35.089922],[126.94928,35.089921],[126.949279,35.08992],[126.949279,35.08992],[126.949278,35.089919],[126.949277,35.089919],[126.949276,35.089919],[126.949275,35.089919],[126.949274,35.089919],[126.949273,35.089919],[126.949272,35.089919],[126.949272,35.08992],[126.949271,35.08992],[126.94927,35.089921],[126.94927,35.089922],[126.94927,35.089923],[126.94927,35.089923],[126.94927,35.089924],[126.94927,35.089925],[126.94927,35.089926],[126.949271,35.089926],[126.949272,35.089927],[126.949272,35.089927],[126.949273,35.089928],[126.949274,35.089928],[126.949275,35.089928]]]]}},{"type":"Feature","id":"2002195446941768053400000000","properties":{"id":"2002195446941768053400000000","pnu":"1221012400104100013"},"geometry":{"type":"MultiPolygon","coordinates":[[[[126.950911,35.09034],[126.950955,35.090271],[126.950911,35.090253],[126.950906,35.090257],[126.950883,35.090249],[126.950879,35.090252],[126.950839,35.090237],[126.950801,35.090294],[126.950911,35.09034]]]]}},{"type":"Feature","id":"2002195554361768200600000000","properties":{"id":"2002195554361768200600000000","pnu":"1221012400104100010"},"geometry":{"type":"MultiPolygon","coordinates":[[[[126.952,35.090472],[126.952104,35.090474],[126.952109,35.09036],[126.952074,35.090358],[126.952074,35.090369],[126.952011,35.090367],[126.952,35.090472]]]]}},{"type":"Feature","id":"2002195857941769438100000000","properties":{"id":"2002195857941769438100000000","pnu":"1221012400103840000"},"geometry":{"type":"MultiPolygon","coordinates":[[[[126.955323,35.091491],[126.955316,35.091526],[126.955304,35.091525],[126.955298,35.091545],[126.955338,35.091554],[126.955336,35.09157],[126.955396,35.091582],[126.955401,35.09157],[126.955444,35.091576],[126.955451,35.091561],[126.95546,35.091561],[126.955474,35.091521],[126.955406,35.091509],[126.955409,35.091497],[126.955372,35.09149],[126.955369,35.091499],[126.955323,35.091491]]]]}},{"type":"Feature","id":"2003195287551767912900000000","properties":{"id":"2003195287551767912900000000","pnu":"1221012400104110000"},"geometry":{"type":"MultiPolygon","coordinates":[[[[126.9491,35.090204],[126.949154,35.090205],[126.949182,35.090136],[126.949169,35.090122],[126.949086,35.090117],[126.9491,35.090204]]]]}},{"type":"Feature","id":"2003195551561768066700000000","properties":{"id":"2003195551561768066700000000","pnu":"1221012400104100010"},"geometry":{"type":"MultiPolygon","coordinates":[[[[126.952026,35.090303],[126.952027,35.090303],[126.952028,35.090303],[126.952029,35.090302],[126.95203,35.090302],[126.952031,35.090301],[126.952031,35.090301],[126.952031,35.0903],[126.952032,35.090299],[126.952032,35.090298],[126.952032,35.090298],[126.952032,35.090297],[126.952031,35.090296],[126.952031,35.090296],[126.95203,35.090295],[126.952029,35.090295],[126.952028,35.090294],[126.952027,35.090294],[126.952026,35.090294],[126.952025,35.090294],[126.952024,35.090294],[126.952024,35.090295],[126.952023,35.090295],[126.952022,35.090296],[126.952022,35.090296],[126.952021,35.090297],[126.952021,35.090298],[126.952021,35.090298],[126.952021,35.090299],[126.952021,35.0903],[126.952022,35.090301],[126.952022,35.090301],[126.952023,35.090302],[126.952024,35.090302],[126.952024,35.090303],[126.952025,35.090303],[126.952026,35.090303]]]]}},{"type":"Feature","id":"2003195562891768099400000000","properties":{"id":"2003195562891768099400000000","pnu":"1221012400104100001"},"geometry":{"type":"MultiPolygon","coordinates":[[[[126.952151,35.090332],[126.952152,35.090332],[126.952153,35.090332],[126.952153,35.090332],[126.952154,35.090331],[126.952155,35.090331],[126.952155,35.09033],[126.952156,35.09033],[126.952156,35.090329],[126.952156,35.090328],[126.952156,35.090327],[126.952156,35.090326],[126.952155,35.090326],[126.952155,35.090325],[126.952154,35.090325],[126.952153,35.090324],[126.952153,35.090324],[126.952152,35.090324],[126.952151,35.090323],[126.95215,35.090324],[126.952149,35.090324],[126.952148,35.090324],[126.952147,35.090325],[126.952146,35.090325],[126.952146,35.090326],[126.952146,35.090326],[126.952145,35.090327],[126.952145,35.090328],[126.952145,35.090329],[126.952145,35.09033],[126.952146,35.09033],[126.952146,35.090331],[126.952147,35.090331],[126.952148,35.090332],[126.952149,35.090332],[126.95215,35.090332],[126.952151,35.090332]]]]}},{"type":"Feature","id":"2003195564771768200300000000","properties":{"id":"2003195564771768200300000000","pnu":"1221012400104100001"},"geometry":{"type":"MultiPolygon","coordinates":[[[[126.952116,35.090371],[126.952108,35.090455],[126.95217,35.090492],[126.952186,35.090477],[126.952189,35.090455],[126.952226,35.090459],[126.952236,35.090366],[126.952172,35.09036],[126.952171,35.090374],[126.952116,35.090371]]]]}},{"type":"Feature","id":"2004195418271767963700000000","properties":{"id":"2004195418271767963700000000","pnu":"1221012400102470002"},"geometry":{"type":"MultiPolygon","coordinates":[[[[126.950667,35.090165],[126.950594,35.090138],[126.950585,35.090153],[126.950528,35.090132],[126.950501,35.090179],[126.95049,35.090175],[126.950458,35.090233],[126.950599,35.090286],[126.950667,35.090165]]]]}},{"type":"Feature","id":"2004195629561768791100000000","properties":{"id":"2004195629561768791100000000","pnu":"1221012400104090000"},"geometry":{"type":"MultiPolygon","coordinates":[[[[126.952922,35.091017],[126.952965,35.090938],[126.952902,35.090915],[126.952906,35.090906],[126.952846,35.090884],[126.952798,35.090971],[126.952922,35.091017]]]]}},{"type":"Feature","id":"2005195586471768371200000000","properties":{"id":"2005195586471768371200000000","pnu":"1221012400104100007"},"geometry":{"type":"MultiPolygon","coordinates":[[[[126.952347,35.090546],[126.952344,35.090589],[126.952467,35.0906],[126.952478,35.090558],[126.952347,35.090546]]]]}},{"type":"Feature","id":"2006195803221769104700000000","properties":{"id":"2006195803221769104700000000","pnu":"1221012400103940000"},"geometry":{"type":"MultiPolygon","coordinates":[[[[126.95473,35.091194],[126.954712,35.091244],[126.954839,35.091276],[126.954861,35.091227],[126.95473,35.091194]]]]}},{"type":"Feature","id":"2007196023601769445400000000","properties":{"id":"2007196023601769445400000000","pnu":"1221012400100140003"},"geometry":{"type":"MultiPolygon","coordinates":[[[[126.957216,35.091629],[126.957294,35.091506],[126.957192,35.091456],[126.957109,35.091581],[126.957216,35.091629]]]]}},{"type":"Feature","id":"2009195472781767811100000000","properties":{"id":"2009195472781767811100000000","pnu":"1221012400102510000"},"geometry":{"type":"MultiPolygon","coordinates":[[[[126.950919,35.090052],[126.950966,35.090059],[126.951068,35.090087],[126.951132,35.090103],[126.951207,35.09012],[126.951265,35.090132],[126.951359,35.090148],[126.951408,35.090154],[126.95144,35.090128],[126.951069,35.08998],[126.951043,35.089997],[126.950982,35.089993],[126.950946,35.090015],[126.950919,35.090052]]]]}},{"type":"Feature","id":"2012195700281768955500000000","properties":{"id":"2012195700281768955500000000","pnu":"1221012400104060001"},"geometry":{"type":"MultiPolygon","coordinates":[[[[126.953593,35.091049],[126.953576,35.091124],[126.953633,35.091138],[126.953716,35.091152],[126.953717,35.091146],[126.95372,35.091147],[126.953737,35.091073],[126.953593,35.091049]]]]}},{"type":"Feature","id":"2012195715901768976000000000","properties":{"id":"2012195715901768976000000000","pnu":"1221012400104060004"},"geometry":{"type":"MultiPolygon","coordinates":[[[[126.953747,35.09115],[126.953808,35.091159],[126.95381,35.091149],[126.953858,35.091156],[126.953862,35.091138],[126.953876,35.09114],[126.953875,35.091148],[126.9539,35.091152],[126.953913,35.091092],[126.95382,35.091078],[126.953817,35.09109],[126.953762,35.091082],[126.953747,35.09115]]]]}},{"type":"Feature","id":"2013195365231765883100000000","properties":{"id":"2013195365231765883100000000","pnu":"1221012400102660000"},"geometry":{"type":"MultiPolygon","coordinates":[[[[126.949864,35.088196],[126.949782,35.0883],[126.949784,35.08831],[126.949809,35.088321],[126.949997,35.088423],[126.950009,35.088413],[126.950089,35.088455],[126.950125,35.088413],[126.950141,35.088419],[126.950193,35.088354],[126.950137,35.088324],[126.950138,35.088311],[126.950085,35.088283],[126.950071,35.088282],[126.950053,35.088298],[126.949864,35.088196]]]]}},{"type":"Feature","id":"2013195973281769639500000000","properties":{"id":"2013195973281769639500000000","pnu":"1221012400103540000"},"geometry":{"type":"MultiPolygon","coordinates":[[[[126.956706,35.091776],[126.956735,35.091706],[126.95669,35.091693],[126.956689,35.091696],[126.956675,35.091692],[126.95668,35.091679],[126.956626,35.091664],[126.956619,35.091679],[126.956579,35.091668],[126.956563,35.091707],[126.956598,35.091717],[126.956586,35.091745],[126.956632,35.091758],[126.956633,35.091755],[126.956706,35.091776]]]]}},{"type":"Feature","id":"2013196008411769818400000000","properties":{"id":"2013196008411769818400000000","pnu":"1221012400100130001"},"geometry":{"type":"MultiPolygon","coordinates":[[[[126.956969,35.091952],[126.956969,35.091952],[126.956969,35.091953],[126.957056,35.091993],[126.957141,35.091868],[126.95715,35.091872],[126.957184,35.091821],[126.957148,35.091805],[126.957155,35.091794],[126.957123,35.091779],[126.957115,35.09179],[126.957079,35.091773],[126.957045,35.091824],[126.957054,35.091828],[126.957027,35.091868],[126.956984,35.091848],[126.956978,35.091858],[126.956965,35.091852],[126.956971,35.091842],[126.956927,35.091822],[126.956914,35.091841],[126.9569,35.091834],[126.956866,35.091885],[126.956979,35.091937],[126.956969,35.091952]]]]}}]}
