{"type":"FeatureCollection","features":[{"type":"Feature","id":"0000195445581831720800000000","properties":{"id":"0000195445581831720800000000","pnu":"1221011100200630001","purpose":"기타"},"geometry":{"type":"MultiPolygon","coordinates":[[[[126.95089,35.147598],[126.950723,35.14764],[126.950768,35.147749],[126.950934,35.147705],[126.95089,35.147598]]]]}},{"type":"Feature","id":"0000195449181822204300000000","properties":{"id":"0000195449181822204300000000","pnu":"1221012100105230001","purpose":"기타"},"geometry":{"type":"MultiPolygon","coordinates":[[[[126.950852,35.139141],[126.950884,35.139144],[126.950895,35.13905],[126.950863,35.139048],[126.950852,35.139141]]]]}},{"type":"Feature","id":"0000195465761831627900000000","properties":{"id":"0000195465761831627900000000","pnu":"1221011100200630001","purpose":"기타"},"geometry":{"type":"MultiPolygon","coordinates":[[[[126.951001,35.147576],[126.951017,35.147627],[126.9511,35.147601],[126.951084,35.147554],[126.951001,35.147576]]]]}},{"type":"Feature","id":"0000195493751828120700000000","properties":{"id":"0000195493751828120700000000","pnu":"1221012100200540000","purpose":"기타"},"geometry":{"type":"MultiPolygon","coordinates":[[[[126.951313,35.144475],[126.951425,35.144454],[126.951406,35.144382],[126.951293,35.144402],[126.951313,35.144475]]]]}},{"type":"Feature","id":"0000195553341821234400000000","properties":{"id":"0000195553341821234400000000","pnu":"1221012100101960000","purpose":"기타"},"geometry":{"type":"MultiPolygon","coordinates":[[[[126.952049,35.138206],[126.951988,35.138203],[126.951985,35.138237],[126.952046,35.138241],[126.952049,35.138206]]]]}},{"type":"Feature","id":"0000195555721821132800000000","properties":{"id":"0000195555721821132800000000","pnu":"1221012100101960000","purpose":"기타"},"geometry":{"type":"MultiPolygon","coordinates":[[[[126.952045,35.138151],[126.952066,35.138138],[126.952042,35.138109],[126.95202,35.138122],[126.952045,35.138151]]]]}},{"type":"Feature","id":"0000195565221821015600000000","properties":{"id":"0000195565221821015600000000","pnu":"1221012100101960000","purpose":"기타"},"geometry":{"type":"MultiPolygon","coordinates":[[[[126.952108,35.138016],[126.952123,35.138051],[126.952187,35.138033],[126.952172,35.137998],[126.952108,35.138016]]]]}},{"type":"Feature","id":"0000195689651828941800000000","properties":{"id":"0000195689651828941800000000","pnu":"1221011100200640000","purpose":"기타"},"geometry":{"type":"MultiPolygon","coordinates":[[[[126.95353,35.145214],[126.95353,35.145125],[126.953487,35.145125],[126.953487,35.145214],[126.95353,35.145214]]]]}},{"type":"Feature","id":"1979195550411820998300000000","properties":{"id":"1979195550411820998300000000","pnu":"1221012100101960000","year":1979,"purpose":"단독주택","floors":2,"structure":"벽돌구조"},"geometry":{"type":"MultiPolygon","coordinates":[[[[126.952017,35.138082],[126.952073,35.138034],[126.951997,35.137982],[126.95201,35.137958],[126.951969,35.13793],[126.9519,35.138],[126.952017,35.138082]]]]}},{"type":"Feature","id":"1979195568701821184400000000","properties":{"id":"1979195568701821184400000000","pnu":"1221012100101960000","year":1979,"purpose":"단독주택","floors":2,"structure":"벽돌구조"},"geometry":{"type":"MultiPolygon","coordinates":[[[[126.952102,35.138211],[126.952163,35.138243],[126.952267,35.138146],[126.952212,35.138108],[126.952102,35.138211]]]]}},{"type":"Feature","id":"1980195716321829437700000000","properties":{"id":"1980195716321829437700000000","pnu":"1221011100200640000","year":1980,"purpose":"제1종 근린생활시설"},"geometry":{"type":"MultiPolygon","coordinates":[[[[126.953726,35.1457],[126.953926,35.145601],[126.953875,35.145534],[126.953679,35.14563],[126.953726,35.1457]]]]}},{"type":"Feature","id":"1990195461571831790600000000","properties":{"id":"1990195461571831790600000000","pnu":"1221011100200630001","year":1990,"purpose":"제1종 근린생활시설","far":0.71,"floors":3,"structure":"철근콘크리트구조"},"geometry":{"type":"MultiPolygon","coordinates":[[[[126.950778,35.147749],[126.95081,35.147831],[126.951236,35.147719],[126.951203,35.147643],[126.950778,35.147749]]]]}}]}
