{"type":"FeatureCollection","features":[{"type":"Feature","id":"0000195543111809525500000000","properties":{"id":"0000195543111809525500000000","pnu":"1221012100107240000","purpose":"기타"},"geometry":{"type":"MultiPolygon","coordinates":[[[[126.951854,35.127717],[126.95199,35.127688],[126.951966,35.127618],[126.951834,35.127648],[126.951854,35.127717]]]]}},{"type":"Feature","id":"0000195559011809844400000000","properties":{"id":"0000195559011809844400000000","pnu":"1221012100107240000","purpose":"기타"},"geometry":{"type":"MultiPolygon","coordinates":[[[[126.952076,35.128005],[126.952139,35.127986],[126.952099,35.127907],[126.952029,35.127926],[126.952076,35.128005]]]]}},{"type":"Feature","id":"0000195709151809521500000000","properties":{"id":"0000195709151809521500000000","pnu":"1221012100107310000","purpose":"기타"},"geometry":{"type":"MultiPolygon","coordinates":[[[[126.953729,35.127648],[126.953712,35.127663],[126.953736,35.127682],[126.953753,35.127666],[126.953729,35.127648]]]]}},{"type":"Feature","id":"0000195741001809704800000000","properties":{"id":"0000195741001809704800000000","pnu":"1221012100107290000","purpose":"기타"},"geometry":{"type":"MultiPolygon","coordinates":[[[[126.954068,35.127844],[126.954089,35.127848],[126.954096,35.127816],[126.954075,35.127813],[126.954068,35.127844]]]]}},{"type":"Feature","id":"0000195879891807410900000000","properties":{"id":"0000195879891807410900000000","pnu":"1221012100108410000","purpose":"기타"},"geometry":{"type":"MultiPolygon","coordinates":[[[[126.95562,35.125775],[126.955619,35.12575],[126.955594,35.125751],[126.955595,35.125776],[126.95562,35.125775]]]]}},{"type":"Feature","id":"0000196043361803388200000000","properties":{"id":"0000196043361803388200000000","pnu":"1221012100107830000","purpose":"기타"},"geometry":{"type":"MultiPolygon","coordinates":[[[[126.957392,35.122203],[126.957466,35.122097],[126.95741,35.122075],[126.95734,35.122178],[126.957392,35.122203]]]]}},{"type":"Feature","id":"0000196055941803429800000000","properties":{"id":"0000196055941803429800000000","pnu":"1221012100107840000","purpose":"기타"},"geometry":{"type":"MultiPolygon","coordinates":[[[[126.957514,35.122203],[126.957558,35.122206],[126.957566,35.122148],[126.957525,35.122144],[126.957514,35.122203]]]]}},{"type":"Feature","id":"0000196064351803636900000000","properties":{"id":"0000196064351803636900000000","pnu":"1221012100107860000","purpose":"기타"},"geometry":{"type":"MultiPolygon","coordinates":[[[[126.957573,35.122398],[126.957635,35.122399],[126.957673,35.122389],[126.957677,35.122315],[126.957625,35.122313],[126.957621,35.122362],[126.957571,35.122362],[126.957573,35.122398]]]]}},{"type":"Feature","id":"1979196049691803575000000000","properties":{"id":"1979196049691803575000000000","pnu":"1221012100107490000","year":1979,"purpose":"기타","floors":1,"structure":"벽돌구조"},"geometry":{"type":"MultiPolygon","coordinates":[[[[126.957394,35.1224],[126.95749,35.122407],[126.957538,35.122333],[126.957546,35.122215],[126.957427,35.12221],[126.957394,35.1224]]]]}},{"type":"Feature","id":"1983195866401806189500000000","properties":{"id":"1983195866401806189500000000","pnu":"1221012100202560000","year":1983,"purpose":"기타","floors":1,"structure":"블록구조"},"geometry":{"type":"MultiPolygon","coordinates":[[[[126.95539,35.124746],[126.955585,35.124647],[126.955522,35.124581],[126.95534,35.124674],[126.95539,35.124746]]]]}},{"type":"Feature","id":"1983195879131806204100000000","properties":{"id":"1983195879131806204100000000","pnu":"1221012100202560000","year":1983,"purpose":"기타","floors":1,"structure":"블록구조"},"geometry":{"type":"MultiPolygon","coordinates":[[[[126.955543,35.124728],[126.955679,35.124647],[126.955653,35.124623],[126.95552,35.124705],[126.955543,35.124728]]]]}},{"type":"Feature","id":"1983195895121806202800000000","properties":{"id":"1983195895121806202800000000","pnu":"1221012100202560000","year":1983,"purpose":"기타","floors":1,"structure":"블록구조"},"geometry":{"type":"MultiPolygon","coordinates":[[[[126.955717,35.124736],[126.955809,35.124747],[126.95582,35.12469],[126.955812,35.124689],[126.955823,35.124604],[126.955751,35.124597],[126.955717,35.124736]]]]}},{"type":"Feature","id":"1983195897811806065100000000","properties":{"id":"1983195897811806065100000000","pnu":"1221012100202560000","year":1983,"purpose":"기타","floors":1,"structure":"블록구조"},"geometry":{"type":"MultiPolygon","coordinates":[[[[126.955766,35.124585],[126.955826,35.124593],[126.955842,35.124514],[126.955785,35.124507],[126.955766,35.124585]]]]}},{"type":"Feature","id":"1983195900441805736100000000","properties":{"id":"1983195900441805736100000000","pnu":"1221012100202560000","year":1983,"purpose":"기타","floors":1,"structure":"블록구조"},"geometry":{"type":"MultiPolygon","coordinates":[[[[126.955851,35.1243],[126.955879,35.124223],[126.955817,35.124208],[126.955787,35.124283],[126.955851,35.1243]]]]}},{"type":"Feature","id":"1983196005521806831900000000","properties":{"id":"1983196005521806831900000000","pnu":"1221012100202010000","year":1983,"purpose":"단독주택","floors":1,"structure":"블록구조"},"geometry":{"type":"MultiPolygon","coordinates":[[[[126.95694,35.125279],[126.957048,35.12525],[126.957033,35.125206],[126.956925,35.125231],[126.95694,35.125279]]]]}},{"type":"Feature","id":"1984196057311803336500000000","properties":{"id":"1984196057311803336500000000","pnu":"1221012100107860000","year":1984,"purpose":"기타","far":3.38,"floors":1,"structure":"블록구조"},"geometry":{"type":"MultiPolygon","coordinates":[[[[126.957521,35.122099],[126.957556,35.122121],[126.957591,35.122084],[126.957555,35.122062],[126.957521,35.122099]]]]}},{"type":"Feature","id":"1984196078891803446800000000","properties":{"id":"1984196078891803446800000000","pnu":"1221012100107880000","purpose":"단독주택","far":30.15,"floors":1,"structure":"기타구조"},"geometry":{"type":"MultiPolygon","coordinates":[[[[126.957726,35.122232],[126.957847,35.122223],[126.957845,35.122142],[126.957776,35.122144],[126.957775,35.122178],[126.957724,35.122183],[126.957726,35.122232]]]]}},{"type":"Feature","id":"1988195551101809752000000000","properties":{"id":"1988195551101809752000000000","pnu":"1221012100107240000","purpose":"단독주택","far":15.28,"floors":1,"structure":"블록구조"},"geometry":{"type":"MultiPolygon","coordinates":[[[[126.951949,35.12793],[126.952079,35.12789],[126.952048,35.127816],[126.95192,35.127851],[126.951949,35.12793]]]]}},{"type":"Feature","id":"1989196181631806874700000000","properties":{"id":"1989196181631806874700000000","pnu":"1221012100107450001","year":1989,"purpose":"기타","far":29.6,"floors":1,"structure":"블록구조"},"geometry":{"type":"MultiPolygon","coordinates":[[[[126.958883,35.125338],[126.958947,35.12534],[126.958954,35.125225],[126.958888,35.125223],[126.958883,35.125338]]]]}},{"type":"Feature","id":"1993196093571803162400000000","properties":{"id":"1993196093571803162400000000","pnu":"1221012100107950000","year":1993,"purpose":"제2종 근린생활시설","far":37,"floors":1,"structure":"일반목구조"},"geometry":{"type":"MultiPolygon","coordinates":[[[[126.957914,35.121939],[126.95794,35.121964],[126.957991,35.121932],[126.957968,35.121905],[126.957914,35.121939]]]]}},{"type":"Feature","id":"1993196098541803261900000000","properties":{"id":"1993196098541803261900000000","pnu":"1221012100107950000","year":1993,"purpose":"제2종 근린생활시설","far":37,"floors":1,"structure":"일반목구조"},"geometry":{"type":"MultiPolygon","coordinates":[[[[126.957975,35.122067],[126.958041,35.122066],[126.95804,35.121982],[126.957974,35.121983],[126.957975,35.122067]]]]}},{"type":"Feature","id":"1993196115581803433200000000","properties":{"id":"1993196115581803433200000000","pnu":"1221012100107950000","year":1993,"purpose":"제2종 근린생활시설","far":37,"floors":1,"structure":"일반목구조"},"geometry":{"type":"MultiPolygon","coordinates":[[[[126.958159,35.12222],[126.958224,35.122223],[126.958231,35.122137],[126.958165,35.122136],[126.958159,35.12222]]]]}},{"type":"Feature","id":"2004196010511804515200000000","properties":{"id":"2004196010511804515200000000","pnu":"1221012100107500000","year":2004,"purpose":"단독주택","far":14.27,"floors":2,"structure":"철근콘크리트구조"},"geometry":{"type":"MultiPolygon","coordinates":[[[[126.957054,35.12322],[126.957082,35.123096],[126.957029,35.123087],[126.957,35.123211],[126.957054,35.12322]]]]}},{"type":"Feature","id":"2005196086401803653900000000","properties":{"id":"2005196086401803653900000000","pnu":"1221012100107890000","year":2005,"purpose":"단독주택","far":25.390654,"floors":1,"structure":"벽돌구조"},"geometry":{"type":"MultiPolygon","coordinates":[[[[126.957777,35.122393],[126.957937,35.122441],[126.957971,35.122362],[126.957813,35.122315],[126.957777,35.122393]]]]}}]}
