{"type":"FeatureCollection","features":[{"type":"Feature","id":"0000195869891793520100000000","properties":{"id":"0000195869891793520100000000","pnu":"1221011900100370003","purpose":"기타"},"geometry":{"type":"MultiPolygon","coordinates":[[[[126.955496,35.113301],[126.955566,35.113272],[126.955516,35.113184],[126.955441,35.113216],[126.955496,35.113301]]]]}},{"type":"Feature","id":"0000195899061793532000000000","properties":{"id":"0000195899061793532000000000","pnu":"1221011900201210000","purpose":"기타"},"geometry":{"type":"MultiPolygon","coordinates":[[[[126.95583,35.113221],[126.955791,35.113236],[126.955819,35.113286],[126.955858,35.113271],[126.95583,35.113221]]]]}},{"type":"Feature","id":"0000195902641793410100000000","properties":{"id":"0000195902641793410100000000","pnu":"1221011900201210000","purpose":"기타"},"geometry":{"type":"MultiPolygon","coordinates":[[[[126.955837,35.113179],[126.955912,35.11316],[126.955891,35.113106],[126.955813,35.113131],[126.955837,35.113179]]]]}},{"type":"Feature","id":"0000195919901793433900000000","properties":{"id":"0000195919901793433900000000","pnu":"1221011900201210000","purpose":"기타"},"geometry":{"type":"MultiPolygon","coordinates":[[[[126.955991,35.113212],[126.956129,35.11318],[126.956115,35.113119],[126.955979,35.113148],[126.955991,35.113212]]]]}},{"type":"Feature","id":"1979195350831796197200000000","properties":{"id":"1979195350831796197200000000","pnu":"1221011900201000000","purpose":"단독주택","floors":1,"structure":"블록구조"},"geometry":{"type":"MultiPolygon","coordinates":[[[[126.949802,35.115728],[126.949893,35.115626],[126.949821,35.115578],[126.949724,35.115679],[126.949802,35.115728]]]]}}]}
