{"type":"FeatureCollection","features":[{"type":"Feature","id":"0000196539131777904800000000","properties":{"id":"0000196539131777904800000000","pnu":"1221012000202660001","purpose":"기타"},"geometry":{"type":"MultiPolygon","coordinates":[[[[126.962844,35.099154],[126.962833,35.099178],[126.96286,35.099187],[126.962872,35.099162],[126.962844,35.099154]]]]}},{"type":"Feature","id":"0000196572051777921800000000","properties":{"id":"0000196572051777921800000000","pnu":"1221012000104600000","purpose":"기타"},"geometry":{"type":"MultiPolygon","coordinates":[[[[126.963257,35.099227],[126.963224,35.099134],[126.963172,35.099144],[126.963199,35.099236],[126.963257,35.099227]]]]}},{"type":"Feature","id":"0000196620251779717100000000","properties":{"id":"0000196620251779717100000000","pnu":"1221012000104610000","purpose":"기타"},"geometry":{"type":"MultiPolygon","coordinates":[[[[126.963732,35.10083],[126.963772,35.100797],[126.963752,35.100779],[126.96371,35.100808],[126.963732,35.10083]]]]}},{"type":"Feature","id":"0000196626571779778100000000","properties":{"id":"0000196626571779778100000000","pnu":"1221012000104610000","purpose":"기타"},"geometry":{"type":"MultiPolygon","coordinates":[[[[126.96374,35.100846],[126.963831,35.100918],[126.963873,35.100882],[126.963863,35.100873],[126.963871,35.100866],[126.963837,35.100839],[126.963842,35.100833],[126.963796,35.100802],[126.96374,35.100846]]]]}},{"type":"Feature","id":"0000196628911776658300000000","properties":{"id":"0000196628911776658300000000","pnu":"1221012000104490002","purpose":"기타"},"geometry":{"type":"MultiPolygon","coordinates":[[[[126.963814,35.098075],[126.963859,35.098077],[126.963861,35.098018],[126.963816,35.098017],[126.963814,35.098075]]]]}},{"type":"Feature","id":"0000196655431777728900000000","properties":{"id":"0000196655431777728900000000","pnu":"1221012000104550001","purpose":"기타"},"geometry":{"type":"MultiPolygon","coordinates":[[[[126.964111,35.099033],[126.964146,35.099032],[126.964145,35.098991],[126.964109,35.098992],[126.964111,35.099033]]]]}},{"type":"Feature","id":"0000196672071778722800000000","properties":{"id":"0000196672071778722800000000","pnu":"1221012000104720000","purpose":"기타"},"geometry":{"type":"MultiPolygon","coordinates":[[[[126.964346,35.099892],[126.964269,35.099905],[126.964274,35.099924],[126.96435,35.09991],[126.964346,35.099892]]]]}},{"type":"Feature","id":"1969196569941778093000000000","properties":{"id":"1969196569941778093000000000","pnu":"1221012000104600000","purpose":"기타"},"geometry":{"type":"MultiPolygon","coordinates":[[[[126.963195,35.099279],[126.963154,35.099287],[126.963181,35.099398],[126.963228,35.09939],[126.963195,35.099279]]]]}},{"type":"Feature","id":"1969196576261778070300000000","properties":{"id":"1969196576261778070300000000","pnu":"1221012000104600000","year":1969,"purpose":"단독주택"},"geometry":{"type":"MultiPolygon","coordinates":[[[[126.963235,35.099374],[126.963321,35.099357],[126.963315,35.099318],[126.96329,35.099318],[126.963273,35.099261],[126.963204,35.099273],[126.963235,35.099374]]]]}},{"type":"Feature","id":"1995196660761777827400000000","properties":{"id":"1995196660761777827400000000","pnu":"1221012000104550001","year":1995,"purpose":"제2종 근린생활시설","far":53.6,"floors":2,"structure":"벽돌구조"},"geometry":{"type":"MultiPolygon","coordinates":[[[[126.964106,35.099206],[126.964227,35.099216],[126.964258,35.099059],[126.964244,35.099059],[126.964241,35.099],[126.964236,35.099],[126.964236,35.09897],[126.964159,35.098974],[126.964152,35.09904],[126.964138,35.099039],[126.964106,35.099206]]]]}},{"type":"Feature","id":"1998196610451779035100000000","properties":{"id":"1998196610451779035100000000","pnu":"1221012000104610000","year":1998,"purpose":"제1종 근린생활시설","floors":1,"structure":"철근콘크리트구조"},"geometry":{"type":"MultiPolygon","coordinates":[[[[126.963589,35.100001],[126.963513,35.100017],[126.963618,35.100388],[126.963756,35.100361],[126.963652,35.100001],[126.963648,35.099988],[126.963589,35.100001]]]]}},{"type":"Feature","id":"2008196591061777001300000000","properties":{"id":"2008196591061777001300000000","pnu":"1221012000104480005","year":2008,"purpose":"기타","far":96.59,"floors":3,"structure":"철근콘크리트구조"},"geometry":{"type":"MultiPolygon","coordinates":[[[[126.963307,35.098177],[126.963343,35.098318],[126.963308,35.098324],[126.963324,35.098387],[126.96336,35.098381],[126.96339,35.098501],[126.963385,35.098502],[126.963399,35.098559],[126.963427,35.098554],[126.963425,35.098548],[126.963498,35.098536],[126.96349,35.098503],[126.963535,35.098495],[126.963516,35.098416],[126.963534,35.098413],[126.963504,35.098296],[126.963482,35.0983],[126.963453,35.098183],[126.963402,35.098192],[126.963396,35.098168],[126.963371,35.098172],[126.963369,35.098166],[126.963307,35.098177]]]]}}]}
