{"type":"FeatureCollection","features":[{"type":"Feature","id":"0000196989241809707000000000","properties":{"id":"0000196989241809707000000000","pnu":"1221012100201510000","purpose":"기타"},"geometry":{"type":"MultiPolygon","coordinates":[[[[126.967801,35.127873],[126.967827,35.127811],[126.967742,35.127802],[126.967737,35.127868],[126.967801,35.127873]]]]}},{"type":"Feature","id":"0000196991691809596200000000","properties":{"id":"0000196991691809596200000000","pnu":"1221012100201510000","purpose":"기타"},"geometry":{"type":"MultiPolygon","coordinates":[[[[126.967836,35.127807],[126.967861,35.127674],[126.967771,35.127668],[126.967747,35.127799],[126.967836,35.127807]]]]}},{"type":"Feature","id":"0000196994471809450000000000","properties":{"id":"0000196994471809450000000000","pnu":"1221012100201510000","purpose":"기타"},"geometry":{"type":"MultiPolygon","coordinates":[[[[126.967862,35.127663],[126.967886,35.127555],[126.967813,35.127542],[126.967779,35.127657],[126.967862,35.127663]]]]}},{"type":"Feature","id":"0000197040811808814500000000","properties":{"id":"0000197040811808814500000000","pnu":"1221012100201510001","purpose":"기타"},"geometry":{"type":"MultiPolygon","coordinates":[[[[126.968346,35.127078],[126.968387,35.127003],[126.968342,35.126987],[126.968299,35.127061],[126.968346,35.127078]]]]}},{"type":"Feature","id":"0000197083481808309400000000","properties":{"id":"0000197083481808309400000000","pnu":"1221012100201510001","purpose":"기타"},"geometry":{"type":"MultiPolygon","coordinates":[[[[126.968765,35.126607],[126.968824,35.12662],[126.968857,35.12655],[126.968802,35.126533],[126.968765,35.126607]]]]}}]}
