{"type":"FeatureCollection","features":[{"type":"Feature","id":"0000196278971814891000000000","properties":{"id":"0000196278971814891000000000","pnu":"1221012100101200002","purpose":"기타"},"geometry":{"type":"MultiPolygon","coordinates":[[[[126.959992,35.132566],[126.960074,35.132535],[126.95999,35.132442],[126.959882,35.132497],[126.959992,35.132566]]]]}},{"type":"Feature","id":"0000196279571815382200000000","properties":{"id":"0000196279571815382200000000","pnu":"1221012100101070002","purpose":"기타"},"geometry":{"type":"MultiPolygon","coordinates":[[[[126.960017,35.132989],[126.960023,35.132914],[126.959963,35.132909],[126.959951,35.132984],[126.960017,35.132989]]]]}},{"type":"Feature","id":"0000196284291815848800000000","properties":{"id":"0000196284291815848800000000","pnu":"1221012100101040001","purpose":"기타"},"geometry":{"type":"MultiPolygon","coordinates":[[[[126.960027,35.133461],[126.960109,35.133452],[126.960092,35.133358],[126.960054,35.13336],[126.960022,35.133253],[126.959975,35.133265],[126.960027,35.133461]]]]}},{"type":"Feature","id":"0000196323951815979800000000","properties":{"id":"0000196323951815979800000000","pnu":"1221012100200940000","purpose":"기타"},"geometry":{"type":"MultiPolygon","coordinates":[[[[126.960509,35.133509],[126.96051,35.13347],[126.960441,35.133469],[126.960439,35.133505],[126.960509,35.133509]]]]}},{"type":"Feature","id":"0000196325541815533400000000","properties":{"id":"0000196325541815533400000000","pnu":"1221012100101020004","purpose":"기타"},"geometry":{"type":"MultiPolygon","coordinates":[[[[126.960476,35.133134],[126.960523,35.133123],[126.96051,35.133087],[126.960535,35.133081],[126.960522,35.133044],[126.96045,35.133062],[126.960476,35.133134]]]]}},{"type":"Feature","id":"0000196334581815996100000000","properties":{"id":"0000196334581815996100000000","pnu":"1221012100200940000","purpose":"기타"},"geometry":{"type":"MultiPolygon","coordinates":[[[[126.960648,35.133533],[126.960651,35.133476],[126.960537,35.133474],[126.96053,35.133529],[126.960648,35.133533]]]]}},{"type":"Feature","id":"0000196337871815896600000000","properties":{"id":"0000196337871815896600000000","pnu":"1221012100100970003","purpose":"기타"},"geometry":{"type":"MultiPolygon","coordinates":[[[[126.960573,35.133459],[126.960705,35.133399],[126.960676,35.133369],[126.960555,35.133426],[126.960573,35.133459]]]]}},{"type":"Feature","id":"0000196340331815790900000000","properties":{"id":"0000196340331815790900000000","pnu":"1221012100100980001","purpose":"기타"},"geometry":{"type":"MultiPolygon","coordinates":[[[[126.960717,35.1333],[126.960617,35.13328],[126.960593,35.133338],[126.960694,35.133356],[126.960717,35.1333]]]]}},{"type":"Feature","id":"0000196345791815936200000000","properties":{"id":"0000196345791815936200000000","pnu":"1221012100100970003","purpose":"기타"},"geometry":{"type":"MultiPolygon","coordinates":[[[[126.960651,35.133452],[126.960701,35.133498],[126.960778,35.133449],[126.960728,35.1334],[126.960651,35.133452]]]]}},{"type":"Feature","id":"0000196348081815689400000000","properties":{"id":"0000196348081815689400000000","pnu":"1221012100100980001","purpose":"기타"},"geometry":{"type":"MultiPolygon","coordinates":[[[[126.960787,35.133269],[126.960807,35.133204],[126.960694,35.133185],[126.960672,35.13325],[126.960787,35.133269]]]]}},{"type":"Feature","id":"0000196356381815604400000000","properties":{"id":"0000196356381815604400000000","pnu":"1221012100100980001","purpose":"기타"},"geometry":{"type":"MultiPolygon","coordinates":[[[[126.96086,35.133186],[126.960878,35.133133],[126.960801,35.133116],[126.960784,35.133166],[126.96086,35.133186]]]]}},{"type":"Feature","id":"0000196362811815255800000000","properties":{"id":"0000196362811815255800000000","pnu":"1221012100100980003","purpose":"기타"},"geometry":{"type":"MultiPolygon","coordinates":[[[[126.960903,35.132889],[126.960954,35.132865],[126.960901,35.132784],[126.960849,35.132807],[126.960903,35.132889]]]]}},{"type":"Feature","id":"0000196371191815843400000000","properties":{"id":"0000196371191815843400000000","pnu":"1221012100200950001","purpose":"기타"},"geometry":{"type":"MultiPolygon","coordinates":[[[[126.960979,35.133386],[126.961022,35.133364],[126.961008,35.133345],[126.960965,35.133368],[126.960979,35.133386]]]]}},{"type":"Feature","id":"0000196371931815743100000000","properties":{"id":"0000196371931815743100000000","pnu":"1221012100100970001","purpose":"단독주택","floors":1,"structure":"일반목구조"},"geometry":{"type":"MultiPolygon","coordinates":[[[[126.961002,35.133345],[126.961094,35.133288],[126.96105,35.133239],[126.961021,35.133257],[126.960976,35.133208],[126.960912,35.133247],[126.961002,35.133345]]]]}},{"type":"Feature","id":"0000196373731815868000000000","properties":{"id":"0000196373731815868000000000","pnu":"1221012100200950001","purpose":"기타"},"geometry":{"type":"MultiPolygon","coordinates":[[[[126.960979,35.133396],[126.961001,35.133422],[126.961023,35.133409],[126.961018,35.133404],[126.961066,35.133375],[126.961048,35.133355],[126.960979,35.133396]]]]}},{"type":"Feature","id":"0000196394301815565500000000","properties":{"id":"0000196394301815565500000000","pnu":"1221012100100950000","purpose":"기타","floors":1,"structure":"블록구조"},"geometry":{"type":"MultiPolygon","coordinates":[[[[126.961381,35.133108],[126.961293,35.133013],[126.961112,35.133121],[126.961204,35.133219],[126.961381,35.133108]]]]}},{"type":"Feature","id":"0000196407281815422100000000","properties":{"id":"0000196407281815422100000000","pnu":"1221012100100950000","purpose":"기타","floors":1,"structure":"블록구조"},"geometry":{"type":"MultiPolygon","coordinates":[[[[126.961356,35.133041],[126.961463,35.132969],[126.961427,35.132934],[126.961318,35.132997],[126.961356,35.133041]]]]}},{"type":"Feature","id":"0000196408391815178200000000","properties":{"id":"0000196408391815178200000000","pnu":"1221012100100950000","purpose":"기타"},"geometry":{"type":"MultiPolygon","coordinates":[[[[126.961385,35.132814],[126.961459,35.132769],[126.96142,35.132721],[126.961346,35.132759],[126.961385,35.132814]]]]}},{"type":"Feature","id":"0000196418881815486200000000","properties":{"id":"0000196418881815486200000000","pnu":"1221012100200950002","purpose":"기타"},"geometry":{"type":"MultiPolygon","coordinates":[[[[126.961548,35.133068],[126.961559,35.133046],[126.961489,35.133019],[126.961476,35.133044],[126.961548,35.133068]]]]}},{"type":"Feature","id":"0000196424301815198800000000","properties":{"id":"0000196424301815198800000000","pnu":"1221012100100950000","purpose":"기타","floors":1,"structure":"블록구조"},"geometry":{"type":"MultiPolygon","coordinates":[[[[126.96154,35.132818],[126.961574,35.132831],[126.961603,35.132822],[126.961631,35.132793],[126.961618,35.132754],[126.961585,35.13274],[126.961543,35.132751],[126.961521,35.132785],[126.96154,35.132818]]]]}},{"type":"Feature","id":"0000196430121815084200000000","properties":{"id":"0000196430121815084200000000","pnu":"1221012100100950000","purpose":"기타","floors":1,"structure":"블록구조"},"geometry":{"type":"MultiPolygon","coordinates":[[[[126.961637,35.132747],[126.961699,35.132636],[126.961639,35.132618],[126.961583,35.132728],[126.961637,35.132747]]]]}},{"type":"Feature","id":"0000196430251815448100000000","properties":{"id":"0000196430251815448100000000","pnu":"1221012100200950002","purpose":"기타"},"geometry":{"type":"MultiPolygon","coordinates":[[[[126.961721,35.133023],[126.961703,35.132964],[126.961561,35.132996],[126.961582,35.133057],[126.961721,35.133023]]]]}},{"type":"Feature","id":"0000196436751815133400000000","properties":{"id":"0000196436751815133400000000","pnu":"1221012100100950000","purpose":"기타","floors":1,"structure":"블록구조"},"geometry":{"type":"MultiPolygon","coordinates":[[[[126.961747,35.132761],[126.961769,35.132726],[126.961677,35.132692],[126.961657,35.132725],[126.961747,35.132761]]]]}},{"type":"Feature","id":"0000196442311815215000000000","properties":{"id":"0000196442311815215000000000","pnu":"1221012100200980000","purpose":"기타"},"geometry":{"type":"MultiPolygon","coordinates":[[[[126.961777,35.132833],[126.961816,35.132803],[126.961769,35.132767],[126.961733,35.132795],[126.961777,35.132833]]]]}},{"type":"Feature","id":"0000196442941814861100000000","properties":{"id":"0000196442941814861100000000","pnu":"1221012100100900002","purpose":"기타"},"geometry":{"type":"MultiPolygon","coordinates":[[[[126.961767,35.132518],[126.961828,35.132477],[126.961795,35.132445],[126.961735,35.132482],[126.961767,35.132518]]]]}},{"type":"Feature","id":"0000196449941815375700000000","properties":{"id":"0000196449941815375700000000","pnu":"1221012100100950000","purpose":"기타","floors":1,"structure":"블록구조"},"geometry":{"type":"MultiPolygon","coordinates":[[[[126.961771,35.132995],[126.961878,35.13303],[126.961946,35.132895],[126.961835,35.132859],[126.961771,35.132995]]]]}},{"type":"Feature","id":"0000196473421814207000000000","properties":{"id":"0000196473421814207000000000","pnu":"1221012100108380064","purpose":"기타"},"geometry":{"type":"MultiPolygon","coordinates":[[[[126.962175,35.13185],[126.962117,35.13187],[126.962075,35.131852],[126.962029,35.131899],[126.962104,35.131937],[126.962203,35.131891],[126.962175,35.13185]]]]}},{"type":"Feature","id":"0000196485521814117900000000","properties":{"id":"0000196485521814117900000000","pnu":"1221012100108380064","purpose":"기타"},"geometry":{"type":"MultiPolygon","coordinates":[[[[126.962243,35.131773],[126.962207,35.131792],[126.962255,35.131849],[126.96229,35.131829],[126.962243,35.131773]]]]}},{"type":"Feature","id":"0000196497761814427500000000","properties":{"id":"0000196497761814427500000000","pnu":"1221012100100880001","purpose":"단독주택"},"geometry":{"type":"MultiPolygon","coordinates":[[[[126.962254,35.132142],[126.962287,35.132179],[126.962513,35.132033],[126.962487,35.131999],[126.962254,35.132142]]]]}},{"type":"Feature","id":"0000196501841813978400000000","properties":{"id":"0000196501841813978400000000","pnu":"1221012100108380064","purpose":"기타"},"geometry":{"type":"MultiPolygon","coordinates":[[[[126.962365,35.131677],[126.962432,35.131738],[126.962491,35.131694],[126.962424,35.131633],[126.962365,35.131677]]]]}},{"type":"Feature","id":"0000196505581813897400000000","properties":{"id":"0000196505581813897400000000","pnu":"1221012100100870002","purpose":"기타"},"geometry":{"type":"MultiPolygon","coordinates":[[[[126.962496,35.131689],[126.962562,35.131624],[126.962562,35.131596],[126.962454,35.13155],[126.962355,35.131602],[126.962388,35.131647],[126.962429,35.131623],[126.962496,35.131689]]]]}},{"type":"Feature","id":"0000196546721813780900000000","properties":{"id":"0000196546721813780900000000","pnu":"1221012100108380025","purpose":"기타"},"geometry":{"type":"MultiPolygon","coordinates":[[[[126.962902,35.131556],[126.962938,35.131532],[126.962932,35.131525],[126.962978,35.131493],[126.962947,35.13146],[126.962863,35.131514],[126.962902,35.131556]]]]}},{"type":"Feature","id":"0000196551281814207000000000","properties":{"id":"0000196551281814207000000000","pnu":"1221012100100740006","purpose":"기타"},"geometry":{"type":"MultiPolygon","coordinates":[[[[126.962933,35.131886],[126.96294,35.13191],[126.963007,35.131897],[126.963,35.131872],[126.962933,35.131886]]]]}},{"type":"Feature","id":"0000196560241814028000000000","properties":{"id":"0000196560241814028000000000","pnu":"1221012100100740006","purpose":"기타"},"geometry":{"type":"MultiPolygon","coordinates":[[[[126.963116,35.131737],[126.963097,35.1317],[126.963018,35.131727],[126.96304,35.131759],[126.963116,35.131737]]]]}},{"type":"Feature","id":"0000196562311814246000000000","properties":{"id":"0000196562311814246000000000","pnu":"1221012100100740006","purpose":"기타"},"geometry":{"type":"MultiPolygon","coordinates":[[[[126.963005,35.131902],[126.963028,35.131929],[126.963105,35.131908],[126.963111,35.131922],[126.963005,35.13195],[126.963028,35.131994],[126.963184,35.131946],[126.963132,35.131857],[126.963005,35.131902]]]]}},{"type":"Feature","id":"0000196569541813989800000000","properties":{"id":"0000196569541813989800000000","pnu":"1221012100100740007","purpose":"기타"},"geometry":{"type":"MultiPolygon","coordinates":[[[[126.963114,35.131676],[126.96314,35.131747],[126.96323,35.131725],[126.963191,35.131636],[126.963114,35.131676]]]]}},{"type":"Feature","id":"0000196569881813723000000000","properties":{"id":"0000196569881813723000000000","pnu":"1221012100108380025","purpose":"기타"},"geometry":{"type":"MultiPolygon","coordinates":[[[[126.963141,35.131486],[126.963224,35.131459],[126.963204,35.131423],[126.963125,35.131454],[126.963141,35.131486]]]]}},{"type":"Feature","id":"0000196577291813664800000000","properties":{"id":"0000196577291813664800000000","pnu":"1221012100108380025","purpose":"기타"},"geometry":{"type":"MultiPolygon","coordinates":[[[[126.963222,35.131443],[126.963309,35.13142],[126.963304,35.131371],[126.963199,35.131378],[126.963222,35.131443]]]]}},{"type":"Feature","id":"0000196580091813857200000000","properties":{"id":"0000196580091813857200000000","pnu":"1221012100108430000","purpose":"기타"},"geometry":{"type":"MultiPolygon","coordinates":[[[[126.963339,35.13157],[126.963327,35.131546],[126.96323,35.131585],[126.963249,35.131605],[126.963339,35.13157]]]]}},{"type":"Feature","id":"0000196580841813927500000000","properties":{"id":"0000196580841813927500000000","pnu":"1221012100100740015","purpose":"기타"},"geometry":{"type":"MultiPolygon","coordinates":[[[[126.96326,35.131635],[126.963278,35.131662],[126.963327,35.131646],[126.963315,35.131617],[126.96326,35.131635]]]]}},{"type":"Feature","id":"0000196583821814001200000000","properties":{"id":"0000196583821814001200000000","pnu":"1221012100100740015","purpose":"기타"},"geometry":{"type":"MultiPolygon","coordinates":[[[[126.963381,35.131668],[126.963256,35.131693],[126.963278,35.131747],[126.9634,35.131714],[126.963381,35.131668]]]]}},{"type":"Feature","id":"0000196585521813652300000000","properties":{"id":"0000196585521813652300000000","pnu":"1221012100108380064","purpose":"기타"},"geometry":{"type":"MultiPolygon","coordinates":[[[[126.963312,35.131378],[126.963319,35.131416],[126.96338,35.131402],[126.963378,35.13137],[126.963312,35.131378]]]]}},{"type":"Feature","id":"0000196586771813903800000000","properties":{"id":"0000196586771813903800000000","pnu":"1221012100100740015","purpose":"기타"},"geometry":{"type":"MultiPolygon","coordinates":[[[[126.963329,35.131605],[126.963359,35.131644],[126.963389,35.131633],[126.963362,35.131592],[126.963329,35.131605]]]]}},{"type":"Feature","id":"0000196589481814093800000000","properties":{"id":"0000196589481814093800000000","pnu":"1221012100100740015","purpose":"기타"},"geometry":{"type":"MultiPolygon","coordinates":[[[[126.963364,35.131816],[126.963428,35.131799],[126.963414,35.131764],[126.96335,35.13178],[126.963364,35.131816]]]]}},{"type":"Feature","id":"0000196589881813800400000000","properties":{"id":"0000196589881813800400000000","pnu":"1221012100108430000","purpose":"기타"},"geometry":{"type":"MultiPolygon","coordinates":[[[[126.963437,35.131539],[126.963436,35.131507],[126.963351,35.131513],[126.963348,35.131542],[126.963437,35.131539]]]]}},{"type":"Feature","id":"0000196595311813932000000000","properties":{"id":"0000196595311813932000000000","pnu":"1221012100100740015","purpose":"기타"},"geometry":{"type":"MultiPolygon","coordinates":[[[[126.963445,35.131595],[126.963393,35.131643],[126.963461,35.131693],[126.963513,35.131644],[126.963445,35.131595]]]]}},{"type":"Feature","id":"0000196598341813811900000000","properties":{"id":"0000196598341813811900000000","pnu":"1221012100100740015","purpose":"기타"},"geometry":{"type":"MultiPolygon","coordinates":[[[[126.963531,35.131509],[126.963438,35.131518],[126.963441,35.131561],[126.963535,35.131554],[126.963531,35.131509]]]]}},{"type":"Feature","id":"0000196606811813798900000000","properties":{"id":"0000196606811813798900000000","pnu":"1221012100100740015","purpose":"기타"},"geometry":{"type":"MultiPolygon","coordinates":[[[[126.963549,35.131502],[126.963551,35.131545],[126.963605,35.131547],[126.963613,35.131505],[126.963549,35.131502]]]]}},{"type":"Feature","id":"0000196612621813979800000000","properties":{"id":"0000196612621813979800000000","pnu":"1221012100100740015","purpose":"기타"},"geometry":{"type":"MultiPolygon","coordinates":[[[[126.963575,35.131695],[126.963629,35.131735],[126.963706,35.131681],[126.963666,35.131637],[126.963575,35.131695]]]]}},{"type":"Feature","id":"0000196616351813801400000000","properties":{"id":"0000196616351813801400000000","pnu":"1221012100100740015","purpose":"기타"},"geometry":{"type":"MultiPolygon","coordinates":[[[[126.96363,35.131498],[126.963624,35.131533],[126.96374,35.131552],[126.963749,35.131523],[126.96363,35.131498]]]]}},{"type":"Feature","id":"0000196630651813843100000000","properties":{"id":"0000196630651813843100000000","pnu":"1221012100201030010","purpose":"기타"},"geometry":{"type":"MultiPolygon","coordinates":[[[[126.963796,35.131536],[126.963784,35.13158],[126.963889,35.131591],[126.963897,35.131548],[126.963796,35.131536]]]]}},{"type":"Feature","id":"0000196632741813897400000000","properties":{"id":"0000196632741813897400000000","pnu":"1221012100201030010","purpose":"기타"},"geometry":{"type":"MultiPolygon","coordinates":[[[[126.963824,35.131594],[126.963819,35.131623],[126.963904,35.131632],[126.963909,35.131603],[126.963824,35.131594]]]]}},{"type":"Feature","id":"0000196637651813830100000000","properties":{"id":"0000196637651813830100000000","pnu":"1221012100201030010","purpose":"기타"},"geometry":{"type":"MultiPolygon","coordinates":[[[[126.963936,35.131575],[126.963939,35.13153],[126.9639,35.131529],[126.963897,35.131574],[126.963936,35.131575]]]]}},{"type":"Feature","id":"0000196642471813831000000000","properties":{"id":"0000196642471813831000000000","pnu":"1221012100201030010","purpose":"기타"},"geometry":{"type":"MultiPolygon","coordinates":[[[[126.963948,35.131537],[126.963946,35.131566],[126.963994,35.131568],[126.963995,35.131539],[126.963948,35.131537]]]]}},{"type":"Feature","id":"0000196660361813961700000000","properties":{"id":"0000196660361813961700000000","pnu":"1221012100201030010","purpose":"기타"},"geometry":{"type":"MultiPolygon","coordinates":[[[[126.96411,35.131664],[126.964191,35.131714],[126.964224,35.131677],[126.964143,35.131628],[126.96411,35.131664]]]]}},{"type":"Feature","id":"0000196665151813899400000000","properties":{"id":"0000196665151813899400000000","pnu":"1221012100100760001","purpose":"기타"},"geometry":{"type":"MultiPolygon","coordinates":[[[[126.96416,35.13158],[126.964158,35.131601],[126.964257,35.131661],[126.96427,35.131604],[126.96416,35.13158]]]]}},{"type":"Feature","id":"0000196669331813289400000000","properties":{"id":"0000196669331813289400000000","pnu":"1221012100201570014","purpose":"기타"},"geometry":{"type":"MultiPolygon","coordinates":[[[[126.964244,35.13109],[126.964303,35.131067],[126.964287,35.131039],[126.964228,35.131062],[126.964244,35.13109]]]]}},{"type":"Feature","id":"0000196675851813457000000000","properties":{"id":"0000196675851813457000000000","pnu":"1221012100108380064","purpose":"기타"},"geometry":{"type":"MultiPolygon","coordinates":[[[[126.964325,35.131186],[126.9643,35.13121],[126.964349,35.131246],[126.964375,35.131222],[126.964325,35.131186]]]]}},{"type":"Feature","id":"0000196683791813402100000000","properties":{"id":"0000196683791813402100000000","pnu":"1221012100100840001","purpose":"기타"},"geometry":{"type":"MultiPolygon","coordinates":[[[[126.964405,35.131235],[126.964439,35.131208],[126.964431,35.131201],[126.964504,35.13113],[126.964456,35.131099],[126.964345,35.131189],[126.964405,35.131235]]]]}},{"type":"Feature","id":"0000196736871810374000000000","properties":{"id":"0000196736871810374000000000","pnu":"1221012100201560000","purpose":"기타"},"geometry":{"type":"MultiPolygon","coordinates":[[[[126.964978,35.128427],[126.964981,35.128451],[126.965037,35.128448],[126.965035,35.128423],[126.964978,35.128427]]]]}},{"type":"Feature","id":"0000196737401810173200000000","properties":{"id":"0000196737401810173200000000","pnu":"1221012100201560000","purpose":"기타"},"geometry":{"type":"MultiPolygon","coordinates":[[[[126.964986,35.128277],[126.965038,35.12828],[126.965041,35.128235],[126.964989,35.128233],[126.964986,35.128277]]]]}},{"type":"Feature","id":"0000196740821812560900000000","properties":{"id":"0000196740821812560900000000","pnu":"1221012100201570012","purpose":"기타"},"geometry":{"type":"MultiPolygon","coordinates":[[[[126.96505,35.130455],[126.965107,35.130409],[126.965054,35.130361],[126.964992,35.13041],[126.96505,35.130455]]]]}},{"type":"Feature","id":"0000196745571812501300000000","properties":{"id":"0000196745571812501300000000","pnu":"1221012100201570012","purpose":"기타"},"geometry":{"type":"MultiPolygon","coordinates":[[[[126.965113,35.130394],[126.965146,35.130358],[126.96509,35.130317],[126.965059,35.130348],[126.965113,35.130394]]]]}},{"type":"Feature","id":"0000196747111812581000000000","properties":{"id":"0000196747111812581000000000","pnu":"1221012100201370001","purpose":"기타"},"geometry":{"type":"MultiPolygon","coordinates":[[[[126.965075,35.130436],[126.965102,35.130463],[126.965163,35.130416],[126.965138,35.13039],[126.965075,35.130436]]]]}},{"type":"Feature","id":"0000196769201812208900000000","properties":{"id":"0000196769201812208900000000","pnu":"1221012100201570012","purpose":"기타"},"geometry":{"type":"MultiPolygon","coordinates":[[[[126.965339,35.13015],[126.96543,35.130066],[126.965384,35.130033],[126.965294,35.130117],[126.965339,35.13015]]]]}},{"type":"Feature","id":"0000196776421812143800000000","properties":{"id":"0000196776421812143800000000","pnu":"1221012100201570012","purpose":"기타"},"geometry":{"type":"MultiPolygon","coordinates":[[[[126.965385,35.130024],[126.965467,35.130075],[126.965497,35.130041],[126.965416,35.12999],[126.965385,35.130024]]]]}},{"type":"Feature","id":"0000196817271811409500000000","properties":{"id":"0000196817271811409500000000","pnu":"1221012100201510003","purpose":"단독주택","floors":1,"structure":"일반목구조"},"geometry":{"type":"MultiPolygon","coordinates":[[[[126.965992,35.1294],[126.965916,35.129335],[126.965892,35.129349],[126.965829,35.129292],[126.965785,35.12933],[126.965925,35.129446],[126.965992,35.1294]]]]}},{"type":"Feature","id":"0000196843781811793300000000","properties":{"id":"0000196843781811793300000000","pnu":"1221012100108340000","purpose":"기타"},"geometry":{"type":"MultiPolygon","coordinates":[[[[126.966271,35.129676],[126.966055,35.129695],[126.96606,35.129747],[126.966196,35.129737],[126.966206,35.129763],[126.966293,35.129747],[126.966271,35.129676]]]]}},{"type":"Feature","id":"0000196958841810523100000000","properties":{"id":"0000196958841810523100000000","pnu":"1221012100201510003","purpose":"기타"},"geometry":{"type":"MultiPolygon","coordinates":[[[[126.967477,35.1286],[126.967487,35.128569],[126.967412,35.128545],[126.967396,35.128575],[126.967477,35.1286]]]]}},{"type":"Feature","id":"0000196963961810433200000000","properties":{"id":"0000196963961810433200000000","pnu":"1221012100201510005","purpose":"기타"},"geometry":{"type":"MultiPolygon","coordinates":[[[[126.967505,35.12843],[126.967431,35.128527],[126.9675,35.128552],[126.967565,35.128454],[126.967505,35.12843]]]]}},{"type":"Feature","id":"0000196966121811085900000000","properties":{"id":"0000196966121811085900000000","pnu":"1221012100100850001","purpose":"제2종 근린생활시설","far":1.18,"floors":1,"structure":"벽돌구조"},"geometry":{"type":"MultiPolygon","coordinates":[[[[126.967536,35.129143],[126.967583,35.129041],[126.967506,35.129016],[126.967465,35.129122],[126.967536,35.129143]]]]}},{"type":"Feature","id":"0000196968221810652400000000","properties":{"id":"0000196968221810652400000000","pnu":"1221012100108340000","purpose":"기타"},"geometry":{"type":"MultiPolygon","coordinates":[[[[126.967522,35.128752],[126.967617,35.128651],[126.967584,35.128626],[126.967478,35.128708],[126.967503,35.128735],[126.967497,35.128742],[126.967522,35.128752]]]]}},{"type":"Feature","id":"0000196983611810819900000000","properties":{"id":"0000196983611810819900000000","pnu":"1221012100108340001","purpose":"기타"},"geometry":{"type":"MultiPolygon","coordinates":[[[[126.967661,35.128878],[126.967759,35.128881],[126.967766,35.128801],[126.967674,35.128798],[126.967661,35.128878]]]]}},{"type":"Feature","id":"0000196989991810447200000000","properties":{"id":"0000196989991810447200000000","pnu":"1221012100201510004","purpose":"기타"},"geometry":{"type":"MultiPolygon","coordinates":[[[[126.967737,35.128559],[126.967825,35.128553],[126.96783,35.128449],[126.967752,35.128448],[126.967745,35.128511],[126.967736,35.128511],[126.967737,35.128559]]]]}},{"type":"Feature","id":"0000196996971810763100000000","properties":{"id":"0000196996971810763100000000","pnu":"1221012100108340001","purpose":"기타"},"geometry":{"type":"MultiPolygon","coordinates":[[[[126.967863,35.128812],[126.96789,35.128785],[126.96786,35.128765],[126.967833,35.128793],[126.967863,35.128812]]]]}},{"type":"Feature","id":"0000197001091810489800000000","properties":{"id":"0000197001091810489800000000","pnu":"1221012100108340000","purpose":"기타"},"geometry":{"type":"MultiPolygon","coordinates":[[[[126.96788,35.128583],[126.967934,35.128583],[126.967934,35.128502],[126.96788,35.128502],[126.96788,35.128583]]]]}},{"type":"Feature","id":"0000197002591810882400000000","properties":{"id":"0000197002591810882400000000","pnu":"1221012100108340001","purpose":"기타"},"geometry":{"type":"MultiPolygon","coordinates":[[[[126.967874,35.128858],[126.967848,35.128915],[126.967951,35.128945],[126.967999,35.128872],[126.96794,35.128852],[126.967929,35.12887],[126.967874,35.128858]]]]}},{"type":"Feature","id":"0000197015201810379700000000","properties":{"id":"0000197015201810379700000000","pnu":"1221012100108350000","purpose":"기타"},"geometry":{"type":"MultiPolygon","coordinates":[[[[126.967989,35.128447],[126.968105,35.128491],[126.968134,35.128439],[126.968018,35.128395],[126.967989,35.128447]]]]}},{"type":"Feature","id":"0000197028121811402000000000","properties":{"id":"0000197028121811402000000000","pnu":"1221012100100610071","purpose":"기타"},"geometry":{"type":"MultiPolygon","coordinates":[[[[126.968211,35.129344],[126.968176,35.129365],[126.968195,35.129386],[126.96823,35.129364],[126.968211,35.129344]]]]}},{"type":"Feature","id":"0000197033471811281900000000","properties":{"id":"0000197033471811281900000000","pnu":"1221012100100610031","purpose":"기타"},"geometry":{"type":"MultiPolygon","coordinates":[[[[126.968323,35.129257],[126.968293,35.129215],[126.968199,35.129255],[126.968232,35.129298],[126.968323,35.129257]]]]}},{"type":"Feature","id":"0000197040761811323600000000","properties":{"id":"0000197040761811323600000000","pnu":"1221012100100610029","purpose":"기타"},"geometry":{"type":"MultiPolygon","coordinates":[[[[126.968295,35.129334],[126.968404,35.129299],[126.968375,35.129253],[126.968302,35.12928],[126.968306,35.129293],[126.968282,35.129303],[126.968295,35.129334]]]]}},{"type":"Feature","id":"0000197041321810548700000000","properties":{"id":"0000197041321810548700000000","pnu":"1221012100100580000","purpose":"기타"},"geometry":{"type":"MultiPolygon","coordinates":[[[[126.968331,35.128648],[126.968405,35.128621],[126.968369,35.128543],[126.968288,35.128574],[126.968331,35.128648]]]]}},{"type":"Feature","id":"0000197044541811216400000000","properties":{"id":"0000197044541811216400000000","pnu":"1221012100100600000","purpose":"기타"},"geometry":{"type":"MultiPolygon","coordinates":[[[[126.96839,35.129231],[126.968425,35.129208],[126.968376,35.129164],[126.968341,35.129186],[126.96839,35.129231]]]]}},{"type":"Feature","id":"0000197051301811158000000000","properties":{"id":"0000197051301811158000000000","pnu":"1221012100100610030","purpose":"기타"},"geometry":{"type":"MultiPolygon","coordinates":[[[[126.968443,35.129195],[126.968519,35.129128],[126.968465,35.129096],[126.968398,35.129161],[126.968443,35.129195]]]]}},{"type":"Feature","id":"0000197058091811224400000000","properties":{"id":"0000197058091811224400000000","pnu":"1221012100100610030","purpose":"기타"},"geometry":{"type":"MultiPolygon","coordinates":[[[[126.96849,35.129278],[126.968616,35.129167],[126.96857,35.129132],[126.968448,35.129245],[126.96849,35.129278]]]]}},{"type":"Feature","id":"0000197058691810776600000000","properties":{"id":"0000197058691810776600000000","pnu":"1221012100100580000","purpose":"기타"},"geometry":{"type":"MultiPolygon","coordinates":[[[[126.968601,35.128796],[126.968578,35.12876],[126.968474,35.128808],[126.9685,35.128842],[126.968601,35.128796]]]]}},{"type":"Feature","id":"0000197058841811341000000000","properties":{"id":"0000197058841811341000000000","pnu":"1221012100100610030","purpose":"기타"},"geometry":{"type":"MultiPolygon","coordinates":[[[[126.968473,35.129324],[126.968513,35.12936],[126.968608,35.129294],[126.968567,35.12926],[126.968473,35.129324]]]]}},{"type":"Feature","id":"0000197059211811073400000000","properties":{"id":"0000197059211811073400000000","pnu":"1221012100100580000","purpose":"기타"},"geometry":{"type":"MultiPolygon","coordinates":[[[[126.968556,35.129099],[126.96857,35.129046],[126.968531,35.129041],[126.968518,35.129088],[126.968556,35.129099]]]]}},{"type":"Feature","id":"0000197061601810698200000000","properties":{"id":"0000197061601810698200000000","pnu":"1221012100100580000","purpose":"기타"},"geometry":{"type":"MultiPolygon","coordinates":[[[[126.968552,35.128759],[126.968609,35.128727],[126.968589,35.128703],[126.968533,35.128733],[126.968552,35.128759]]]]}},{"type":"Feature","id":"0000197061601810872000000000","properties":{"id":"0000197061601810872000000000","pnu":"1221012100100580000","purpose":"기타"},"geometry":{"type":"MultiPolygon","coordinates":[[[[126.968557,35.128914],[126.968606,35.128887],[126.968584,35.128862],[126.968536,35.128884],[126.968557,35.128914]]]]}},{"type":"Feature","id":"0000197064891811054100000000","properties":{"id":"0000197064891811054100000000","pnu":"1221012100100580000","purpose":"기타"},"geometry":{"type":"MultiPolygon","coordinates":[[[[126.968596,35.129075],[126.968623,35.129069],[126.968617,35.12903],[126.968591,35.12903],[126.968596,35.129075]]]]}},{"type":"Feature","id":"0000197065001810745300000000","properties":{"id":"0000197065001810745300000000","pnu":"1221012100100580000","purpose":"기타"},"geometry":{"type":"MultiPolygon","coordinates":[[[[126.968609,35.128801],[126.968637,35.128786],[126.968604,35.128745],[126.968579,35.128758],[126.968609,35.128801]]]]}},{"type":"Feature","id":"0000197070071811558400000000","properties":{"id":"0000197070071811558400000000","pnu":"1221012100100610017","purpose":"기타"},"geometry":{"type":"MultiPolygon","coordinates":[[[[126.968675,35.129536],[126.9687,35.129495],[126.968652,35.129475],[126.968626,35.129516],[126.968675,35.129536]]]]}},{"type":"Feature","id":"0000197071581810955800000000","properties":{"id":"0000197071581810955800000000","pnu":"1221012100201430001","purpose":"기타"},"geometry":{"type":"MultiPolygon","coordinates":[[[[126.968685,35.129014],[126.968738,35.128936],[126.968674,35.128912],[126.968623,35.128988],[126.968685,35.129014]]]]}},{"type":"Feature","id":"0000197072691811117600000000","properties":{"id":"0000197072691811117600000000","pnu":"1221012100100580000","purpose":"기타"},"geometry":{"type":"MultiPolygon","coordinates":[[[[126.96873,35.129153],[126.968757,35.129102],[126.96865,35.129066],[126.968626,35.12911],[126.96873,35.129153]]]]}},{"type":"Feature","id":"0000197079171811272500000000","properties":{"id":"0000197079171811272500000000","pnu":"1221012100100610068","purpose":"기타"},"geometry":{"type":"MultiPolygon","coordinates":[[[[126.968706,35.129251],[126.968739,35.129292],[126.968821,35.129242],[126.968788,35.129205],[126.968706,35.129251]]]]}},{"type":"Feature","id":"0000197085311811225400000000","properties":{"id":"0000197085311811225400000000","pnu":"1221012100100580000","purpose":"기타"},"geometry":{"type":"MultiPolygon","coordinates":[[[[126.968813,35.12919],[126.968803,35.129206],[126.968842,35.129223],[126.96886,35.129202],[126.968813,35.12919]]]]}},{"type":"Feature","id":"0000197085621811006100000000","properties":{"id":"0000197085621811006100000000","pnu":"1221012100201430001","purpose":"기타"},"geometry":{"type":"MultiPolygon","coordinates":[[[[126.968828,35.128982],[126.968805,35.128997],[126.96884,35.129034],[126.968863,35.129019],[126.968828,35.128982]]]]}},{"type":"Feature","id":"0000197092271810970000000000","properties":{"id":"0000197092271810970000000000","pnu":"1221012100201430001","purpose":"기타"},"geometry":{"type":"MultiPolygon","coordinates":[[[[126.968839,35.12898],[126.968875,35.129025],[126.968975,35.128971],[126.968939,35.128926],[126.968839,35.12898]]]]}},{"type":"Feature","id":"0000197096141810484400000000","properties":{"id":"0000197096141810484400000000","pnu":"1221012100100580000","purpose":"기타"},"geometry":{"type":"MultiPolygon","coordinates":[[[[126.96889,35.128559],[126.968927,35.128591],[126.96901,35.12852],[126.968967,35.128485],[126.96889,35.128559]]]]}},{"type":"Feature","id":"0000197099051810855500000000","properties":{"id":"0000197099051810855500000000","pnu":"1221012100201430001","purpose":"기타"},"geometry":{"type":"MultiPolygon","coordinates":[[[[126.968923,35.128878],[126.968961,35.128918],[126.96904,35.128867],[126.969001,35.128827],[126.968923,35.128878]]]]}},{"type":"Feature","id":"1960196737451810265000000000","properties":{"id":"1960196737451810265000000000","pnu":"1221012100201560000","purpose":"제1종 근린생활시설","floors":1,"structure":"벽돌구조"},"geometry":{"type":"MultiPolygon","coordinates":[[[[126.96505,35.128384],[126.965056,35.128298],[126.964979,35.128294],[126.964973,35.12838],[126.96505,35.128384]]]]}},{"type":"Feature","id":"1964196290441814808700000000","properties":{"id":"1964196290441814808700000000","pnu":"1221012100101200002","purpose":"숙박시설","floors":1,"structure":"블록구조"},"geometry":{"type":"MultiPolygon","coordinates":[[[[126.960002,35.132432],[126.960042,35.132482],[126.96006,35.132475],[126.9601,35.132505],[126.960218,35.132444],[126.960121,35.132353],[126.960002,35.132432]]]]}},{"type":"Feature","id":"1964196532341813984400000000","properties":{"id":"1964196532341813984400000000","pnu":"1221012100100740002","year":1964,"purpose":"제1종 근린생활시설"},"geometry":{"type":"MultiPolygon","coordinates":[[[[126.962676,35.131701],[126.962716,35.131752],[126.962852,35.131675],[126.962807,35.131632],[126.962676,35.131701]]]]}},{"type":"Feature","id":"1964196542981813908300000000","properties":{"id":"1964196542981813908300000000","pnu":"1221012100100740005","purpose":"제1종 근린생활시설","floors":1,"structure":"일반목구조"},"geometry":{"type":"MultiPolygon","coordinates":[[[[126.962823,35.131633],[126.962853,35.131668],[126.962937,35.13161],[126.962903,35.131578],[126.962823,35.131633]]]]}},{"type":"Feature","id":"1964196650831813343900000000","properties":{"id":"1964196650831813343900000000","pnu":"1221012100100840005","year":1964,"purpose":"단독주택"},"geometry":{"type":"MultiPolygon","coordinates":[[[[126.964021,35.131141],[126.96411,35.131137],[126.964103,35.131087],[126.964018,35.13109],[126.964021,35.131141]]]]}},{"type":"Feature","id":"1964196657981813343700000000","properties":{"id":"1964196657981813343700000000","pnu":"1221012100100840005","year":1964,"purpose":"단독주택"},"geometry":{"type":"MultiPolygon","coordinates":[[[[126.964118,35.13114],[126.964167,35.131138],[126.964164,35.131088],[126.964115,35.131089],[126.964118,35.13114]]]]}},{"type":"Feature","id":"1966196604481813906200000000","properties":{"id":"1966196604481813906200000000","pnu":"1221012100100740015","purpose":"단독주택","floors":1,"structure":"블록구조"},"geometry":{"type":"MultiPolygon","coordinates":[[[[126.963599,35.131623],[126.96357,35.131586],[126.963509,35.131618],[126.963538,35.131655],[126.963599,35.131623]]]]}},{"type":"Feature","id":"1967196377551814730100000000","properties":{"id":"1967196377551814730100000000","pnu":"1221012100100990001","purpose":"숙박시설","floors":1,"structure":"벽돌구조"},"geometry":{"type":"MultiPolygon","coordinates":[[[[126.960884,35.132433],[126.961028,35.132407],[126.961025,35.132385],[126.961074,35.132373],[126.961108,35.132456],[126.961226,35.132429],[126.961233,35.132373],[126.961168,35.132269],[126.960868,35.132333],[126.960884,35.132433]]]]}},{"type":"Feature","id":"1968196231051815882200000000","properties":{"id":"1968196231051815882200000000","pnu":"1221012100101050004","purpose":"단독주택","floors":1,"structure":"블록구조"},"geometry":{"type":"MultiPolygon","coordinates":[[[[126.95936,35.133419],[126.959378,35.13345],[126.959549,35.13339],[126.959518,35.133348],[126.95936,35.133419]]]]}},{"type":"Feature","id":"1968196296341815918400000000","properties":{"id":"1968196296341815918400000000","pnu":"1221012100101030001","year":1968,"purpose":"단독주택"},"geometry":{"type":"MultiPolygon","coordinates":[[[[126.960127,35.133427],[126.960139,35.133459],[126.960218,35.133439],[126.960206,35.133407],[126.960127,35.133427]]]]}},{"type":"Feature","id":"1968196308451815746100000000","properties":{"id":"1968196308451815746100000000","pnu":"1221012100101030001","year":1968,"purpose":"단독주택"},"geometry":{"type":"MultiPolygon","coordinates":[[[[126.960259,35.133317],[126.960365,35.133298],[126.960347,35.133238],[126.960246,35.133258],[126.960259,35.133317]]]]}},{"type":"Feature","id":"1968196317521815605800000000","properties":{"id":"1968196317521815605800000000","pnu":"1221012100101030001","year":1968,"purpose":"숙박시설"},"geometry":{"type":"MultiPolygon","coordinates":[[[[126.960388,35.133235],[126.960467,35.133223],[126.960423,35.133067],[126.960341,35.133083],[126.960388,35.133235]]]]}},{"type":"Feature","id":"1968196320081815740400000000","properties":{"id":"1968196320081815740400000000","pnu":"1221012100101030001","year":1968,"purpose":"단독주택"},"geometry":{"type":"MultiPolygon","coordinates":[[[[126.960417,35.133316],[126.960476,35.1333],[126.960449,35.13323],[126.960389,35.133245],[126.960417,35.133316]]]]}},{"type":"Feature","id":"1968196590891813488200000000","properties":{"id":"1968196590891813488200000000","pnu":"1221012100100840003","year":1968,"purpose":"숙박시설"},"geometry":{"type":"MultiPolygon","coordinates":[[[[126.963485,35.131271],[126.963489,35.131233],[126.963324,35.131216],[126.963322,35.131255],[126.963485,35.131271]]]]}},{"type":"Feature","id":"1968196606041813489700000000","properties":{"id":"1968196606041813489700000000","pnu":"1221012100100840003","year":1968,"purpose":"제1종 근린생활시설"},"geometry":{"type":"MultiPolygon","coordinates":[[[[126.963511,35.131223],[126.963504,35.13126],[126.963633,35.131267],[126.963639,35.131231],[126.963511,35.131223]]]]}},{"type":"Feature","id":"1969196231331815958700000000","properties":{"id":"1969196231331815958700000000","pnu":"1221012100101050003","purpose":"단독주택","floors":1,"structure":"블록구조"},"geometry":{"type":"MultiPolygon","coordinates":[[[[126.959489,35.133486],[126.95949,35.133455],[126.95943,35.133453],[126.959425,35.133482],[126.959489,35.133486]]]]}},{"type":"Feature","id":"1969196410471815507300000000","properties":{"id":"1969196410471815507300000000","pnu":"1221012100100950000","purpose":"기타","floors":1,"structure":"철근콘크리트구조"},"geometry":{"type":"MultiPolygon","coordinates":[[[[126.961381,35.133065],[126.961408,35.133096],[126.961469,35.133059],[126.96144,35.133031],[126.961381,35.133065]]]]}},{"type":"Feature","id":"1969196442511814775800000000","properties":{"id":"1969196442511814775800000000","pnu":"1221012100100900001","year":1969,"purpose":"제1종 근린생활시설"},"geometry":{"type":"MultiPolygon","coordinates":[[[[126.961745,35.132461],[126.961854,35.132389],[126.961813,35.132353],[126.961703,35.132404],[126.961745,35.132461]]]]}},{"type":"Feature","id":"1969196483961813970000000000","properties":{"id":"1969196483961813970000000000","pnu":"1221012100100870002","year":1969,"purpose":"숙박시설","floors":1,"structure":"벽돌구조"},"geometry":{"type":"MultiPolygon","coordinates":[[[[126.962279,35.131688],[126.962261,35.131645],[126.962184,35.131667],[126.962203,35.13171],[126.962279,35.131688]]]]}},{"type":"Feature","id":"1969196492801813986800000000","properties":{"id":"1969196492801813986800000000","pnu":"1221012100100870002","purpose":"기타","structure":"블록구조"},"geometry":{"type":"MultiPolygon","coordinates":[[[[126.962373,35.131722],[126.962319,35.131645],[126.962285,35.131661],[126.962336,35.13174],[126.962373,35.131722]]]]}},{"type":"Feature","id":"1969196552101813836000000000","properties":{"id":"1969196552101813836000000000","pnu":"1221012100100740003","purpose":"숙박시설","floors":1,"structure":"일반목구조"},"geometry":{"type":"MultiPolygon","coordinates":[[[[126.962952,35.131609],[126.96305,35.131546],[126.962999,35.131506],[126.962912,35.131569],[126.962952,35.131609]]]]}},{"type":"Feature","id":"1969196560511813754100000000","properties":{"id":"1969196560511813754100000000","pnu":"1221012100100740004","purpose":"제1종 근린생활시설","floors":1,"structure":"일반목구조"},"geometry":{"type":"MultiPolygon","coordinates":[[[[126.963057,35.13154],[126.963136,35.131493],[126.963081,35.131423],[126.963038,35.131442],[126.963048,35.131465],[126.963007,35.131488],[126.963057,35.13154]]]]}},{"type":"Feature","id":"1971196566101814103200000000","properties":{"id":"1971196566101814103200000000","pnu":"1221012100100740006","purpose":"단독주택","floors":1,"structure":"블록구조"},"geometry":{"type":"MultiPolygon","coordinates":[[[[126.96324,35.131793],[126.963229,35.131757],[126.963024,35.131803],[126.963039,35.131839],[126.96324,35.131793]]]]}},{"type":"Feature","id":"1988196347361815341700000000","properties":{"id":"1988196347361815341700000000","pnu":"1221012100101020001","year":1988,"purpose":"기타"},"geometry":{"type":"MultiPolygon","coordinates":[[[[126.960686,35.132967],[126.960763,35.132973],[126.960777,35.132859],[126.960701,35.132855],[126.960686,35.132967]]]]}},{"type":"Feature","id":"2001196960431811418000000000","properties":{"id":"2001196960431811418000000000","pnu":"1221012100100850001","year":2001,"purpose":"기타","floors":2,"structure":"철골콘크리트구조"},"geometry":{"type":"MultiPolygon","coordinates":[[[[126.967466,35.129225],[126.967339,35.129498],[126.967453,35.129532],[126.967582,35.129264],[126.967466,35.129225]]]]}},{"type":"Feature","id":"2001196972241810954400000000","properties":{"id":"2001196972241810954400000000","pnu":"1221012100100850001","year":2001,"purpose":"기타","floors":1,"structure":"철골콘크리트구조"},"geometry":{"type":"MultiPolygon","coordinates":[[[[126.967612,35.129018],[126.967652,35.128929],[126.967564,35.128905],[126.96753,35.128994],[126.967612,35.129018]]]]}},{"type":"Feature","id":"2002196433861814922300000000","properties":{"id":"2002196433861814922300000000","pnu":"1221012100100950001","year":2002,"purpose":"기타","far":19.79,"floors":1,"structure":"철근콘크리트구조"},"geometry":{"type":"MultiPolygon","coordinates":[[[[126.961647,35.132604],[126.961771,35.132547],[126.961692,35.132461],[126.961628,35.132509],[126.961608,35.132554],[126.961647,35.132604]]]]}},{"type":"Feature","id":"2002196849451811605500000000","properties":{"id":"2002196849451811605500000000","pnu":"1221012100100860000","year":2002,"purpose":"제1종 근린생활시설","far":8.53,"floors":1,"structure":"일반철골구조"},"geometry":{"type":"MultiPolygon","coordinates":[[[[126.966162,35.129591],[126.966336,35.129567],[126.966321,35.129504],[126.96615,35.129528],[126.966162,35.129591]]]]}},{"type":"Feature","id":"2002196892671811274000000000","properties":{"id":"2002196892671811274000000000","pnu":"1221012100100860000","purpose":"기타","structure":"벽돌구조"},"geometry":{"type":"MultiPolygon","coordinates":[[[[126.966601,35.129226],[126.966606,35.129278],[126.966763,35.129268],[126.966766,35.129293],[126.966818,35.129289],[126.966811,35.129213],[126.966601,35.129226]]]]}},{"type":"Feature","id":"2004196293351815206500000000","properties":{"id":"2004196293351815206500000000","pnu":"1221012100101070002","purpose":"기타","structure":"일반목구조"},"geometry":{"type":"MultiPolygon","coordinates":[[[[126.960165,35.132743],[126.960097,35.132752],[126.960114,35.13284],[126.960182,35.132831],[126.960165,35.132743]]]]}},{"type":"Feature","id":"2004196306291815184900000000","properties":{"id":"2004196306291815184900000000","pnu":"1221012100101070002","year":2004,"purpose":"기타","far":7.29,"floors":1,"structure":"일반목구조"},"geometry":{"type":"MultiPolygon","coordinates":[[[[126.960236,35.132851],[126.960349,35.13284],[126.960328,35.132693],[126.960215,35.132704],[126.960236,35.132851]]]]}},{"type":"Feature","id":"2009196190981815629100000000","properties":{"id":"2009196190981815629100000000","pnu":"1221012100109920000","year":2009,"purpose":"제2종 근린생활시설","far":145.7,"floors":3,"structure":"철근콘크리트구조"},"geometry":{"type":"MultiPolygon","coordinates":[[[[126.958914,35.133228],[126.958976,35.133242],[126.958986,35.133212],[126.95909,35.133234],[126.959092,35.133228],[126.959095,35.133229],[126.959125,35.133136],[126.958952,35.133098],[126.958941,35.133134],[126.958944,35.133135],[126.958914,35.133228]]]]}},{"type":"Feature","id":"2010196193791815111800000000","properties":{"id":"2010196193791815111800000000","pnu":"1221012100110000000","year":2010,"purpose":"제2종 근린생활시설","far":101.4537,"floors":2,"structure":"일반철골구조"},"geometry":{"type":"MultiPolygon","coordinates":[[[[126.958957,35.132743],[126.959037,35.13276],[126.959031,35.132779],[126.959093,35.132792],[126.959134,35.132658],[126.958993,35.132629],[126.958958,35.132743],[126.958957,35.132743]]]]}},{"type":"Feature","id":"2011196211521815438600000000","properties":{"id":"2011196211521815438600000000","pnu":"1221012100109940000","year":2011,"purpose":"제2종 근린생활시설","far":142.98,"floors":3,"structure":"철근콘크리트구조"},"geometry":{"type":"MultiPolygon","coordinates":[[[[126.959202,35.13291],[126.9592,35.132917],[126.959201,35.132917],[126.959188,35.132956],[126.959185,35.132955],[126.959185,35.132955],[126.959157,35.133042],[126.959165,35.133044],[126.959166,35.133043],[126.959177,35.133046],[126.959176,35.133048],[126.959312,35.133078],[126.959318,35.133073],[126.95933,35.133034],[126.959298,35.133027],[126.95931,35.132991],[126.95929,35.132987],[126.9593,35.132954],[126.95926,35.132946],[126.959265,35.132931],[126.959288,35.132935],[126.95929,35.132929],[126.959202,35.13291]]]]}},{"type":"Feature","id":"2012196207811815219000000000","properties":{"id":"2012196207811815219000000000","pnu":"1221012100110010000","year":2012,"purpose":"제1종 근린생활시설"},"geometry":{"type":"MultiPolygon","coordinates":[[[[126.959122,35.132817],[126.959196,35.132832],[126.959191,35.132846],[126.959231,35.132854],[126.959235,35.13284],[126.959258,35.132845],[126.959278,35.132783],[126.959142,35.132754],[126.959122,35.132817]]]]}}]}
