{"type":"FeatureCollection","features":[{"type":"Feature","id":"0000196196311769853900000000","properties":{"id":"0000196196311769853900000000","pnu":"1221012000106100000","purpose":"제1종 근린생활시설"},"geometry":{"type":"MultiPolygon","coordinates":[[[[126.958773,35.091585],[126.958588,35.091853],[126.958674,35.091891],[126.958668,35.091902],[126.958726,35.091926],[126.958733,35.091919],[126.959257,35.09216],[126.95925,35.092167],[126.959303,35.092199],[126.95931,35.092191],[126.959416,35.092238],[126.959477,35.092148],[126.959491,35.092151],[126.959551,35.092062],[126.959541,35.092059],[126.959596,35.091967],[126.958773,35.091585]]]]}},{"type":"Feature","id":"0000196200931768570700000000","properties":{"id":"0000196200931768570700000000","pnu":"1221012000105910000","purpose":"기타"},"geometry":{"type":"MultiPolygon","coordinates":[[[[126.959,35.090798],[126.959178,35.09088],[126.959297,35.090712],[126.959112,35.090633],[126.959,35.090798]]]]}},{"type":"Feature","id":"0000196213931768263200000000","properties":{"id":"0000196213931768263200000000","pnu":"1221012000202310001","purpose":"기타"},"geometry":{"type":"MultiPolygon","coordinates":[[[[126.959334,35.090519],[126.959354,35.090485],[126.959252,35.090439],[126.959222,35.090469],[126.959334,35.090519]]]]}},{"type":"Feature","id":"0000196223461768289700000000","properties":{"id":"0000196223461768289700000000","pnu":"1221012000202310001","purpose":"기타"},"geometry":{"type":"MultiPolygon","coordinates":[[[[126.959389,35.090541],[126.959434,35.090475],[126.959403,35.090462],[126.959354,35.090527],[126.959389,35.090541]]]]}},{"type":"Feature","id":"0000196230061767868200000000","properties":{"id":"0000196230061767868200000000","pnu":"1221012000202360001","purpose":"기타"},"geometry":{"type":"MultiPolygon","coordinates":[[[[126.959481,35.090159],[126.959511,35.090116],[126.959452,35.090087],[126.959423,35.090127],[126.959481,35.090159]]]]}},{"type":"Feature","id":"0000196237951770396200000000","properties":{"id":"0000196237951770396200000000","pnu":"1221012000106100000","purpose":"기타"},"geometry":{"type":"MultiPolygon","coordinates":[[[[126.95954,35.09237],[126.959513,35.092404],[126.959565,35.092432],[126.959592,35.092398],[126.95954,35.09237]]]]}},{"type":"Feature","id":"0000196418561769386300000000","properties":{"id":"0000196418561769386300000000","pnu":"1221012000105860000","purpose":"기타"},"geometry":{"type":"MultiPolygon","coordinates":[[[[126.961565,35.091539],[126.961599,35.091488],[126.961508,35.091445],[126.961464,35.091492],[126.961565,35.091539]]]]}},{"type":"Feature","id":"0000196429131769441400000000","properties":{"id":"0000196429131769441400000000","pnu":"1221012000105860000","purpose":"기타"},"geometry":{"type":"MultiPolygon","coordinates":[[[[126.961657,35.091567],[126.961684,35.091534],[126.961639,35.091516],[126.961616,35.091547],[126.961657,35.091567]]]]}},{"type":"Feature","id":"0000196444361769545400000000","properties":{"id":"0000196444361769545400000000","pnu":"1221012000106540000","purpose":"기타"},"geometry":{"type":"MultiPolygon","coordinates":[[[[126.961775,35.091592],[126.961754,35.091619],[126.961852,35.091679],[126.961879,35.091646],[126.961775,35.091592]]]]}},{"type":"Feature","id":"0000196463391769846100000000","properties":{"id":"0000196463391769846100000000","pnu":"1221012000105770000","purpose":"제1종 근린생활시설","floors":1,"structure":"벽돌구조"},"geometry":{"type":"MultiPolygon","coordinates":[[[[126.962041,35.091939],[126.962062,35.091896],[126.962008,35.091877],[126.961986,35.091909],[126.962041,35.091939]]]]}},{"type":"Feature","id":"0000196542641770691700000000","properties":{"id":"0000196542641770691700000000","pnu":"1221012000202140001","purpose":"기타"},"geometry":{"type":"MultiPolygon","coordinates":[[[[126.962941,35.092706],[126.962955,35.092689],[126.962846,35.092631],[126.962833,35.092648],[126.962941,35.092706]]]]}},{"type":"Feature","id":"0000196553581770735500000000","properties":{"id":"0000196553581770735500000000","pnu":"1221012000202140001","purpose":"기타"},"geometry":{"type":"MultiPolygon","coordinates":[[[[126.962986,35.092731],[126.963013,35.092741],[126.963042,35.092685],[126.963015,35.092675],[126.962986,35.092731]]]]}},{"type":"Feature","id":"0000196567301770779000000000","properties":{"id":"0000196567301770779000000000","pnu":"1221012000102560000","purpose":"기타"},"geometry":{"type":"MultiPolygon","coordinates":[[[[126.963075,35.092733],[126.963208,35.092813],[126.963253,35.092761],[126.96312,35.092682],[126.963075,35.092733]]]]}},{"type":"Feature","id":"0000196573431772130900000000","properties":{"id":"0000196573431772130900000000","pnu":"1221012000102800000","purpose":"기타"},"geometry":{"type":"MultiPolygon","coordinates":[[[[126.963201,35.094016],[126.963264,35.094013],[126.963264,35.093979],[126.963271,35.093979],[126.963267,35.093919],[126.963193,35.093921],[126.963192,35.093982],[126.963197,35.093983],[126.963201,35.094016]]]]}},{"type":"Feature","id":"0000196578151771431300000000","properties":{"id":"0000196578151771431300000000","pnu":"1221012000102690000","purpose":"기타"},"geometry":{"type":"MultiPolygon","coordinates":[[[[126.963292,35.093362],[126.963311,35.093316],[126.963283,35.093307],[126.96325,35.09335],[126.963292,35.093362]]]]}},{"type":"Feature","id":"0000196580631771522200000000","properties":{"id":"0000196580631771522200000000","pnu":"1221012000102690000","purpose":"기타"},"geometry":{"type":"MultiPolygon","coordinates":[[[[126.963375,35.093444],[126.963382,35.093422],[126.963245,35.09339],[126.963238,35.093412],[126.963375,35.093444]]]]}},{"type":"Feature","id":"0000196583441771480400000000","properties":{"id":"0000196583441771480400000000","pnu":"1221012000102690000","purpose":"기타"},"geometry":{"type":"MultiPolygon","coordinates":[[[[126.963285,35.093384],[126.963384,35.093409],[126.963406,35.093407],[126.963413,35.093395],[126.963331,35.093365],[126.963336,35.093344],[126.96331,35.093337],[126.963285,35.093384]]]]}},{"type":"Feature","id":"0000196586381776316900000000","properties":{"id":"0000196586381776316900000000","pnu":"1221012000104410003","purpose":"기타"},"geometry":{"type":"MultiPolygon","coordinates":[[[[126.963366,35.097782],[126.96342,35.097769],[126.96337,35.097693],[126.963325,35.09771],[126.963366,35.097782]]]]}},{"type":"Feature","id":"0000196588351771600700000000","properties":{"id":"0000196588351771600700000000","pnu":"1221012000102730000","purpose":"기타"},"geometry":{"type":"MultiPolygon","coordinates":[[[[126.963407,35.093537],[126.963429,35.093447],[126.963382,35.09344],[126.96336,35.093527],[126.963407,35.093537]]]]}},{"type":"Feature","id":"0000196589051771456100000000","properties":{"id":"0000196589051771456100000000","pnu":"1221012000102680000","purpose":"기타"},"geometry":{"type":"MultiPolygon","coordinates":[[[[126.963412,35.093391],[126.963435,35.093335],[126.963391,35.093326],[126.96337,35.093379],[126.963412,35.093391]]]]}},{"type":"Feature","id":"0000196601471771621600000000","properties":{"id":"0000196601471771621600000000","pnu":"1221012000102730000","purpose":"기타"},"geometry":{"type":"MultiPolygon","coordinates":[[[[126.963472,35.093478],[126.963469,35.093529],[126.963605,35.093536],[126.963608,35.093484],[126.963472,35.093478]]]]}},{"type":"Feature","id":"0000196621921772382500000000","properties":{"id":"0000196621921772382500000000","pnu":"1221012000102830000","purpose":"기타"},"geometry":{"type":"MultiPolygon","coordinates":[[[[126.963739,35.094226],[126.963796,35.094219],[126.963787,35.094159],[126.963728,35.094167],[126.963739,35.094226]]]]}},{"type":"Feature","id":"0000196622381776318500000000","properties":{"id":"0000196622381776318500000000","pnu":"1221012000106340001","purpose":"기타"},"geometry":{"type":"MultiPolygon","coordinates":[[[[126.963745,35.097763],[126.963771,35.097766],[126.963786,35.097718],[126.963762,35.097714],[126.963745,35.097763]]]]}},{"type":"Feature","id":"0000196625381772317300000000","properties":{"id":"0000196625381772317300000000","pnu":"1221012000102830000","purpose":"기타"},"geometry":{"type":"MultiPolygon","coordinates":[[[[126.963769,35.09414],[126.963779,35.094152],[126.963832,35.094131],[126.963817,35.094115],[126.963769,35.09414]]]]}},{"type":"Feature","id":"0000196626271776482700000000","properties":{"id":"0000196626271776482700000000","pnu":"1221012000106450000","purpose":"기타"},"geometry":{"type":"MultiPolygon","coordinates":[[[[126.963762,35.097936],[126.963846,35.09794],[126.963853,35.09784],[126.963773,35.097837],[126.963762,35.097936]]]]}},{"type":"Feature","id":"0000196627061771379600000000","properties":{"id":"0000196627061771379600000000","pnu":"1221012000102480000","purpose":"기타"},"geometry":{"type":"MultiPolygon","coordinates":[[[[126.963896,35.093275],[126.963857,35.093231],[126.96374,35.093303],[126.963784,35.093346],[126.963896,35.093275]]]]}},{"type":"Feature","id":"0000196627531776588300000000","properties":{"id":"0000196627531776588300000000","pnu":"1221012000104490002","purpose":"기타"},"geometry":{"type":"MultiPolygon","coordinates":[[[[126.963856,35.098005],[126.963858,35.097964],[126.963788,35.097964],[126.963786,35.098002],[126.963856,35.098005]]]]}},{"type":"Feature","id":"0000196631331772382700000000","properties":{"id":"0000196631331772382700000000","pnu":"1221012000102830000","purpose":"기타"},"geometry":{"type":"MultiPolygon","coordinates":[[[[126.963812,35.094199],[126.963844,35.094237],[126.96392,35.09419],[126.963883,35.094148],[126.963812,35.094199]]]]}},{"type":"Feature","id":"0000196632231772098100000000","properties":{"id":"0000196632231772098100000000","pnu":"1221012000102900000","purpose":"기타"},"geometry":{"type":"MultiPolygon","coordinates":[[[[126.96384,35.093919],[126.963841,35.093954],[126.963909,35.093955],[126.963911,35.093918],[126.96384,35.093919]]]]}},{"type":"Feature","id":"0000196632261771852500000000","properties":{"id":"0000196632261771852500000000","pnu":"1221012000102450000","purpose":"기타"},"geometry":{"type":"MultiPolygon","coordinates":[[[[126.963861,35.093746],[126.963913,35.093724],[126.963893,35.093687],[126.963839,35.093702],[126.963861,35.093746]]]]}},{"type":"Feature","id":"0000196635191772850400000000","properties":{"id":"0000196635191772850400000000","pnu":"1221012000103840000","purpose":"기타"},"geometry":{"type":"MultiPolygon","coordinates":[[[[126.963862,35.09464],[126.96396,35.094619],[126.963954,35.094589],[126.963856,35.094609],[126.963862,35.09464]]]]}},{"type":"Feature","id":"0000196644161771373300000000","properties":{"id":"0000196644161771373300000000","pnu":"1221012000102250000","purpose":"단독주택"},"geometry":{"type":"MultiPolygon","coordinates":[[[[126.963996,35.093318],[126.964048,35.093261],[126.964021,35.093247],[126.963965,35.093304],[126.963996,35.093318]]]]}},{"type":"Feature","id":"0000196648791772356400000000","properties":{"id":"0000196648791772356400000000","pnu":"1221012000102860000","purpose":"기타"},"geometry":{"type":"MultiPolygon","coordinates":[[[[126.964081,35.094222],[126.964116,35.094175],[126.964033,35.094119],[126.963997,35.094159],[126.964081,35.094222]]]]}},{"type":"Feature","id":"0000196650681772984300000000","properties":{"id":"0000196650681772984300000000","pnu":"1221012000103870000","purpose":"기타"},"geometry":{"type":"MultiPolygon","coordinates":[[[[126.964013,35.094718],[126.964024,35.094769],[126.964143,35.094751],[126.964134,35.094704],[126.964013,35.094718]]]]}},{"type":"Feature","id":"0000196669411771820300000000","properties":{"id":"0000196669411771820300000000","pnu":"1221012000102430000","purpose":"기타"},"geometry":{"type":"MultiPolygon","coordinates":[[[[126.964249,35.093726],[126.964324,35.093701],[126.9643,35.093646],[126.964254,35.093659],[126.964266,35.093697],[126.964242,35.093706],[126.964249,35.093726]]]]}},{"type":"Feature","id":"0000196672941772728200000000","properties":{"id":"0000196672941772728200000000","pnu":"1221012000103800000","purpose":"기타"},"geometry":{"type":"MultiPolygon","coordinates":[[[[126.964355,35.094494],[126.964319,35.094473],[126.964289,35.094517],[126.964325,35.094536],[126.964355,35.094494]]]]}},{"type":"Feature","id":"0000196677171772611800000000","properties":{"id":"0000196677171772611800000000","pnu":"1221012000103810000","purpose":"기타"},"geometry":{"type":"MultiPolygon","coordinates":[[[[126.964426,35.094364],[126.964303,35.09438],[126.964314,35.094437],[126.964433,35.094418],[126.964426,35.094364]]]]}},{"type":"Feature","id":"0000196677771771659900000000","properties":{"id":"0000196677771771659900000000","pnu":"1221012000102400000","purpose":"기타","far":3.9159,"floors":1,"structure":"벽돌구조"},"geometry":{"type":"MultiPolygon","coordinates":[[[[126.964341,35.093561],[126.964405,35.093566],[126.96441,35.093522],[126.964345,35.093517],[126.964341,35.093561]]]]}},{"type":"Feature","id":"0000196679201772733100000000","properties":{"id":"0000196679201772733100000000","pnu":"1221012000103800000","purpose":"기타"},"geometry":{"type":"MultiPolygon","coordinates":[[[[126.964372,35.094491],[126.964366,35.094517],[126.964407,35.094527],[126.964417,35.094502],[126.964372,35.094491]]]]}},{"type":"Feature","id":"0000196682241772461100000000","properties":{"id":"0000196682241772461100000000","pnu":"1221012000103810000","purpose":"기타"},"geometry":{"type":"MultiPolygon","coordinates":[[[[126.964374,35.094258],[126.96438,35.094285],[126.964475,35.094268],[126.964471,35.094243],[126.964374,35.094258]]]]}},{"type":"Feature","id":"0000196686371772619600000000","properties":{"id":"0000196686371772619600000000","pnu":"1221012000103770000","purpose":"기타"},"geometry":{"type":"MultiPolygon","coordinates":[[[[126.964499,35.094455],[126.964495,35.09436],[126.964441,35.094359],[126.964441,35.094451],[126.964499,35.094455]]]]}},{"type":"Feature","id":"0000196694521772675000000000","properties":{"id":"0000196694521772675000000000","pnu":"1221012000103770000","purpose":"기타"},"geometry":{"type":"MultiPolygon","coordinates":[[[[126.964605,35.09448],[126.964608,35.094429],[126.964509,35.094436],[126.964508,35.094481],[126.964605,35.09448]]]]}},{"type":"Feature","id":"0000196698651770942700000000","properties":{"id":"0000196698651770942700000000","pnu":"1221012000102150000","purpose":"기타"},"geometry":{"type":"MultiPolygon","coordinates":[[[[126.964614,35.092944],[126.96466,35.092909],[126.964598,35.092847],[126.964548,35.092883],[126.964614,35.092944]]]]}},{"type":"Feature","id":"0000196707431771758100000000","properties":{"id":"0000196707431771758100000000","pnu":"1221012000102360000","purpose":"기타"},"geometry":{"type":"MultiPolygon","coordinates":[[[[126.964723,35.093696],[126.964778,35.093651],[126.964675,35.093567],[126.964623,35.093602],[126.964723,35.093696]]]]}},{"type":"Feature","id":"0000196710861772622800000000","properties":{"id":"0000196710861772622800000000","pnu":"1221012000103740000","purpose":"기타"},"geometry":{"type":"MultiPolygon","coordinates":[[[[126.964693,35.094453],[126.964802,35.094419],[126.964778,35.094367],[126.964677,35.094398],[126.964693,35.094453]]]]}},{"type":"Feature","id":"0000196716981772294900000000","properties":{"id":"0000196716981772294900000000","pnu":"1221012000102960000","purpose":"기타"},"geometry":{"type":"MultiPolygon","coordinates":[[[[126.964753,35.094089],[126.964751,35.094133],[126.964857,35.094138],[126.964862,35.094097],[126.964753,35.094089]]]]}},{"type":"Feature","id":"0000196721651772193300000000","properties":{"id":"0000196721651772193300000000","pnu":"1221012000102960000","purpose":"기타"},"geometry":{"type":"MultiPolygon","coordinates":[[[[126.964871,35.094083],[126.964925,35.094047],[126.964842,35.093962],[126.964788,35.094],[126.964871,35.094083]]]]}},{"type":"Feature","id":"0000196722901772032600000000","properties":{"id":"0000196722901772032600000000","pnu":"1221012000102970000","purpose":"기타"},"geometry":{"type":"MultiPolygon","coordinates":[[[[126.964847,35.093941],[126.964943,35.09385],[126.9649,35.093814],[126.964796,35.093901],[126.964847,35.093941]]]]}},{"type":"Feature","id":"0000196724301772587400000000","properties":{"id":"0000196724301772587400000000","pnu":"1221012000103720000","purpose":"기타"},"geometry":{"type":"MultiPolygon","coordinates":[[[[126.964832,35.094448],[126.964944,35.094447],[126.964938,35.094306],[126.964825,35.094311],[126.964832,35.094448]]]]}},{"type":"Feature","id":"0000196729221771862500000000","properties":{"id":"0000196729221771862500000000","pnu":"1221012000102340000","purpose":"기타"},"geometry":{"type":"MultiPolygon","coordinates":[[[[126.964941,35.093769],[126.964982,35.093692],[126.964935,35.09368],[126.964898,35.093759],[126.964941,35.093769]]]]}},{"type":"Feature","id":"0000196732271772310600000000","properties":{"id":"0000196732271772310600000000","pnu":"1221012000102980000","purpose":"기타"},"geometry":{"type":"MultiPolygon","coordinates":[[[[126.964918,35.094153],[126.964958,35.094176],[126.965026,35.094102],[126.964993,35.094079],[126.964918,35.094153]]]]}},{"type":"Feature","id":"0000196736571772048000000000","properties":{"id":"0000196736571772048000000000","pnu":"1221012000102970000","purpose":"기타"},"geometry":{"type":"MultiPolygon","coordinates":[[[[126.964991,35.093829],[126.964941,35.093873],[126.96505,35.093956],[126.965096,35.093906],[126.964991,35.093829]]]]}},{"type":"Feature","id":"0000196747231772317100000000","properties":{"id":"0000196747231772317100000000","pnu":"1221012000102990000","purpose":"기타"},"geometry":{"type":"MultiPolygon","coordinates":[[[[126.965057,35.094111],[126.965155,35.094205],[126.965214,35.094156],[126.965123,35.094064],[126.965057,35.094111]]]]}},{"type":"Feature","id":"0000196752931771997700000000","properties":{"id":"0000196752931771997700000000","pnu":"1221012000102090000","purpose":"기타"},"geometry":{"type":"MultiPolygon","coordinates":[[[[126.965225,35.093874],[126.96524,35.093835],[126.965172,35.093819],[126.965159,35.093856],[126.965225,35.093874]]]]}},{"type":"Feature","id":"0000196753091772430000000000","properties":{"id":"0000196753091772430000000000","pnu":"1221012000103000000","purpose":"기타"},"geometry":{"type":"MultiPolygon","coordinates":[[[[126.965202,35.094258],[126.965227,35.094225],[126.965197,35.094214],[126.965176,35.094249],[126.965202,35.094258]]]]}},{"type":"Feature","id":"0000196761281771967000000000","properties":{"id":"0000196761281771967000000000","pnu":"1221012000102090000","purpose":"기타"},"geometry":{"type":"MultiPolygon","coordinates":[[[[126.965318,35.093862],[126.965348,35.093832],[126.965261,35.093776],[126.965234,35.093803],[126.965318,35.093862]]]]}},{"type":"Feature","id":"0000196769121772360200000000","properties":{"id":"0000196769121772360200000000","pnu":"1221012000103010000","purpose":"기타"},"geometry":{"type":"MultiPolygon","coordinates":[[[[126.965386,35.094225],[126.965432,35.094198],[126.965369,35.09412],[126.965321,35.094151],[126.965386,35.094225]]]]}},{"type":"Feature","id":"0000196775361772526400000000","properties":{"id":"0000196775361772526400000000","pnu":"1221012000103060000","purpose":"기타"},"geometry":{"type":"MultiPolygon","coordinates":[[[[126.965434,35.094371],[126.965489,35.094289],[126.965458,35.094275],[126.965402,35.094355],[126.965434,35.094371]]]]}},{"type":"Feature","id":"0000196790561772566600000000","properties":{"id":"0000196790561772566600000000","pnu":"1221012000103060000","purpose":"기타"},"geometry":{"type":"MultiPolygon","coordinates":[[[[126.965568,35.094405],[126.965637,35.094412],[126.965655,35.094312],[126.965587,35.094307],[126.965568,35.094405]]]]}},{"type":"Feature","id":"0000196794921772612700000000","properties":{"id":"0000196794921772612700000000","pnu":"1221012000103070000","purpose":"기타"},"geometry":{"type":"MultiPolygon","coordinates":[[[[126.965658,35.094447],[126.96569,35.094358],[126.965664,35.094354],[126.965628,35.094439],[126.965658,35.094447]]]]}},{"type":"Feature","id":"0000196826051771160700000000","properties":{"id":"0000196826051771160700000000","pnu":"1221012000101930000","purpose":"기타"},"geometry":{"type":"MultiPolygon","coordinates":[[[[126.96602,35.093122],[126.96604,35.093082],[126.965984,35.093063],[126.965962,35.0931],[126.96602,35.093122]]]]}},{"type":"Feature","id":"0000196836681773178300000000","properties":{"id":"0000196836681773178300000000","pnu":"1221012000103600000","purpose":"기타"},"geometry":{"type":"MultiPolygon","coordinates":[[[[126.966111,35.094941],[126.966153,35.0949],[126.96612,35.09488],[126.966084,35.094924],[126.966111,35.094941]]]]}},{"type":"Feature","id":"0000196844091773116200000000","properties":{"id":"0000196844091773116200000000","pnu":"1221012000103620000","purpose":"기타"},"geometry":{"type":"MultiPolygon","coordinates":[[[[126.966175,35.094913],[126.966289,35.094867],[126.966236,35.094796],[126.96613,35.094827],[126.966122,35.09488],[126.966175,35.094913]]]]}},{"type":"Feature","id":"1957196576931776165900000000","properties":{"id":"1957196576931776165900000000","pnu":"1221012000104410002","year":1957,"purpose":"제2종 근린생활시설"},"geometry":{"type":"MultiPolygon","coordinates":[[[[126.963248,35.097662],[126.96328,35.097656],[126.963281,35.097621],[126.963316,35.097608],[126.963284,35.097548],[126.963246,35.097559],[126.963231,35.097614],[126.963248,35.097662]]]]}},{"type":"Feature","id":"1960196740741771846800000000","properties":{"id":"1960196740741771846800000000","pnu":"1221012000102330000","purpose":"단독주택"},"geometry":{"type":"MultiPolygon","coordinates":[[[[126.965028,35.093665],[126.964997,35.093711],[126.9651,35.093757],[126.965136,35.093708],[126.965028,35.093665]]]]}},{"type":"Feature","id":"1969196638011771684800000000","properties":{"id":"1969196638011771684800000000","pnu":"1221012000102450000","purpose":"단독주택"},"geometry":{"type":"MultiPolygon","coordinates":[[[[126.963946,35.093629],[126.964002,35.093598],[126.963933,35.0935],[126.963876,35.093527],[126.963946,35.093629]]]]}},{"type":"Feature","id":"1969196660991772361400000000","properties":{"id":"1969196660991772361400000000","pnu":"1221012000102860000","purpose":"단독주택"},"geometry":{"type":"MultiPolygon","coordinates":[[[[126.964183,35.094215],[126.964232,35.094204],[126.964197,35.094131],[126.964151,35.094145],[126.964183,35.094215]]]]}},{"type":"Feature","id":"1969196783061772755800000000","properties":{"id":"1969196783061772755800000000","pnu":"1221012000103670000","year":1969,"purpose":"기타"},"geometry":{"type":"MultiPolygon","coordinates":[[[[126.965499,35.094491],[126.965474,35.094535],[126.965562,35.094569],[126.965584,35.094523],[126.965499,35.094491]]]]}},{"type":"Feature","id":"1976196683551772869700000000","properties":{"id":"1976196683551772869700000000","pnu":"1221012000103800000","year":1976,"purpose":"단독주택"},"geometry":{"type":"MultiPolygon","coordinates":[[[[126.964389,35.094671],[126.9645,35.094647],[126.964486,35.094592],[126.964377,35.094617],[126.964389,35.094671]]]]}},{"type":"Feature","id":"1977196635011771946200000000","properties":{"id":"1977196635011771946200000000","pnu":"1221012000102900000","year":1977,"purpose":"단독주택","far":15.58,"floors":1,"structure":"블록구조"},"geometry":{"type":"MultiPolygon","coordinates":[[[[126.963929,35.093852],[126.963972,35.093804],[126.963885,35.093747],[126.96384,35.093796],[126.963929,35.093852]]]]}},{"type":"Feature","id":"1977196672041772502900000000","properties":{"id":"1977196672041772502900000000","pnu":"1221012000103810000","year":1977,"purpose":"단독주택"},"geometry":{"type":"MultiPolygon","coordinates":[[[[126.964268,35.094342],[126.964372,35.094309],[126.964357,35.094262],[126.964253,35.094292],[126.964268,35.094342]]]]}},{"type":"Feature","id":"1977196680381771736000000000","properties":{"id":"1977196680381771736000000000","pnu":"1221012000102390000","year":1977,"purpose":"단독주택","far":27.1,"floors":1,"structure":"블록구조"},"geometry":{"type":"MultiPolygon","coordinates":[[[[126.964332,35.093625],[126.964368,35.093662],[126.964476,35.093598],[126.964438,35.093558],[126.964332,35.093625]]]]}},{"type":"Feature","id":"1977196686361771907000000000","properties":{"id":"1977196686361771907000000000","pnu":"1221012000102370000","purpose":"기타"},"geometry":{"type":"MultiPolygon","coordinates":[[[[126.964415,35.093767],[126.964452,35.093792],[126.964517,35.093766],[126.964495,35.093735],[126.964415,35.093767]]]]}},{"type":"Feature","id":"1977196696521771903300000000","properties":{"id":"1977196696521771903300000000","pnu":"1221012000102370000","year":1977,"purpose":"단독주택","floors":1,"structure":"블록구조"},"geometry":{"type":"MultiPolygon","coordinates":[[[[126.964505,35.093739],[126.96459,35.093826],[126.964658,35.093784],[126.964569,35.093695],[126.964505,35.093739]]]]}},{"type":"Feature","id":"1977196721821771764100000000","properties":{"id":"1977196721821771764100000000","pnu":"1221012000102340000","year":1977,"purpose":"단독주택","far":18.39,"floors":1,"structure":"블록구조"},"geometry":{"type":"MultiPolygon","coordinates":[[[[126.964825,35.093561],[126.964765,35.093628],[126.964884,35.093707],[126.964957,35.093649],[126.964825,35.093561]]]]}},{"type":"Feature","id":"1977196745831772145300000000","properties":{"id":"1977196745831772145300000000","pnu":"1221012000102990000","purpose":"기타","structure":"일반목구조"},"geometry":{"type":"MultiPolygon","coordinates":[[[[126.965095,35.094054],[126.965192,35.093921],[126.965155,35.093903],[126.96505,35.09403],[126.965095,35.094054]]]]}},{"type":"Feature","id":"1977196757441772160800000000","properties":{"id":"1977196757441772160800000000","pnu":"1221012000102990000","year":1977,"purpose":"단독주택","far":25.69,"floors":1,"structure":"일반목구조"},"geometry":{"type":"MultiPolygon","coordinates":[[[[126.965206,35.093932],[126.965168,35.093975],[126.965282,35.094055],[126.965332,35.094009],[126.965206,35.093932]]]]}},{"type":"Feature","id":"1977196774941772229900000000","properties":{"id":"1977196774941772229900000000","pnu":"1221012000103010000","year":1977,"purpose":"단독주택","far":11.11,"floors":1,"structure":"블록구조"},"geometry":{"type":"MultiPolygon","coordinates":[[[[126.965456,35.094127],[126.965513,35.094094],[126.96543,35.093985],[126.965367,35.094019],[126.965456,35.094127]]]]}},{"type":"Feature","id":"1977196800221772501100000000","properties":{"id":"1977196800221772501100000000","pnu":"1221012000103070000","purpose":"단독주택","structure":"블록구조"},"geometry":{"type":"MultiPolygon","coordinates":[[[[126.965674,35.094287],[126.965684,35.09432],[126.965704,35.094319],[126.965708,35.094328],[126.965761,35.094316],[126.965742,35.094271],[126.965674,35.094287]]]]}},{"type":"Feature","id":"1977196809731772625900000000","properties":{"id":"1977196809731772625900000000","pnu":"1221012000103070000","year":1977,"purpose":"단독주택","floors":1,"structure":"블록구조"},"geometry":{"type":"MultiPolygon","coordinates":[[[[126.965746,35.094445],[126.965811,35.094482],[126.965897,35.09438],[126.965836,35.094342],[126.965746,35.094445]]]]}},{"type":"Feature","id":"1979196609941772128400000000","properties":{"id":"1979196609941772128400000000","pnu":"1221012000102810000","purpose":"기타"},"geometry":{"type":"MultiPolygon","coordinates":[[[[126.963622,35.093984],[126.963644,35.093982],[126.963641,35.093944],[126.963618,35.093945],[126.963622,35.093984]]]]}},{"type":"Feature","id":"1979196621101772168000000000","properties":{"id":"1979196621101772168000000000","pnu":"1221012000102810000","year":1979,"purpose":"단독주택"},"geometry":{"type":"MultiPolygon","coordinates":[[[[126.963805,35.094021],[126.963792,35.093965],[126.9637,35.093981],[126.963715,35.094032],[126.963805,35.094021]]]]}},{"type":"Feature","id":"1981196601831771393000000000","properties":{"id":"1981196601831771393000000000","pnu":"1221012000102670000","year":1981,"purpose":"단독주택"},"geometry":{"type":"MultiPolygon","coordinates":[[[[126.963573,35.093336],[126.963589,35.09331],[126.963515,35.093269],[126.96349,35.093284],[126.963573,35.093336]]]]}},{"type":"Feature","id":"1982196678851771565500000000","properties":{"id":"1982196678851771565500000000","pnu":"1221012000102400000","year":1982,"purpose":"제2종 근린생활시설","far":31.62,"floors":1,"structure":"일반목구조"},"geometry":{"type":"MultiPolygon","coordinates":[[[[126.964351,35.093509],[126.964412,35.093513],[126.964423,35.093404],[126.964362,35.0934],[126.964351,35.093509]]]]}},{"type":"Feature","id":"1983196615731771319400000000","properties":{"id":"1983196615731771319400000000","pnu":"1221012000102480000","year":1983,"purpose":"단독주택"},"geometry":{"type":"MultiPolygon","coordinates":[[[[126.963698,35.093283],[126.963735,35.093197],[126.963694,35.093185],[126.963654,35.093273],[126.963698,35.093283]]]]}},{"type":"Feature","id":"1983196653411771383700000000","properties":{"id":"1983196653411771383700000000","pnu":"1221012000102250000","year":1983,"purpose":"단독주택"},"geometry":{"type":"MultiPolygon","coordinates":[[[[126.964131,35.093343],[126.964152,35.093265],[126.964078,35.093249],[126.964062,35.093297],[126.964086,35.093303],[126.964081,35.093329],[126.964131,35.093343]]]]}},{"type":"Feature","id":"1983196663111771979100000000","properties":{"id":"1983196663111771979100000000","pnu":"1221012000102930000","year":1983,"purpose":"단독주택","floors":1,"structure":"일반목구조"},"geometry":{"type":"MultiPolygon","coordinates":[[[[126.964209,35.093773],[126.964176,35.093875],[126.964222,35.093884],[126.964251,35.093782],[126.964209,35.093773]]]]}},{"type":"Feature","id":"1983196715231772777100000000","properties":{"id":"1983196715231772777100000000","pnu":"1221012000103740000","year":1983,"purpose":"단독주택","far":36.05,"floors":1,"structure":"일반목구조"},"geometry":{"type":"MultiPolygon","coordinates":[[[[126.96483,35.094485],[126.964705,35.094561],[126.964746,35.094612],[126.964864,35.094536],[126.96483,35.094485]]]]}},{"type":"Feature","id":"1984196629821771113200000000","properties":{"id":"1984196629821771113200000000","pnu":"1221012000102490000","year":1984,"purpose":"단독주택","far":20.95,"floors":1,"structure":"벽돌구조"},"geometry":{"type":"MultiPolygon","coordinates":[[[[126.963796,35.093036],[126.963785,35.093064],[126.963804,35.093069],[126.963801,35.093076],[126.963858,35.09309],[126.963855,35.093098],[126.96389,35.093108],[126.96392,35.093025],[126.963893,35.093009],[126.963879,35.093006],[126.963873,35.093023],[126.963806,35.093008],[126.96381,35.093001],[126.963787,35.092995],[126.963773,35.093031],[126.963796,35.093036]]]]}},{"type":"Feature","id":"1984196658391772613500000000","properties":{"id":"1984196658391772613500000000","pnu":"1221012000103830000","purpose":"기타","structure":"블록구조"},"geometry":{"type":"MultiPolygon","coordinates":[[[[126.964103,35.094423],[126.964152,35.094424],[126.964224,35.094401],[126.964206,35.094368],[126.964141,35.094393],[126.9641,35.094397],[126.964103,35.094423]]]]}},{"type":"Feature","id":"1984196661901772703200000000","properties":{"id":"1984196661901772703200000000","pnu":"1221012000103830000","year":1984,"purpose":"단독주택","floors":1,"structure":"일반목구조"},"geometry":{"type":"MultiPolygon","coordinates":[[[[126.964146,35.094544],[126.964286,35.094496],[126.964262,35.094422],[126.964113,35.094467],[126.964146,35.094544]]]]}},{"type":"Feature","id":"1991196672881771894600000000","properties":{"id":"1991196672881771894600000000","pnu":"1221012000102930000","purpose":"단독주택","floors":1,"structure":"벽돌구조"},"geometry":{"type":"MultiPolygon","coordinates":[[[[126.964303,35.093783],[126.964358,35.093767],[126.96434,35.093724],[126.964286,35.093738],[126.964303,35.093783]]]]}},{"type":"Feature","id":"1991196675501771994800000000","properties":{"id":"1991196675501771994800000000","pnu":"1221012000102930000","year":1991,"purpose":"단독주택","far":31.95,"floors":2,"structure":"벽돌구조"},"geometry":{"type":"MultiPolygon","coordinates":[[[[126.964273,35.093849],[126.96439,35.093895],[126.964419,35.093852],[126.964406,35.093847],[126.964413,35.093828],[126.964334,35.093796],[126.964323,35.093809],[126.964301,35.093804],[126.964273,35.093849]]]]}},{"type":"Feature","id":"1992196651631771952400000000","properties":{"id":"1992196651631771952400000000","pnu":"1221012000102440000","year":1992,"purpose":"단독주택","far":36.08,"floors":2,"structure":"벽돌구조"},"geometry":{"type":"MultiPolygon","coordinates":[[[[126.964134,35.093858],[126.964159,35.093797],[126.964122,35.093786],[126.964125,35.093777],[126.964041,35.093755],[126.964018,35.093815],[126.964134,35.093858]]]]}},{"type":"Feature","id":"1992196658881771977400000000","properties":{"id":"1992196658881771977400000000","pnu":"1221012000102440000","purpose":"기타","structure":"벽돌구조"},"geometry":{"type":"MultiPolygon","coordinates":[[[[126.964165,35.093875],[126.964199,35.093783],[126.964176,35.093778],[126.964136,35.093867],[126.964165,35.093875]]]]}},{"type":"Feature","id":"1993196641361773053400000000","properties":{"id":"1993196641361773053400000000","pnu":"1221012000103870000","year":1993,"purpose":"단독주택","far":7.14,"floors":1,"structure":"블록구조"},"geometry":{"type":"MultiPolygon","coordinates":[[[[126.963932,35.094792],[126.963932,35.094814],[126.964016,35.094806],[126.964015,35.094779],[126.963932,35.094792]]]]}},{"type":"Feature","id":"1994196638051772245600000000","properties":{"id":"1994196638051772245600000000","pnu":"1221012000102890000","year":1994,"purpose":"단독주택","far":34.09,"floors":1,"structure":"벽돌구조"},"geometry":{"type":"MultiPolygon","coordinates":[[[[126.963868,35.094109],[126.96391,35.094111],[126.963911,35.094122],[126.963976,35.094123],[126.963976,35.094113],[126.964012,35.094112],[126.964015,35.094086],[126.964021,35.094086],[126.964022,35.094045],[126.964004,35.094046],[126.964002,35.094031],[126.963939,35.094033],[126.963938,35.094011],[126.963872,35.094012],[126.963868,35.094109]]]]}},{"type":"Feature","id":"1994196649211772221600000000","properties":{"id":"1994196649211772221600000000","pnu":"1221012000102890000","purpose":"단독주택","structure":"벽돌구조"},"geometry":{"type":"MultiPolygon","coordinates":[[[[126.96406,35.094085],[126.9641,35.094022],[126.964078,35.094015],[126.964073,35.094022],[126.964056,35.094017],[126.964026,35.094069],[126.96406,35.094085]]]]}},{"type":"Feature","id":"1994196673051771350200000000","properties":{"id":"1994196673051771350200000000","pnu":"1221012000102270000","year":1994,"purpose":"단독주택","far":21.33,"floors":1,"structure":"벽돌구조"},"geometry":{"type":"MultiPolygon","coordinates":[[[[126.964329,35.093347],[126.964407,35.093233],[126.964304,35.093182],[126.964267,35.093237],[126.96428,35.093246],[126.964255,35.093288],[126.964264,35.093292],[126.964257,35.093307],[126.964329,35.093347]]]]}},{"type":"Feature","id":"1994196684061771833200000000","properties":{"id":"1994196684061771833200000000","pnu":"1221012000102380000","year":1994,"purpose":"단독주택","far":59.51,"floors":1,"structure":"벽돌구조"},"geometry":{"type":"MultiPolygon","coordinates":[[[[126.964406,35.093753],[126.96444,35.093741],[126.964445,35.093748],[126.964499,35.09372],[126.964494,35.093713],[126.964515,35.093701],[126.964475,35.093636],[126.964429,35.093653],[126.964434,35.093663],[126.964368,35.093691],[126.964406,35.093753]]]]}},{"type":"Feature","id":"1994196805061772926900000000","properties":{"id":"1994196805061772926900000000","pnu":"1221012000103650000","year":1994,"purpose":"단독주택","far":41.38,"floors":1,"structure":"벽돌구조"},"geometry":{"type":"MultiPolygon","coordinates":[[[[126.965781,35.094755],[126.965861,35.094666],[126.965773,35.094613],[126.965727,35.094659],[126.965717,35.094654],[126.965677,35.094698],[126.965781,35.094755]]]]}},{"type":"Feature","id":"1996196697111772489000000000","properties":{"id":"1996196697111772489000000000","pnu":"1221012000103750000","year":1996,"purpose":"기타","far":46.53,"floors":2,"structure":"벽돌구조"},"geometry":{"type":"MultiPolygon","coordinates":[[[[126.964559,35.094335],[126.964627,35.094323],[126.964617,35.094246],[126.964547,35.094252],[126.964559,35.094335]]]]}},{"type":"Feature","id":"1996196706061772536800000000","properties":{"id":"1996196706061772536800000000","pnu":"1221012000103750000","year":1996,"purpose":"기타","far":46.53,"floors":2,"structure":"벽돌구조"},"geometry":{"type":"MultiPolygon","coordinates":[[[[126.964626,35.094307],[126.964638,35.094368],[126.964743,35.094357],[126.964734,35.094297],[126.964626,35.094307]]]]}},{"type":"Feature","id":"1996196761751772412100000000","properties":{"id":"1996196761751772412100000000","pnu":"1221012000103000000","year":1996,"purpose":"단독주택","far":30.89,"floors":1,"structure":"벽돌구조"},"geometry":{"type":"MultiPolygon","coordinates":[[[[126.965382,35.094223],[126.965263,35.094149],[126.965209,35.094208],[126.965269,35.094245],[126.965262,35.094257],[126.965321,35.094294],[126.965382,35.094223]]]]}},{"type":"Feature","id":"1997196667671772865600000000","properties":{"id":"1997196667671772865600000000","pnu":"1221012000103850000","year":1997,"purpose":"단독주택","far":24.71,"floors":1,"structure":"벽돌구조"},"geometry":{"type":"MultiPolygon","coordinates":[[[[126.964144,35.094673],[126.964337,35.094686],[126.964348,35.094608],[126.964337,35.094596],[126.96434,35.094549],[126.964274,35.094544],[126.964266,35.094592],[126.964218,35.094619],[126.96415,35.094616],[126.964144,35.094673]]]]}},{"type":"Feature","id":"1997196681951772267900000000","properties":{"id":"1997196681951772267900000000","pnu":"1221012000102940000","purpose":"기타","floors":1,"structure":"벽돌구조"},"geometry":{"type":"MultiPolygon","coordinates":[[[[126.964392,35.09415],[126.964464,35.09414],[126.964453,35.094032],[126.964376,35.094039],[126.964392,35.09415]]]]}},{"type":"Feature","id":"1997196695481772266800000000","properties":{"id":"1997196695481772266800000000","pnu":"1221012000102940000","year":1997,"purpose":"제2종 근린생활시설","far":51.97,"floors":2,"structure":"철근콘크리트구조"},"geometry":{"type":"MultiPolygon","coordinates":[[[[126.964486,35.094141],[126.964663,35.09412],[126.964654,35.094036],[126.964473,35.094058],[126.964486,35.094141]]]]}},{"type":"Feature","id":"1997196736831772656700000000","properties":{"id":"1997196736831772656700000000","pnu":"1221012000103710000","year":1997,"purpose":"단독주택","far":22.05,"floors":1,"structure":"벽돌구조"},"geometry":{"type":"MultiPolygon","coordinates":[[[[126.965091,35.094485],[126.965073,35.094385],[126.96499,35.094388],[126.96499,35.094396],[126.964955,35.094397],[126.964966,35.094489],[126.965001,35.094488],[126.965001,35.094497],[126.965091,35.094485]]]]}},{"type":"Feature","id":"1997196827361772362600000000","properties":{"id":"1997196827361772362600000000","pnu":"1221012000103130000","year":1997,"purpose":"단독주택","far":30.93,"floors":2,"structure":"석구조"},"geometry":{"type":"MultiPolygon","coordinates":[[[[126.965902,35.094141],[126.965952,35.094206],[126.965969,35.0942],[126.965983,35.094221],[126.965988,35.094218],[126.96601,35.094245],[126.966017,35.094242],[126.966046,35.094278],[126.966108,35.094242],[126.96608,35.094208],[126.966098,35.094193],[126.966083,35.094178],[126.966096,35.09417],[126.966038,35.094089],[126.965999,35.094104],[126.965991,35.094095],[126.965902,35.094141]]]]}},{"type":"Feature","id":"1998196658651771423400000000","properties":{"id":"1998196658651771423400000000","pnu":"1221012000102410000","purpose":"기타","structure":"벽돌구조"},"geometry":{"type":"MultiPolygon","coordinates":[[[[126.964173,35.093357],[126.964198,35.093312],[126.964151,35.093303],[126.964137,35.093343],[126.964173,35.093357]]]]}},{"type":"Feature","id":"1998196664101771507900000000","properties":{"id":"1998196664101771507900000000","pnu":"1221012000102410000","year":1998,"purpose":"단독주택","far":40.82,"floors":1,"structure":"벽돌구조"},"geometry":{"type":"MultiPolygon","coordinates":[[[[126.964166,35.093456],[126.964235,35.093476],[126.96424,35.093468],[126.964261,35.093472],[126.964285,35.093371],[126.964273,35.093346],[126.964197,35.093335],[126.96417,35.093387],[126.964178,35.093389],[126.964166,35.093456]]]]}},{"type":"Feature","id":"1998196702151772709000000000","properties":{"id":"1998196702151772709000000000","pnu":"1221012000103740000","purpose":"기타","structure":"벽돌구조"},"geometry":{"type":"MultiPolygon","coordinates":[[[[126.964639,35.094525],[126.964671,35.094512],[126.964647,35.094451],[126.964613,35.094462],[126.964639,35.094525]]]]}},{"type":"Feature","id":"1998196747581772640800000000","properties":{"id":"1998196747581772640800000000","pnu":"1221012000103700000","year":1998,"purpose":"단독주택","far":52.9,"floors":1,"structure":"벽돌구조"},"geometry":{"type":"MultiPolygon","coordinates":[[[[126.96518,35.094357],[126.965101,35.094356],[126.965097,35.094492],[126.965184,35.094495],[126.96518,35.094357]]]]}},{"type":"Feature","id":"1999196641311772053800000000","properties":{"id":"1999196641311772053800000000","pnu":"1221012000102910000","purpose":"기타","structure":"벽돌구조"},"geometry":{"type":"MultiPolygon","coordinates":[[[[126.963918,35.093954],[126.96399,35.093958],[126.964031,35.093842],[126.963981,35.093825],[126.963937,35.093888],[126.963918,35.093954]]]]}},{"type":"Feature","id":"1999196651681772078400000000","properties":{"id":"1999196651681772078400000000","pnu":"1221012000102910000","year":1999,"purpose":"단독주택","far":51.99,"floors":1,"structure":"벽돌구조"},"geometry":{"type":"MultiPolygon","coordinates":[[[[126.964126,35.093987],[126.964154,35.09391],[126.964146,35.093907],[126.964152,35.09388],[126.964101,35.093869],[126.964102,35.093862],[126.964049,35.093851],[126.964026,35.093905],[126.964041,35.093909],[126.964027,35.093949],[126.96404,35.093953],[126.964036,35.093964],[126.964126,35.093987]]]]}},{"type":"Feature","id":"1999196700081772016200000000","properties":{"id":"1999196700081772016200000000","pnu":"1221012000102350000","year":1999,"purpose":"단독주택"},"geometry":{"type":"MultiPolygon","coordinates":[[[[126.964652,35.093842],[126.964615,35.093832],[126.964586,35.093885],[126.964615,35.093892],[126.964619,35.093886],[126.96463,35.093889],[126.964652,35.093842]]]]}},{"type":"Feature","id":"1999196716541771952400000000","properties":{"id":"1999196716541771952400000000","pnu":"1221012000102350000","year":1999,"purpose":"단독주택"},"geometry":{"type":"MultiPolygon","coordinates":[[[[126.964713,35.093805],[126.964759,35.093839],[126.964767,35.093832],[126.964799,35.093857],[126.96481,35.093846],[126.964834,35.093861],[126.964874,35.09382],[126.96487,35.093814],[126.964883,35.093801],[126.964824,35.093761],[126.96481,35.093771],[126.964774,35.093748],[126.964713,35.093805]]]]}},{"type":"Feature","id":"2000196639991772439500000000","properties":{"id":"2000196639991772439500000000","pnu":"1221012000102850000","year":2000,"purpose":"단독주택","far":56.47,"floors":1,"structure":"벽돌구조"},"geometry":{"type":"MultiPolygon","coordinates":[[[[126.963939,35.094299],[126.964045,35.094269],[126.963961,35.09418],[126.963918,35.094204],[126.963923,35.094208],[126.963891,35.094228],[126.963902,35.09424],[126.963893,35.094249],[126.963939,35.094299]]]]}},{"type":"Feature","id":"2000196668921773020000000000","properties":{"id":"2000196668921773020000000000","pnu":"1221012000103860000","year":2000,"purpose":"단독주택","far":49.62,"floors":1,"structure":"벽돌구조"},"geometry":{"type":"MultiPolygon","coordinates":[[[[126.964175,35.09479],[126.96436,35.094812],[126.964367,35.094737],[126.964304,35.094731],[126.964304,35.094736],[126.964216,35.094725],[126.964213,35.094743],[126.964187,35.09474],[126.964175,35.09479]]]]}},{"type":"Feature","id":"2002196783381772335400000000","properties":{"id":"2002196783381772335400000000","pnu":"1221012000103050000","purpose":"기타","structure":"벽돌구조"},"geometry":{"type":"MultiPolygon","coordinates":[[[[126.965495,35.094167],[126.965525,35.094186],[126.965571,35.094134],[126.965541,35.094116],[126.965495,35.094167]]]]}},{"type":"Feature","id":"2002196794331772360900000000","properties":{"id":"2002196794331772360900000000","pnu":"1221012000103050000","year":2002,"purpose":"단독주택","far":30.46,"floors":1,"structure":"철근콘크리트구조"},"geometry":{"type":"MultiPolygon","coordinates":[[[[126.965555,35.094189],[126.965644,35.094244],[126.965685,35.09421],[126.965712,35.094221],[126.965753,35.094167],[126.965639,35.094098],[126.965555,35.094189]]]]}},{"type":"Feature","id":"2006196517311772526500000000","properties":{"id":"2006196517311772526500000000","pnu":"1221012000104220001","year":2006,"purpose":"단독주택","far":29.56,"floors":1,"structure":"철근콘크리트구조"},"geometry":{"type":"MultiPolygon","coordinates":[[[[126.962599,35.094397],[126.962707,35.094344],[126.962671,35.094294],[126.962658,35.094301],[126.96264,35.094275],[126.962636,35.094277],[126.962618,35.094252],[126.962599,35.094261],[126.962595,35.094255],[126.96253,35.094287],[126.962569,35.094341],[126.962561,35.094345],[126.962599,35.094397]]]]}},{"type":"Feature","id":"2006196518911772001400000000","properties":{"id":"2006196518911772001400000000","pnu":"1221012000104200000","year":2006,"purpose":"단독주택","far":28.1904,"floors":1,"structure":"경량철골구조"},"geometry":{"type":"MultiPolygon","coordinates":[[[[126.962727,35.093874],[126.962647,35.093778],[126.96262,35.093791],[126.962607,35.09378],[126.962542,35.093824],[126.962607,35.093909],[126.962645,35.093918],[126.962727,35.093874]]]]}},{"type":"Feature","id":"2006196564901771016100000000","properties":{"id":"2006196564901771016100000000","pnu":"1221012000102610000","year":2006,"purpose":"단독주택","far":11.32,"floors":2,"structure":"일반목구조"},"geometry":{"type":"MultiPolygon","coordinates":[[[[126.9632,35.093001],[126.963157,35.092887],[126.963095,35.092903],[126.963114,35.092954],[126.963078,35.092963],[126.963102,35.093026],[126.9632,35.093001]]]]}},{"type":"Feature","id":"2006196854561772567400000000","properties":{"id":"2006196854561772567400000000","pnu":"1221012000103220000","year":2006,"purpose":"단독주택"},"geometry":{"type":"MultiPolygon","coordinates":[[[[126.966356,35.094354],[126.966289,35.094332],[126.966272,35.094366],[126.966339,35.094389],[126.966356,35.094354]]]]}},{"type":"Feature","id":"2006196858311772467400000000","properties":{"id":"2006196858311772467400000000","pnu":"1221012000103220000","year":2006,"purpose":"단독주택","far":39.91,"floors":1,"structure":"경량철골구조"},"geometry":{"type":"MultiPolygon","coordinates":[[[[126.966321,35.094201],[126.966271,35.094288],[126.966318,35.094306],[126.96631,35.09432],[126.966369,35.094343],[126.966402,35.094286],[126.966423,35.094295],[126.966448,35.094252],[126.966321,35.094201]]]]}},{"type":"Feature","id":"2007196774111771984800000000","properties":{"id":"2007196774111771984800000000","pnu":"1221012000103020000","year":2007,"purpose":"단독주택","floors":1,"structure":"벽돌구조"},"geometry":{"type":"MultiPolygon","coordinates":[[[[126.965484,35.093875],[126.9655,35.093818],[126.96538,35.093795],[126.965364,35.093851],[126.965484,35.093875]]]]}},{"type":"Feature","id":"2007196785641772087300000000","properties":{"id":"2007196785641772087300000000","pnu":"1221012000103020000","year":2007,"purpose":"단독주택","far":23.71,"floors":1,"structure":"벽돌구조"},"geometry":{"type":"MultiPolygon","coordinates":[[[[126.96564,35.093913],[126.965606,35.093894],[126.965618,35.093879],[126.965552,35.093842],[126.965511,35.093891],[126.965519,35.093895],[126.96549,35.09393],[126.965505,35.093938],[126.965495,35.093951],[126.965511,35.09396],[126.965491,35.093984],[126.965542,35.094012],[126.965562,35.093988],[126.965572,35.093994],[126.96564,35.093913]]]]}},{"type":"Feature","id":"2008196616881772540400000000","properties":{"id":"2008196616881772540400000000","pnu":"1221012000102840000","year":2008,"purpose":"단독주택","far":3.1415,"floors":1,"structure":"벽돌구조"},"geometry":{"type":"MultiPolygon","coordinates":[[[[126.963722,35.094349],[126.96373,35.094334],[126.963692,35.094321],[126.963685,35.094336],[126.963722,35.094349]]]]}},{"type":"Feature","id":"2008196627031772479800000000","properties":{"id":"2008196627031772479800000000","pnu":"1221012000102840000","year":2008,"purpose":"단독주택","far":41,"floors":1,"structure":"벽돌구조"},"geometry":{"type":"MultiPolygon","coordinates":[[[[126.963872,35.094237],[126.963775,35.094252],[126.963778,35.094264],[126.963736,35.09427],[126.963744,35.094307],[126.963779,35.094302],[126.963783,35.094319],[126.963852,35.094308],[126.963853,35.094315],[126.963889,35.09431],[126.963872,35.094237]]]]}},{"type":"Feature","id":"2008196684071771390800000000","properties":{"id":"2008196684071771390800000000","pnu":"1221012000102400000","year":2008,"purpose":"기타","far":2.6377,"floors":1,"structure":"경량철골구조"},"geometry":{"type":"MultiPolygon","coordinates":[[[[126.964409,35.0933],[126.964462,35.093325],[126.96448,35.093298],[126.964427,35.093274],[126.964409,35.0933]]]]}},{"type":"Feature","id":"2008196690261771577300000000","properties":{"id":"2008196690261771577300000000","pnu":"1221012000102400000","year":2008,"purpose":"기타","far":2.9308,"floors":1,"structure":"경량철골구조"},"geometry":{"type":"MultiPolygon","coordinates":[[[[126.964466,35.093459],[126.964535,35.093501],[126.964559,35.093476],[126.96449,35.093433],[126.964466,35.093459]]]]}},{"type":"Feature","id":"2008196759181772649500000000","properties":{"id":"2008196759181772649500000000","pnu":"1221012000103690000","year":2008,"purpose":"단독주택","far":64.88,"floors":2,"structure":"일반목구조"},"geometry":{"type":"MultiPolygon","coordinates":[[[[126.965216,35.094483],[126.965244,35.09449],[126.96525,35.094472],[126.965269,35.094477],[126.965274,35.094465],[126.96533,35.094478],[126.965344,35.094439],[126.965342,35.094438],[126.965342,35.094439],[126.96533,35.094437],[126.965338,35.094416],[126.965294,35.094406],[126.965297,35.094398],[126.965218,35.094379],[126.965215,35.094387],[126.965214,35.094387],[126.965198,35.094435],[126.96523,35.094443],[126.965222,35.094466],[126.965222,35.094466],[126.965216,35.094483]]]]}},{"type":"Feature","id":"2008196830001772770600000000","properties":{"id":"2008196830001772770600000000","pnu":"1221012000103080000","year":2008,"purpose":"단독주택","far":25.57,"floors":3,"structure":"철근콘크리트구조"},"geometry":{"type":"MultiPolygon","coordinates":[[[[126.965924,35.094525],[126.966036,35.094587],[126.966027,35.094598],[126.966065,35.094619],[126.966153,35.094512],[126.966107,35.094486],[126.966059,35.094544],[126.966049,35.094538],[126.96606,35.094524],[126.966037,35.094511],[126.966025,35.094525],[126.965955,35.094487],[126.965924,35.094525]]]]}},{"type":"Feature","id":"2009196795451772213400000000","properties":{"id":"2009196795451772213400000000","pnu":"1221012000103040000","year":2009,"purpose":"단독주택","far":51.54,"floors":1,"structure":"일반철골구조"},"geometry":{"type":"MultiPolygon","coordinates":[[[[126.965615,35.094054],[126.965604,35.094066],[126.96567,35.094108],[126.965742,35.094033],[126.965648,35.093973],[126.965629,35.093993],[126.96562,35.094012],[126.965624,35.094015],[126.965616,35.094024],[126.965605,35.094048],[126.965615,35.094054]]]]}},{"type":"Feature","id":"2013196695371771499400000000","properties":{"id":"2013196695371771499400000000","pnu":"1221012000102290000","year":2013,"purpose":"제2종 근린생활시설","far":48.09,"floors":1,"structure":"경량철골구조"},"geometry":{"type":"MultiPolygon","coordinates":[[[[126.964638,35.093413],[126.964558,35.093338],[126.964499,35.093381],[126.964578,35.093456],[126.964638,35.093413]]]]}},{"type":"Feature","id":"2013196701701771558900000000","properties":{"id":"2013196701701771558900000000","pnu":"1221012000102290000","year":2013,"purpose":"제2종 근린생활시설","far":2.04,"floors":1,"structure":"경량철골구조"},"geometry":{"type":"MultiPolygon","coordinates":[[[[126.964657,35.093447],[126.964645,35.093436],[126.96462,35.093455],[126.964631,35.093466],[126.964657,35.093447]]]]}}]}
