{"type":"FeatureCollection","features":[{"type":"Feature","id":"0000197140201807167100000000","properties":{"id":"0000197140201807167100000000","pnu":"1221012100201510000","purpose":"기타"},"geometry":{"type":"MultiPolygon","coordinates":[[[[126.969442,35.125599],[126.969496,35.125536],[126.969424,35.125499],[126.969373,35.125557],[126.969442,35.125599]]]]}},{"type":"Feature","id":"0000197143801809804500000000","properties":{"id":"0000197143801809804500000000","pnu":"1221012100108340000","purpose":"기타"},"geometry":{"type":"MultiPolygon","coordinates":[[[[126.969448,35.127989],[126.96954,35.127886],[126.969495,35.127863],[126.969407,35.127963],[126.969448,35.127989]]]]}},{"type":"Feature","id":"0000197144681809477800000000","properties":{"id":"0000197144681809477800000000","pnu":"1221012100100530000","purpose":"기타"},"geometry":{"type":"MultiPolygon","coordinates":[[[[126.96948,35.127673],[126.969526,35.127655],[126.969486,35.127589],[126.969439,35.127607],[126.96948,35.127673]]]]}},{"type":"Feature","id":"0000197149351809632700000000","properties":{"id":"0000197149351809632700000000","pnu":"1221012100108340000","purpose":"기타"},"geometry":{"type":"MultiPolygon","coordinates":[[[[126.969602,35.127768],[126.969578,35.127725],[126.969466,35.127771],[126.969489,35.127817],[126.969602,35.127768]]]]}},{"type":"Feature","id":"0000197153091809487500000000","properties":{"id":"0000197153091809487500000000","pnu":"1221012100100530000","purpose":"기타"},"geometry":{"type":"MultiPolygon","coordinates":[[[[126.969517,35.127626],[126.969542,35.127679],[126.969633,35.127652],[126.969607,35.127601],[126.969517,35.127626]]]]}},{"type":"Feature","id":"0000197278591807668100000000","properties":{"id":"0000197278591807668100000000","pnu":"1221012100201450001","purpose":"기타"},"geometry":{"type":"MultiPolygon","coordinates":[[[[126.97103,35.126038],[126.971038,35.126006],[126.970877,35.125962],[126.970863,35.125992],[126.97103,35.126038]]]]}},{"type":"Feature","id":"0000197295381807725800000000","properties":{"id":"0000197295381807725800000000","pnu":"1221012100201450001","purpose":"기타"},"geometry":{"type":"MultiPolygon","coordinates":[[[[126.971136,35.126097],[126.971172,35.126017],[126.971131,35.126011],[126.971105,35.126089],[126.971136,35.126097]]]]}},{"type":"Feature","id":"0000197311521808724600000000","properties":{"id":"0000197311521808724600000000","pnu":"1221012100100500000","purpose":"제2종 근린생활시설","far":16.4,"floors":1,"structure":"블록구조"},"geometry":{"type":"MultiPolygon","coordinates":[[[[126.971357,35.127001],[126.971388,35.126952],[126.971264,35.126904],[126.971241,35.126952],[126.971357,35.127001]]]]}},{"type":"Feature","id":"0000197312951808795900000000","properties":{"id":"0000197312951808795900000000","pnu":"1221012100108340000","purpose":"기타"},"geometry":{"type":"MultiPolygon","coordinates":[[[[126.971293,35.12702],[126.971323,35.127042],[126.971363,35.127016],[126.971354,35.127001],[126.971327,35.126993],[126.971293,35.12702]]]]}},{"type":"Feature","id":"0000197321471803615800000000","properties":{"id":"0000197321471803615800000000","pnu":"1221012100100140000","purpose":"기타"},"geometry":{"type":"MultiPolygon","coordinates":[[[[126.971447,35.122405],[126.971501,35.122352],[126.971401,35.12229],[126.971346,35.122341],[126.971447,35.122405]]]]}},{"type":"Feature","id":"0000197343171808123000000000","properties":{"id":"0000197343171808123000000000","pnu":"1221012100201430001","purpose":"기타"},"geometry":{"type":"MultiPolygon","coordinates":[[[[126.97172,35.126478],[126.971742,35.126435],[126.971717,35.126426],[126.971736,35.126385],[126.971614,35.126346],[126.971569,35.126421],[126.97172,35.126478]]]]}},{"type":"Feature","id":"0000197348061807165700000000","properties":{"id":"0000197348061807165700000000","pnu":"1221012100100200002","purpose":"기타"},"geometry":{"type":"MultiPolygon","coordinates":[[[[126.971693,35.125503],[126.971653,35.125543],[126.97174,35.125592],[126.971775,35.125551],[126.971693,35.125503]]]]}},{"type":"Feature","id":"0000197352841807517800000000","properties":{"id":"0000197352841807517800000000","pnu":"1221012100100200002","purpose":"기타"},"geometry":{"type":"MultiPolygon","coordinates":[[[[126.971826,35.125901],[126.971805,35.125846],[126.971751,35.12582],[126.971709,35.125817],[126.971719,35.125863],[126.971735,35.125863],[126.971751,35.125912],[126.971826,35.125901]]]]}},{"type":"Feature","id":"0000197366061807792400000000","properties":{"id":"0000197366061807792400000000","pnu":"1221012100100440002","purpose":"기타"},"geometry":{"type":"MultiPolygon","coordinates":[[[[126.97187,35.126158],[126.971923,35.126168],[126.971956,35.126065],[126.971898,35.126058],[126.97187,35.126158]]]]}},{"type":"Feature","id":"0000197376821807024500000000","properties":{"id":"0000197376821807024500000000","pnu":"1221012100100210004","purpose":"기타"},"geometry":{"type":"MultiPolygon","coordinates":[[[[126.972069,35.12544],[126.972071,35.125406],[126.971992,35.125401],[126.971988,35.125434],[126.972069,35.12544]]]]}},{"type":"Feature","id":"0000197380091807231400000000","properties":{"id":"0000197380091807231400000000","pnu":"1221012100100200002","purpose":"기타"},"geometry":{"type":"MultiPolygon","coordinates":[[[[126.972009,35.125632],[126.972118,35.125635],[126.972121,35.12558],[126.972016,35.125578],[126.972009,35.125632]]]]}},{"type":"Feature","id":"0000197381371806907800000000","properties":{"id":"0000197381371806907800000000","pnu":"1221012100100210004","purpose":"기타"},"geometry":{"type":"MultiPolygon","coordinates":[[[[126.972022,35.125381],[126.972082,35.125395],[126.972139,35.125249],[126.972077,35.125236],[126.972022,35.125381]]]]}},{"type":"Feature","id":"0000197388141806899500000000","properties":{"id":"0000197388141806899500000000","pnu":"1221012100100200001","purpose":"기타"},"geometry":{"type":"MultiPolygon","coordinates":[[[[126.972136,35.125322],[126.972157,35.125328],[126.972174,35.125294],[126.97215,35.125287],[126.972136,35.125322]]]]}},{"type":"Feature","id":"0000197390171807006000000000","properties":{"id":"0000197390171807006000000000","pnu":"1221012100100200001","purpose":"기타"},"geometry":{"type":"MultiPolygon","coordinates":[[[[126.972116,35.125394],[126.972138,35.125441],[126.972235,35.125414],[126.972216,35.125365],[126.972116,35.125394]]]]}},{"type":"Feature","id":"0000197393371807287500000000","properties":{"id":"0000197393371807287500000000","pnu":"1221012100108350000","purpose":"기타"},"geometry":{"type":"MultiPolygon","coordinates":[[[[126.972201,35.125697],[126.972256,35.125638],[126.97222,35.12562],[126.972169,35.125671],[126.972201,35.125697]]]]}},{"type":"Feature","id":"0000197404151807271700000000","properties":{"id":"0000197404151807271700000000","pnu":"1221012100201430001","purpose":"기타"},"geometry":{"type":"MultiPolygon","coordinates":[[[[126.972271,35.12569],[126.972322,35.125711],[126.972389,35.125596],[126.972338,35.125575],[126.972271,35.12569]]]]}},{"type":"Feature","id":"0000197415491803321700000000","properties":{"id":"0000197415491803321700000000","pnu":"1221012100202280000","purpose":"기타"},"geometry":{"type":"MultiPolygon","coordinates":[[[[126.972515,35.122188],[126.972578,35.122103],[126.97248,35.122048],[126.97251,35.122002],[126.972433,35.121964],[126.972332,35.122102],[126.972515,35.122188]]]]}},{"type":"Feature","id":"0000197419641806399500000000","properties":{"id":"0000197419641806399500000000","pnu":"1221012100100020004","purpose":"기타"},"geometry":{"type":"MultiPolygon","coordinates":[[[[126.972406,35.124877],[126.972561,35.124918],[126.972585,35.124831],[126.972448,35.124797],[126.972406,35.124877]]]]}},{"type":"Feature","id":"0000197426421807275400000000","properties":{"id":"0000197426421807275400000000","pnu":"1221012100201430001","purpose":"기타"},"geometry":{"type":"MultiPolygon","coordinates":[[[[126.972519,35.125661],[126.972569,35.125693],[126.972627,35.125631],[126.972583,35.1256],[126.972519,35.125661]]]]}},{"type":"Feature","id":"0000197428911803675500000000","properties":{"id":"0000197428911803675500000000","pnu":"1221012100202280000","purpose":"기타"},"geometry":{"type":"MultiPolygon","coordinates":[[[[126.972534,35.122429],[126.972604,35.122462],[126.972672,35.122375],[126.972599,35.122341],[126.972534,35.122429]]]]}},{"type":"Feature","id":"1960197417501806508800000000","properties":{"id":"1960197417501806508800000000","pnu":"1221012100100380001","year":1960,"purpose":"기타"},"geometry":{"type":"MultiPolygon","coordinates":[[[[126.97253,35.125],[126.972559,35.125011],[126.972565,35.125],[126.972584,35.124969],[126.972395,35.1249],[126.97237,35.124942],[126.97253,35.125]]]]}},{"type":"Feature","id":"1985197138851809634500000000","properties":{"id":"1985197138851809634500000000","pnu":"1221012100201450001","year":1985,"purpose":"제2종 근린생활시설","floors":1,"structure":"벽돌구조"},"geometry":{"type":"MultiPolygon","coordinates":[[[[126.969387,35.127827],[126.969443,35.127825],[126.969453,35.127719],[126.96939,35.12772],[126.969387,35.127827]]]]}},{"type":"Feature","id":"1992197393641803671600000000","properties":{"id":"1992197393641803671600000000","pnu":"1221012100100110000","year":1992,"purpose":"기타","far":17.57,"floors":2,"structure":"일반목구조"},"geometry":{"type":"MultiPolygon","coordinates":[[[[126.972044,35.122484],[126.972175,35.122556],[126.972227,35.122488],[126.972184,35.122456],[126.972221,35.122405],[126.972327,35.122452],[126.972406,35.12235],[126.972206,35.122254],[126.972044,35.122484]]]]}},{"type":"Feature","id":"1992197417751803539800000000","properties":{"id":"1992197417751803539800000000","pnu":"1221012100100110000","year":1992,"purpose":"기타","far":17.57,"floors":2,"structure":"일반목구조"},"geometry":{"type":"MultiPolygon","coordinates":[[[[126.972371,35.122315],[126.972492,35.122374],[126.972594,35.122247],[126.972462,35.122184],[126.972371,35.122315]]]]}}]}
