{"type":"FeatureCollection","features":[{"type":"Feature","id":"0000197102731811257700000000","properties":{"id":"0000197102731811257700000000","pnu":"1221012100100580000","purpose":"기타"},"geometry":{"type":"MultiPolygon","coordinates":[[[[126.968985,35.129277],[126.969042,35.129284],[126.969061,35.129194],[126.968997,35.129187],[126.968985,35.129277]]]]}},{"type":"Feature","id":"0000197104901810383700000000","properties":{"id":"0000197104901810383700000000","pnu":"1221012100100580000","purpose":"기타"},"geometry":{"type":"MultiPolygon","coordinates":[[[[126.96908,35.12849],[126.969107,35.128462],[126.969011,35.128405],[126.968983,35.12843],[126.96908,35.12849]]]]}},{"type":"Feature","id":"0000197105911810775700000000","properties":{"id":"0000197105911810775700000000","pnu":"1221012100201430001","purpose":"기타"},"geometry":{"type":"MultiPolygon","coordinates":[[[[126.969019,35.128805],[126.969049,35.128831],[126.969095,35.128796],[126.969065,35.12877],[126.969019,35.128805]]]]}},{"type":"Feature","id":"0000197107041810483700000000","properties":{"id":"0000197107041810483700000000","pnu":"1221012100100580000","purpose":"기타"},"geometry":{"type":"MultiPolygon","coordinates":[[[[126.969075,35.12857],[126.969111,35.128533],[126.969065,35.128505],[126.969026,35.128539],[126.969075,35.12857]]]]}},{"type":"Feature","id":"0000197114791810298400000000","properties":{"id":"0000197114791810298400000000","pnu":"1221012100201430001","purpose":"기타"},"geometry":{"type":"MultiPolygon","coordinates":[[[[126.969196,35.12842],[126.969224,35.128384],[126.969128,35.128329],[126.96907,35.128344],[126.969196,35.12842]]]]}},{"type":"Feature","id":"0000197138031811252200000000","properties":{"id":"0000197138031811252200000000","pnu":"1221012100201430001","purpose":"기타"},"geometry":{"type":"MultiPolygon","coordinates":[[[[126.969368,35.129159],[126.969347,35.129278],[126.969368,35.12928],[126.969365,35.129299],[126.969422,35.129306],[126.969425,35.129288],[126.969452,35.129291],[126.969473,35.129171],[126.969368,35.129159]]]]}},{"type":"Feature","id":"0000197155041810779000000000","properties":{"id":"0000197155041810779000000000","pnu":"1221012100100560000","purpose":"기타"},"geometry":{"type":"MultiPolygon","coordinates":[[[[126.96962,35.128843],[126.969645,35.128787],[126.969574,35.128763],[126.969544,35.128819],[126.96962,35.128843]]]]}},{"type":"Feature","id":"0000197173111810943600000000","properties":{"id":"0000197173111810943600000000","pnu":"1221012100100560000","purpose":"기타"},"geometry":{"type":"MultiPolygon","coordinates":[[[[126.969695,35.128855],[126.969639,35.128953],[126.969896,35.129046],[126.969951,35.128956],[126.969695,35.128855]]]]}},{"type":"Feature","id":"0000197180931810340200000000","properties":{"id":"0000197180931810340200000000","pnu":"1221012100201430001","purpose":"기타"},"geometry":{"type":"MultiPolygon","coordinates":[[[[126.969842,35.128358],[126.969809,35.128415],[126.969916,35.128457],[126.969953,35.128404],[126.969842,35.128358]]]]}},{"type":"Feature","id":"0000197188671810560400000000","properties":{"id":"0000197188671810560400000000","pnu":"1221012100100560000","purpose":"기타"},"geometry":{"type":"MultiPolygon","coordinates":[[[[126.969889,35.128519],[126.969834,35.128625],[126.970045,35.128693],[126.970095,35.128591],[126.969889,35.128519]]]]}},{"type":"Feature","id":"0000197192031810418500000000","properties":{"id":"0000197192031810418500000000","pnu":"1221012100100560000","purpose":"기타"},"geometry":{"type":"MultiPolygon","coordinates":[[[[126.969892,35.128515],[126.969969,35.128544],[126.969983,35.128524],[126.970064,35.128545],[126.970113,35.128453],[126.969957,35.128401],[126.969892,35.128515]]]]}},{"type":"Feature","id":"0000197209161810649600000000","properties":{"id":"0000197209161810649600000000","pnu":"1221012100100560000","purpose":"기타"},"geometry":{"type":"MultiPolygon","coordinates":[[[[126.970085,35.128696],[126.970253,35.128751],[126.970289,35.128676],[126.970132,35.128624],[126.970085,35.128696]]]]}},{"type":"Feature","id":"0000197213351810978400000000","properties":{"id":"0000197213351810978400000000","pnu":"1221012100100560000","purpose":"기타"},"geometry":{"type":"MultiPolygon","coordinates":[[[[126.970182,35.128935],[126.970162,35.129001],[126.970279,35.129032],[126.970315,35.128968],[126.970182,35.128935]]]]}},{"type":"Feature","id":"0000197225071810889200000000","properties":{"id":"0000197225071810889200000000","pnu":"1221012100100560000","purpose":"기타"},"geometry":{"type":"MultiPolygon","coordinates":[[[[126.970267,35.128949],[126.970406,35.128989],[126.970462,35.128859],[126.970321,35.128817],[126.970267,35.128949]]]]}},{"type":"Feature","id":"0000197877541813318000000000","properties":{"id":"0000197877541813318000000000","pnu":"1221012100201320017","purpose":"기타"},"geometry":{"type":"MultiPolygon","coordinates":[[[[126.97755,35.131123],[126.977544,35.131062],[126.977494,35.131065],[126.9775,35.131126],[126.97755,35.131123]]]]}},{"type":"Feature","id":"1955197162851810513100000000","properties":{"id":"1955197162851810513100000000","pnu":"1221012100100560000","purpose":"기타"},"geometry":{"type":"MultiPolygon","coordinates":[[[[126.969564,35.128634],[126.969704,35.12868],[126.969801,35.128494],[126.969654,35.12845],[126.969564,35.128634]]]]}},{"type":"Feature","id":"1955197200741810822300000000","properties":{"id":"1955197200741810822300000000","pnu":"1221012100100560000","purpose":"기타"},"geometry":{"type":"MultiPolygon","coordinates":[[[[126.969984,35.128899],[126.970128,35.128952],[126.970211,35.128784],[126.970065,35.128735],[126.969984,35.128899]]]]}},{"type":"Feature","id":"1964197108471810332500000000","properties":{"id":"1964197108471810332500000000","pnu":"1221012100100580000","year":1964,"purpose":"단독주택"},"geometry":{"type":"MultiPolygon","coordinates":[[[[126.969114,35.128455],[126.969156,35.128404],[126.969057,35.128347],[126.969012,35.128397],[126.969114,35.128455]]]]}}]}
